lead_id,name,phone,email,city,country,type,notes

ede1cc7d-1a60-42ed-9b92-6a1c0ed73dd4,Owner 2621,+91XXXXXXXXXX,,Delhi,IN,Seller,Generated
426478ee-3c03-4686-a94f-2401a6d33071,Owner 7596,+91XXXXXXXXXX,,New York,IN,Seller,Generated
0ce33ee5-6e51-4fe1-abf6-2265ce0e2a65,Owner 252,+91XXXXXXXXXX,,New York,IN,Seller,Generated
63cdb7e1-8940-43c7-a5b0-bd36c02ab31f,Owner 7141,+91XXXXXXXXXX,,London,IN,Seller,Generated
025e4af5-2b77-4e1e-81f4-b6f4b436dc66,Owner 3199,+91XXXXXXXXXX,,Mumbai,IN,Seller,Generated
33bba76a-8ecc-4351-8354-03a7d56dbe95,Owner 3774,+91XXXXXXXXXX,,Delhi,IN,Seller,Generated
2326ce57-367a-4743-8ddc-e56e31b885aa,Owner 2966,+91XXXXXXXXXX,,Mumbai,IN,Seller,Generated
55b7fa79-fe74-4024-9dc5-8e3da8f5fe75,Owner 8909,+91XXXXXXXXXX,,New York,IN,Seller,Generated
24039ede-db64-4efd-b0a8-58b7a9abd49a,Owner 614,+91XXXXXXXXXX,,Mumbai,IN,Seller,Generated
93ee2f1b-5444-425a-9840-c29d83e97b92,Owner 1705,+91XXXXXXXXXX,,Mumbai,IN,Seller,Generated
24a1cfd4-0577-48bc-8831-6a0c90dd12df,Owner 2788,+91XXXXXXXXXX,,Delhi,IN,Seller,Generated
061ad8b7-52b2-44b7-808a-cee673663a06,Owner 3778,+91XXXXXXXXXX,,Delhi,IN,Seller,Generated
831cab5b-4998-403a-b47d-f6af59cee03b,Owner 6602,+91XXXXXXXXXX,,London,IN,Seller,Generated
72b7da6e-1ccf-4d03-ac4d-6aeec09b3985,Owner 370,+91XXXXXXXXXX,,New York,IN,Seller,Generated
e744df16-558c-4d9c-a43f-21654be17a77,Owner 6102,+91XXXXXXXXXX,,London,IN,Seller,Generated
89273d43-6eb8-4468-8cc1-719417372479,Owner 9833,+91XXXXXXXXXX,,Delhi,IN,Seller,Generated
0446b637-6ecc-40d1-aab5-3501a0e94a4b,Owner 4568,+91XXXXXXXXXX,,Mumbai,IN,Seller,Generated
924189f1-2cb9-47b1-bcb3-96b190a0828c,Owner 7721,+91XXXXXXXXXX,,Delhi,IN,Seller,Generated
6de0ab01-0907-471b-8478-f884caea1f66,Owner 1098,+91XXXXXXXXXX,,London,IN,Seller,Generated
5827b81b-10c7-4a66-a96a-ac52446345a3,Owner 3410,+91XXXXXXXXXX,,New York,IN,Seller,Generated
66688bf5-ce10-401f-bf9c-141e6601dabd,Owner 102,+91XXXXXXXXXX,,London,IN,Seller,Generated
23f5fbc3-e18a-4e18-8c91-59c018700c97,Owner 5892,+91XXXXXXXXXX,,London,IN,Seller,Generated
f6c90c3c-0ac6-41ab-b202-faedeafe2a16,Owner 3737,+91XXXXXXXXXX,,Delhi,IN,Seller,Generated
eaf5175d-2213-4bd7-b2ac-6d859b4c21bc,Owner 8467,+91XXXXXXXXXX,,Delhi,IN,Seller,Generated
52d8d026-4cbf-4403-8379-af90eb0eb025,Owner 981,+91XXXXXXXXXX,,Mumbai,IN,Seller,Generated
e35386d3-6d72-49e4-a429-01e1046ffab1,Owner 3498,+91XXXXXXXXXX,,Mumbai,IN,Seller,Generated
eaeb64f4-d3b3-4ecd-b00a-c4a038be0e42,Owner 391,+91XXXXXXXXXX,,London,IN,Seller,Generated
44a58836-8ab1-4081-b65f-9bd584b7a2a9,Owner 862,+91XXXXXXXXXX,,Delhi,IN,Seller,Generated
13942554-3f04-4ff7-bd1e-347dcedf62ef,Owner 4518,+91XXXXXXXXXX,,London,IN,Seller,Generated
827b712e-2957-4464-887c-44a4582e57fc,Owner 8005,+91XXXXXXXXXX,,Delhi,IN,Seller,Generated
5e6003c1-63bb-4480-98cf-06ff0111ee4f,Owner 5536,+91XXXXXXXXXX,,New York,IN,Seller,Generated
5abf4206-5fc9-4ca8-a66f-58fe0b25d86b,Owner 386,+91XXXXXXXXXX,,New York,IN,Seller,Generated
688fc94f-f291-442f-abfe-8f043fd498ab,Owner 6748,+91XXXXXXXXXX,,London,IN,Seller,Generated
840172b4-9a82-4ec4-a5a8-147035715ec3,Owner 3865,+91XXXXXXXXXX,,Delhi,IN,Seller,Generated
dc2f058e-8f27-4cab-80b3-0481a1d8b1be,Owner 7042,+91XXXXXXXXXX,,New York,IN,Seller,Generated
ff1f7b01-6cd3-470c-9e0b-308c4f5c83e2,Owner 547,+91XXXXXXXXXX,,Delhi,IN,Seller,Generated
98d82554-29b0-4b71-8e0e-5989a4d1429c,Owner 6538,+91XXXXXXXXXX,,Delhi,IN,Seller,Generated
251316a4-5eaa-46c6-bd45-3d020003d0f7,Owner 834,+91XXXXXXXXXX,,Mumbai,IN,Seller,Generated
007335a1-6bde-4302-a5b7-869468e3f54f,Owner 2244,+91XXXXXXXXXX,,New York,IN,Seller,Generated
26a8fa1b-249d-41e7-b0c6-5c80aacafd9c,Owner 3064,+91XXXXXXXXXX,,London,IN,Seller,Generated
cc99f75d-57e9-4e09-8501-685c55dcd667,Owner 9711,+91XXXXXXXXXX,,New York,IN,Seller,Generated
5c11d2fc-e0d2-4f26-be29-f3806b9a60bb,Owner 4775,+91XXXXXXXXXX,,Mumbai,IN,Seller,Generated
1580c798-9fe2-4133-a215-de026414a840,Owner 4103,+91XXXXXXXXXX,,Mumbai,IN,Seller,Generated
f8594538-1180-423c-be9f-620600bbbf1e,Owner 6001,+91XXXXXXXXXX,,London,IN,Seller,Generated
1c47f0c3-8b54-4693-8531-0554afdf62c4,Owner 9342,+91XXXXXXXXXX,,Delhi,IN,Seller,Generated
04f1729f-f7d0-48a9-8565-9e8a4bd60d12,Owner 8291,+91XXXXXXXXXX,,New York,IN,Seller,Generated
482f37ad-08df-4530-bb8e-de681498fda3,Owner 3241,+91XXXXXXXXXX,,London,IN,Seller,Generated
9eec4d94-1747-4338-be9d-b4e22ad9ecdd,Owner 6494,+91XXXXXXXXXX,,Delhi,IN,Seller,Generated
e4190e68-8782-4e89-b430-e61010b2c369,Owner 4456,+91XXXXXXXXXX,,Delhi,IN,Seller,Generated
ad4b7097-ec5c-4c94-8955-d888a7adae1e,Owner 8721,+91XXXXXXXXXX,,Delhi,IN,Seller,Generated
87868dc9-365f-41ac-96a3-a931308923bf,Owner 9365,+91XXXXXXXXXX,,Delhi,IN,Seller,Generated
71b106e2-cae8-4d56-99b7-e7f507f03782,Owner 1510,+91XXXXXXXXXX,,London,IN,Seller,Generated
f18deb10-6362-4801-ba51-c53e031425f3,Owner 3638,+91XXXXXXXXXX,,Delhi,IN,Seller,Generated
41d2455f-956b-4fd4-bb42-de95088312c8,Owner 7559,+91XXXXXXXXXX,,London,IN,Seller,Generated
62bdf682-aa58-40bf-8bda-095e0aeb2717,Owner 8528,+91XXXXXXXXXX,,New York,IN,Seller,Generated
35fa6204-8bf8-454f-bf7c-9a53df2825db,Owner 9485,+91XXXXXXXXXX,,Mumbai,IN,Seller,Generated
76a592be-b989-49a3-a6a4-4f9282db2568,Owner 2346,+91XXXXXXXXXX,,New York,IN,Seller,Generated
c6df179c-406a-417c-8ede-5f2378f21921,Owner 7333,+91XXXXXXXXXX,,Mumbai,IN,Seller,Generated
cb6054d3-68ec-449c-b2d6-59bf9a950e52,Owner 5888,+91XXXXXXXXXX,,Delhi,IN,Seller,Generated
641615ff-8acc-4d0b-a005-aa41a6139d2b,Owner 4883,+91XXXXXXXXXX,,London,IN,Seller,Generated
5abe6bbe-f774-4b21-b737-c4c11706b94b,Owner 5829,+91XXXXXXXXXX,,Delhi,IN,Seller,Generated
e08f5e99-3e08-4ea2-a689-9f1fc1e4121e,Owner 4345,+91XXXXXXXXXX,,New York,IN,Seller,Generated
2d4e04d6-7fbc-4828-80c6-63e2083182d4,Owner 4047,+91XXXXXXXXXX,,Delhi,IN,Seller,Generated
ca1dcb41-bff8-46c2-9afa-a6cc481e435a,Owner 6140,+91XXXXXXXXXX,,Mumbai,IN,Seller,Generated
197449a8-579a-48d0-9c57-772a9634cd6f,Owner 8768,+91XXXXXXXXXX,,New York,IN,Seller,Generated
b447b940-d3ea-494f-a2b1-e99233dbe967,Owner 4830,+91XXXXXXXXXX,,London,IN,Seller,Generated
5e2b6eb3-7ba0-4125-ad46-653d7200b89c,Owner 2955,+91XXXXXXXXXX,,New York,IN,Seller,Generated
e65d0763-deff-450b-a05f-7b66895c93b0,Owner 1156,+91XXXXXXXXXX,,Delhi,IN,Seller,Generated
f3ff303c-5593-49bc-9d2d-4bf3d74e66c0,Owner 4365,+91XXXXXXXXXX,,London,IN,Seller,Generated
f5a3badd-b501-47dd-b944-af36a1c423a1,Owner 2711,+91XXXXXXXXXX,,London,IN,Seller,Generated
a31c3fa1-8c39-4643-85b4-32f3bccd9719,Owner 6048,+91XXXXXXXXXX,,London,IN,Seller,Generated
bde4f30b-e1ed-4a2e-9d1a-b9707500c005,Owner 6655,+91XXXXXXXXXX,,Mumbai,IN,Seller,Generated
5bb433c2-bad5-4f04-94c4-cd7b35d63990,Owner 5433,+91XXXXXXXXXX,,Mumbai,IN,Seller,Generated
b682bf06-58b5-413b-9c51-98eb58e9134a,Owner 6502,+91XXXXXXXXXX,,New York,IN,Seller,Generated
3e62601a-c278-4042-8414-5d3e1603b7f8,Owner 7936,+91XXXXXXXXXX,,Delhi,IN,Seller,Generated
4a035852-6dbd-490d-b107-72e54e2e5c52,Owner 2935,+91XXXXXXXXXX,,Delhi,IN,Seller,Generated
dfecbd89-587c-4084-aef9-76f334d94856,Owner 2938,+91XXXXXXXXXX,,Delhi,IN,Seller,Generated
57b69007-f2d4-4029-a3fc-01cc82892d1c,Owner 3390,+91XXXXXXXXXX,,London,IN,Seller,Generated
82d0b505-a0d1-43d2-a7cd-183822c7a053,Owner 5342,+91XXXXXXXXXX,,London,IN,Seller,Generated
ea70254f-0d3b-400a-9cd9-6aac0e4e751b,Owner 5034,+91XXXXXXXXXX,,New York,IN,Seller,Generated
21e84901-02d5-4040-9965-6d1595219a31,Owner 8575,+91XXXXXXXXXX,,London,IN,Seller,Generated
d2df109b-43cd-4b18-b2bd-5a3a55cfe49b,Owner 9530,+91XXXXXXXXXX,,New York,IN,Seller,Generated
7214a479-21f7-42dd-a3cf-e0f2dc71d1ca,Owner 5463,+91XXXXXXXXXX,,New York,IN,Seller,Generated
b0ea0144-720c-4b38-9644-7bcd4dbcddd1,Owner 2297,+91XXXXXXXXXX,,Delhi,IN,Seller,Generated
3552ed40-3bca-4710-b4ba-b9f310344a3c,Owner 7612,+91XXXXXXXXXX,,Delhi,IN,Seller,Generated
bee9dbb2-3f22-4e68-a197-215d77683cd4,Owner 3167,+91XXXXXXXXXX,,Mumbai,IN,Seller,Generated
51f29d18-9997-45b5-b13a-db55504fb795,Owner 3878,+91XXXXXXXXXX,,Delhi,IN,Seller,Generated
7f07b9d0-5134-47bf-8c25-9254260881c6,Owner 2241,+91XXXXXXXXXX,,New York,IN,Seller,Generated
735e87bf-19e4-47c7-8006-794c75bbf14a,Owner 6976,+91XXXXXXXXXX,,Mumbai,IN,Seller,Generated
1f907714-fb31-4683-903b-a2a7014c52e6,Owner 8074,+91XXXXXXXXXX,,New York,IN,Seller,Generated
5700895b-7fa0-4d51-b34a-2a1f47d89fc2,Owner 6695,+91XXXXXXXXXX,,London,IN,Seller,Generated
59026c7e-c427-43bb-8ff4-7e5b0f4a65b0,Owner 9299,+91XXXXXXXXXX,,Delhi,IN,Seller,Generated
ebcc24c9-6b1e-4317-aed2-8de4e1074fa9,Owner 3715,+91XXXXXXXXXX,,New York,IN,Seller,Generated
028810ba-d90b-4bdc-95a1-31706d81891f,Owner 8308,+91XXXXXXXXXX,,London,IN,Seller,Generated
c4bac97e-6e20-44b2-af71-6b6d803df27e,Owner 5419,+91XXXXXXXXXX,,New York,IN,Seller,Generated
10640c71-fd3d-4580-8ae8-36cf0a301161,Owner 8563,+91XXXXXXXXXX,,London,IN,Seller,Generated
a54aeb7a-9dcb-4a42-afb8-704409879fc4,Owner 7059,+91XXXXXXXXXX,,London,IN,Seller,Generated
fae83919-f674-4d0c-b73c-5c789414bdc6,Owner 4457,+91XXXXXXXXXX,,Mumbai,IN,Seller,Generated
54fe5b5b-6c1f-4ccc-b279-df3015cfafd3,Owner 6721,+91XXXXXXXXXX,,Delhi,IN,Seller,Generated
1826c73b-fa04-4a4c-afc6-eaa555d45a54,Owner 5548,+91XXXXXXXXXX,,Delhi,IN,Seller,Generated
ec19c2c6-efe9-4ef7-87b9-b6c4c26a0c09,Owner 4198,+91XXXXXXXXXX,,London,IN,Seller,Generated
fd832ab4-9f7e-4ba7-a9f4-27ebf5026c2e,Owner 2021,+91XXXXXXXXXX,,Mumbai,IN,Seller,Generated
4722dacb-c914-4692-975a-5ab062bb524e,Owner 7479,+91XXXXXXXXXX,,New York,IN,Seller,Generated
0461592c-ac0f-4ff5-8ee2-ce16a95158f1,Owner 3773,+91XXXXXXXXXX,,Mumbai,IN,Seller,Generated
2f248bc1-58bb-483c-9982-71f088f27a79,Owner 1061,+91XXXXXXXXXX,,New York,IN,Seller,Generated
9996c51b-b863-41c8-99dc-7e555f99fa76,Owner 6331,+91XXXXXXXXXX,,Delhi,IN,Seller,Generated
b7274c7e-8851-4eab-8dd4-9d8ae59abaae,Owner 2193,+91XXXXXXXXXX,,London,IN,Seller,Generated
b8bd1ead-c56c-435d-8989-73b05b63d764,Owner 7047,+91XXXXXXXXXX,,Delhi,IN,Seller,Generated
f3f29c11-0640-4d81-a3d1-57fa68c3923d,Owner 711,+91XXXXXXXXXX,,London,IN,Seller,Generated
bb73f649-4c8c-4ddf-8af2-b2742251d134,Owner 8193,+91XXXXXXXXXX,,New York,IN,Seller,Generated
bcdad0c5-e081-44de-af5c-81928c976727,Owner 4575,+91XXXXXXXXXX,,London,IN,Seller,Generated
62285e71-f274-43e4-b2af-403abc5edf8d,Owner 1970,+91XXXXXXXXXX,,New York,IN,Seller,Generated
f2ad0d95-91e8-408c-8d0f-84d41e14eea3,Owner 6076,+91XXXXXXXXXX,,Mumbai,IN,Seller,Generated
1353e9c0-6953-4b23-bd2c-c66974d54797,Owner 3970,+91XXXXXXXXXX,,Mumbai,IN,Seller,Generated
b13b3734-39cc-465c-b40c-96281465a3c0,Owner 1480,+91XXXXXXXXXX,,New York,IN,Seller,Generated
ae31c88b-8fa5-43bd-a1d0-ac1f4875d7da,Owner 6467,+91XXXXXXXXXX,,London,IN,Seller,Generated
db6e2d79-dfa1-452c-b779-1588b18e0285,Owner 8981,+91XXXXXXXXXX,,New York,IN,Seller,Generated
6b659cc5-3a7d-4024-b303-2ee78212a720,Owner 843,+91XXXXXXXXXX,,London,IN,Seller,Generated
7297e8fc-63e2-4c9c-a4d0-11af9aae3851,Owner 246,+91XXXXXXXXXX,,Delhi,IN,Seller,Generated
f3959f04-3b8a-4ed7-a8f9-3e2756c4d780,Owner 5965,+91XXXXXXXXXX,,London,IN,Seller,Generated
c586c85e-5333-418d-9042-33a1b5315afd,Owner 7011,+91XXXXXXXXXX,,London,IN,Seller,Generated
b0691daa-d8a4-437f-ba6b-27bce9dfab0a,Owner 6118,+91XXXXXXXXXX,,New York,IN,Seller,Generated
e4ab4722-017d-4204-9bd3-e8ca45aa8cd6,Owner 3398,+91XXXXXXXXXX,,Delhi,IN,Seller,Generated
eeaf99e1-847f-49b7-bd44-dad35ef68ba0,Owner 3999,+91XXXXXXXXXX,,Delhi,IN,Seller,Generated
c7f9fd4c-a1e2-4ba4-9c61-e4043e93ab1b,Owner 2902,+91XXXXXXXXXX,,London,IN,Seller,Generated
0a85672c-c014-4897-baa6-c5ffa39ec1bc,Owner 4692,+91XXXXXXXXXX,,London,IN,Seller,Generated
464f5472-3f4a-4ddc-b0ac-e1800f6a240f,Owner 3283,+91XXXXXXXXXX,,Delhi,IN,Seller,Generated
e71f19cb-e3b6-4961-a50b-e1c410c7b6a5,Owner 2158,+91XXXXXXXXXX,,London,IN,Seller,Generated
1fa813b3-2ac0-4f6e-9a70-d9ef3366b820,Owner 1628,+91XXXXXXXXXX,,Delhi,IN,Seller,Generated
6b8b5304-5422-4abe-80c8-479f31e7955f,Owner 9355,+91XXXXXXXXXX,,New York,IN,Seller,Generated
185c436c-3ff4-429e-adc1-62efbd0d3474,Owner 557,+91XXXXXXXXXX,,Mumbai,IN,Seller,Generated
6f145968-1e1c-4e53-b5a9-aa21921bcd7b,Owner 9412,+91XXXXXXXXXX,,Mumbai,IN,Seller,Generated
575c98cf-22d7-4f90-9b87-dff922080b34,Owner 787,+91XXXXXXXXXX,,Mumbai,IN,Seller,Generated
2df9a48b-b759-492a-9e45-98bd51582897,Owner 4329,+91XXXXXXXXXX,,New York,IN,Seller,Generated
543ca1e4-4502-4f43-91da-b8302a8a2b26,Owner 8845,+91XXXXXXXXXX,,Delhi,IN,Seller,Generated
c9f7abf6-d5f5-4863-b1e6-8866f6885b9b,Owner 4778,+91XXXXXXXXXX,,Delhi,IN,Seller,Generated
4a93ac0d-e22f-4032-a9e5-cabbf38a67af,Owner 6979,+91XXXXXXXXXX,,Mumbai,IN,Seller,Generated
abef7a97-863a-4020-a6d9-69757d2290bd,Owner 5600,+91XXXXXXXXXX,,Delhi,IN,Seller,Generated
69d39a59-e455-477a-a5c8-339237522172,Owner 6330,+91XXXXXXXXXX,,London,IN,Seller,Generated
ab5f20cc-d1f6-486a-847a-66b50364bce6,Owner 2005,+91XXXXXXXXXX,,Mumbai,IN,Seller,Generated
c714514f-ba59-4996-a038-42ca170485d7,Owner 9856,+91XXXXXXXXXX,,Delhi,IN,Seller,Generated
744bdb6f-1ea8-4cb8-8f51-923414104d42,Owner 3240,+91XXXXXXXXXX,,Mumbai,IN,Seller,Generated
4219683c-fc1f-46fc-b5f9-324ab5829c35,Owner 4282,+91XXXXXXXXXX,,Mumbai,IN,Seller,Generated
7a920a40-565f-4f04-b84c-12222b369358,Owner 8071,+91XXXXXXXXXX,,New York,IN,Seller,Generated
4e5b2344-6c6b-4728-be08-154c0a2fb8e3,Owner 2627,+91XXXXXXXXXX,,New York,IN,Seller,Generated
8f7a08c3-1247-4d2b-bd60-23d28627be5b,Owner 3744,+91XXXXXXXXXX,,Mumbai,IN,Seller,Generated
ead0bb07-fb7a-4531-be84-75716ba77d00,Owner 2890,+91XXXXXXXXXX,,London,IN,Seller,Generated
0f575699-6cf5-4b59-b7b2-0fa01ee9a1b3,Owner 8778,+91XXXXXXXXXX,,Delhi,IN,Seller,Generated
7cf3e4d1-bdb4-4c6c-acaa-3c518d904a8f,Owner 6213,+91XXXXXXXXXX,,Delhi,IN,Seller,Generated
6d4a701e-512a-4da5-9b2c-e1eb4c4610f6,Owner 5476,+91XXXXXXXXXX,,Mumbai,IN,Seller,Generated
b4cc53d4-5ee5-477f-80ed-93eadb2d90f5,Owner 4348,+91XXXXXXXXXX,,New York,IN,Seller,Generated
a607d497-498a-405d-ad48-6add076563de,Owner 6514,+91XXXXXXXXXX,,London,IN,Seller,Generated
dde33aaa-5d16-49d3-b270-1c87239ad71c,Owner 8813,+91XXXXXXXXXX,,Mumbai,IN,Seller,Generated
38642bff-33d5-4d5a-91dd-85495156acf7,Owner 819,+91XXXXXXXXXX,,New York,IN,Seller,Generated
c4c05a32-d3d7-481d-8675-21c094b7367e,Owner 3898,+91XXXXXXXXXX,,Mumbai,IN,Seller,Generated
ef77c406-429c-4b52-ac56-7862183aabb4,Owner 6612,+91XXXXXXXXXX,,London,IN,Seller,Generated
ce76b4ff-82b5-4a14-8143-af05fa33a958,Owner 5670,+91XXXXXXXXXX,,Delhi,IN,Seller,Generated
32645104-8f84-4f2f-b13f-40aec75e431f,Owner 3315,+91XXXXXXXXXX,,New York,IN,Seller,Generated
6ff63b7c-bfc4-410a-a2fe-545941799189,Owner 8200,+91XXXXXXXXXX,,New York,IN,Seller,Generated
ce014ab4-44cc-48b5-af94-050d984c29ef,Owner 9844,+91XXXXXXXXXX,,Delhi,IN,Seller,Generated
54d082f9-ae45-4214-8ec7-cfe9d6ef227b,Owner 5895,+91XXXXXXXXXX,,Delhi,IN,Seller,Generated
f356a8d9-e023-4572-b82f-0055fe3e63ac,Owner 9307,+91XXXXXXXXXX,,Delhi,IN,Seller,Generated
5c505644-6e00-4dc2-b282-dbc719b9bfe8,Owner 7561,+91XXXXXXXXXX,,London,IN,Seller,Generated
ce27a46a-ed91-4dac-b438-3ad18d63c034,Owner 5643,+91XXXXXXXXXX,,New York,IN,Seller,Generated
42fd7449-29c0-4f4e-8118-828226b83708,Owner 2829,+91XXXXXXXXXX,,New York,IN,Seller,Generated
699e2a98-89bd-49db-997d-ef73eabac894,Owner 6173,+91XXXXXXXXXX,,New York,IN,Seller,Generated
876b66f8-e2a1-4736-acac-30adf517084c,Owner 1271,+91XXXXXXXXXX,,New York,IN,Seller,Generated
f5044607-e3e8-49ab-823e-e48ffe7d0016,Owner 1499,+91XXXXXXXXXX,,Mumbai,IN,Seller,Generated
9bcc4186-e02e-4847-8ced-671fee8d7329,Owner 3538,+91XXXXXXXXXX,,New York,IN,Seller,Generated
7f23f13f-12da-44fa-baf9-f1d3cd564abc,Owner 3310,+91XXXXXXXXXX,,London,IN,Seller,Generated
35ad24b2-4c9c-4a59-9cc9-289d5ad975a3,Owner 3903,+91XXXXXXXXXX,,New York,IN,Seller,Generated
c6ef799a-1283-47de-bff4-7e1c7d1c8b2c,Owner 9989,+91XXXXXXXXXX,,Mumbai,IN,Seller,Generated
22459d6e-827e-4d72-96cc-d044a88f7dbc,Owner 2146,+91XXXXXXXXXX,,London,IN,Seller,Generated
a3cd391a-332a-418e-b1d1-bf0de441c814,Owner 3207,+91XXXXXXXXXX,,New York,IN,Seller,Generated
6b16a83e-a827-4c84-8f5e-c992888f5f23,Owner 4936,+91XXXXXXXXXX,,Mumbai,IN,Seller,Generated
44bc856a-9237-4c46-b208-d86764948227,Owner 7656,+91XXXXXXXXXX,,Delhi,IN,Seller,Generated
aa160167-dfb3-424a-aae3-c9a0b4c128a6,Owner 5616,+91XXXXXXXXXX,,Mumbai,IN,Seller,Generated
8db858ad-ef4e-41bd-bcea-c6e027b9c30d,Owner 4779,+91XXXXXXXXXX,,Mumbai,IN,Seller,Generated
21135246-2726-4460-891c-1f2e4bcee59f,Owner 2485,+91XXXXXXXXXX,,Mumbai,IN,Seller,Generated
d5b308da-cf73-4670-85ed-dcab0e9478a7,Owner 165,+91XXXXXXXXXX,,Delhi,IN,Seller,Generated
51fa2cdd-b08d-43cd-a69d-ce7d58171b4c,Owner 6696,+91XXXXXXXXXX,,Mumbai,IN,Seller,Generated
93449f8a-2a48-49cb-b681-420aad120fc5,Owner 5660,+91XXXXXXXXXX,,Mumbai,IN,Seller,Generated
5a99cd9e-6b74-406b-89a7-36fecaf7e824,Owner 8956,+91XXXXXXXXXX,,Delhi,IN,Seller,Generated
9046fc56-5ef4-43b2-905a-ed8dfd9652a6,Owner 5674,+91XXXXXXXXXX,,Mumbai,IN,Seller,Generated
9815f9ee-f208-46c4-bb70-b7e4df0d46f1,Owner 8828,+91XXXXXXXXXX,,New York,IN,Seller,Generated
023158da-cde1-4b6c-9e05-f26f80ee1daf,Owner 7503,+91XXXXXXXXXX,,Mumbai,IN,Seller,Generated
66ecb31b-e304-4635-986c-ee7b4004b395,Owner 824,+91XXXXXXXXXX,,Delhi,IN,Seller,Generated
e7ab4cef-2d9d-4b02-85fb-204b842951b2,Owner 6339,+91XXXXXXXXXX,,Delhi,IN,Seller,Generated
8cc0b6d8-11ef-49fa-9a66-b34e9238a87c,Owner 6010,+91XXXXXXXXXX,,London,IN,Seller,Generated
a6c65696-562e-4e49-a2b9-f0805adfdf27,Owner 6495,+91XXXXXXXXXX,,Delhi,IN,Seller,Generated
255371eb-e1d7-4af0-bbc1-0f5bd4c3206b,Owner 8327,+91XXXXXXXXXX,,Delhi,IN,Seller,Generated
25a0507e-9bbd-4a54-8122-e40dfcc17eb9,Owner 1456,+91XXXXXXXXXX,,Mumbai,IN,Seller,Generated
fe168765-bf71-4fae-9271-1540061af497,Owner 8140,+91XXXXXXXXXX,,Mumbai,IN,Seller,Generated
48676ecd-9378-4e5c-863f-0e1378b32d01,Owner 9629,+91XXXXXXXXXX,,Mumbai,IN,Seller,Generated
7de8a5d4-52a6-4fec-9fd3-9b1a800a1b9f,Owner 2839,+91XXXXXXXXXX,,New York,IN,Seller,Generated
fafc2307-32e1-407c-8b4d-803752209956,Owner 9804,+91XXXXXXXXXX,,Mumbai,IN,Seller,Generated
5b96a22b-df23-41c3-a99e-64f91f96abb7,Owner 4694,+91XXXXXXXXXX,,New York,IN,Seller,Generated
608355a7-8229-4a82-9b9f-262061369203,Owner 958,+91XXXXXXXXXX,,Delhi,IN,Seller,Generated
7573817b-c27f-4f3e-a892-0c490f8f64c6,Owner 5246,+91XXXXXXXXXX,,Mumbai,IN,Seller,Generated
e18636c8-0f5a-4fe3-9728-ac2ebe8fa6ab,Owner 809,+91XXXXXXXXXX,,Mumbai,IN,Seller,Generated
0e878af4-8ca9-40aa-9874-08103936d6a1,Owner 9167,+91XXXXXXXXXX,,London,IN,Seller,Generated
c3719bf6-1e73-4586-9348-966b41a39be0,Owner 5118,+91XXXXXXXXXX,,Delhi,IN,Seller,Generated
562ee6e7-6643-4c05-8975-26321203dd16,Owner 1879,+91XXXXXXXXXX,,New York,IN,Seller,Generated
ee8dda46-97e7-4c25-9e56-693b652542bc,Owner 5602,+91XXXXXXXXXX,,New York,IN,Seller,Generated
0c6c7e8b-26ba-4735-aa58-66ebba57cb26,Owner 8499,+91XXXXXXXXXX,,London,IN,Seller,Generated
045e06b6-973f-4585-8171-80bd7fbd2be1,Owner 8716,+91XXXXXXXXXX,,New York,IN,Seller,Generated
395ad357-8318-4d42-8807-5740d71e914b,Owner 2076,+91XXXXXXXXXX,,New York,IN,Seller,Generated
453314de-20d9-4b65-927e-771572edbb21,Owner 3169,+91XXXXXXXXXX,,Delhi,IN,Seller,Generated
99fb410e-e8cd-4f21-8ec6-c2697cf72c7a,Owner 8800,+91XXXXXXXXXX,,London,IN,Seller,Generated
6ccb771d-c070-41ee-90bd-acaee6287cd2,Owner 7918,+91XXXXXXXXXX,,Delhi,IN,Seller,Generated
d505d572-fddd-4f60-afec-b4d7ac039d02,Owner 5672,+91XXXXXXXXXX,,Delhi,IN,Seller,Generated
db9caaf3-1e34-41a9-98d8-862ef72762ec,Owner 4683,+91XXXXXXXXXX,,New York,IN,Seller,Generated
25e56c1a-6c51-4ca3-9af6-f3f4ccd19211,Owner 660,+91XXXXXXXXXX,,London,IN,Seller,Generated
6c5fa0de-699e-44d4-92c2-bf940a711748,Owner 7009,+91XXXXXXXXXX,,London,IN,Seller,Generated
07610f8f-27e9-4d94-af42-a1261bcd5169,Owner 4300,+91XXXXXXXXXX,,Mumbai,IN,Seller,Generated
0063c3e2-902c-44ce-8c54-9cc0f7a78644,Owner 4623,+91XXXXXXXXXX,,Mumbai,IN,Seller,Generated
bf37d694-5890-44f6-b195-62ba67f9f896,Owner 5094,+91XXXXXXXXXX,,New York,IN,Seller,Generated
f4c4e990-9f65-4960-8ac1-bc9eb0742353,Owner 4774,+91XXXXXXXXXX,,London,IN,Seller,Generated
1e5051b1-dae0-4be1-96ee-e35169562152,Owner 4847,+91XXXXXXXXXX,,New York,IN,Seller,Generated
00920279-a2b7-4f79-9dad-6ee5ac8ccf69,Owner 1064,+91XXXXXXXXXX,,New York,IN,Seller,Generated
d3ee3e88-089e-4ec1-b711-33cd2c083904,Owner 2925,+91XXXXXXXXXX,,Delhi,IN,Seller,Generated
90f72f9b-5be7-4886-84a2-49d39dd2f1f6,Owner 6698,+91XXXXXXXXXX,,London,IN,Seller,Generated
e325cf01-76ca-4926-8764-b889df509910,Owner 4147,+91XXXXXXXXXX,,New York,IN,Seller,Generated
20a4fa26-a877-47fd-b875-ee95e40e99bf,Owner 1123,+91XXXXXXXXXX,,Delhi,IN,Seller,Generated
3ff3d170-ea42-4053-86e8-296603a4a553,Owner 5962,+91XXXXXXXXXX,,London,IN,Seller,Generated
80913097-b2c4-4c18-b091-143c7dae87f3,Owner 2682,+91XXXXXXXXXX,,New York,IN,Seller,Generated
f620f959-4fac-454f-b20d-2b10e8654111,Owner 2054,+91XXXXXXXXXX,,Mumbai,IN,Seller,Generated
9fbff6fa-a345-4cad-a0c7-7ccc78122f97,Owner 1374,+91XXXXXXXXXX,,New York,IN,Seller,Generated
9d6f49e9-8139-4296-aa62-f32cfa6188be,Owner 6516,+91XXXXXXXXXX,,Mumbai,IN,Seller,Generated
d8c2d3af-0cfb-48ac-b425-67b956c3e8c8,Owner 5616,+91XXXXXXXXXX,,New York,IN,Seller,Generated
d10a32bb-56a0-47e8-82bc-2ac96384f6dc,Owner 4243,+91XXXXXXXXXX,,Delhi,IN,Seller,Generated
42d587cf-db6e-4004-8241-3705cd356046,Owner 6442,+91XXXXXXXXXX,,Mumbai,IN,Seller,Generated
b44288db-bbf9-43df-8034-72e8b8a423e5,Owner 1540,+91XXXXXXXXXX,,New York,IN,Seller,Generated
8cbf439b-bbf6-45ff-b9e9-9962ea848c4d,Owner 7802,+91XXXXXXXXXX,,Delhi,IN,Seller,Generated
a79ab32e-e176-481a-a3b2-46b16916b930,Owner 1856,+91XXXXXXXXXX,,Delhi,IN,Seller,Generated
e4963de9-038b-415e-8209-6298444a54b5,Owner 2616,+91XXXXXXXXXX,,New York,IN,Seller,Generated
501b0b10-ea43-4779-82d9-9689acb7f925,Owner 8029,+91XXXXXXXXXX,,London,IN,Seller,Generated
1bdbb0ea-7772-47e7-909b-e5ce06aab5ee,Owner 2622,+91XXXXXXXXXX,,Delhi,IN,Seller,Generated
5d8b1d21-ec96-4dbf-a2d5-41264262bf43,Owner 9236,+91XXXXXXXXXX,,Mumbai,IN,Seller,Generated
914c4a1d-c07d-4598-9923-ce2d8f89b6a6,Owner 4974,+91XXXXXXXXXX,,New York,IN,Seller,Generated
6e514098-cb76-4f13-bfbc-cde64c8a2546,Owner 3394,+91XXXXXXXXXX,,London,IN,Seller,Generated
763c7a6e-cf65-4920-a760-4c3d95fb51c0,Owner 3003,+91XXXXXXXXXX,,London,IN,Seller,Generated
e607431b-0c99-4533-835a-5efc21ae8270,Owner 7814,+91XXXXXXXXXX,,Mumbai,IN,Seller,Generated
782563ce-a6c8-4d4d-8f37-86132dc8314c,Owner 8375,+91XXXXXXXXXX,,New York,IN,Seller,Generated
037197b0-7ccd-4421-9c0c-920c703e3b9f,Owner 1158,+91XXXXXXXXXX,,Mumbai,IN,Seller,Generated
b0f8b0c0-b9e3-4c6b-9dae-008fd0fad326,Owner 304,+91XXXXXXXXXX,,London,IN,Seller,Generated
9fb8844c-180b-4383-b6a2-eb5d2c6adcb0,Owner 4439,+91XXXXXXXXXX,,Delhi,IN,Seller,Generated
b078742b-2ada-4ce6-9979-c2e1ca1e572f,Owner 5842,+91XXXXXXXXXX,,Mumbai,IN,Seller,Generated
7b5c7299-1330-4b8b-b9a0-50783c7d709c,Owner 7742,+91XXXXXXXXXX,,Mumbai,IN,Seller,Generated
2ea00e03-00a6-4f48-a8dc-19f7e4942884,Owner 3844,+91XXXXXXXXXX,,Delhi,IN,Seller,Generated
d63c9131-c094-423b-90df-57cab5da97e3,Owner 4507,+91XXXXXXXXXX,,London,IN,Seller,Generated
95b9c828-40af-4e05-bf75-c20e5692433f,Owner 879,+91XXXXXXXXXX,,New York,IN,Seller,Generated
fb186c96-7db6-4c45-850e-dbf7d79df4d3,Owner 9360,+91XXXXXXXXXX,,Delhi,IN,Seller,Generated
d7a14369-e375-41a8-b2a0-71d1b4b6901b,Owner 4625,+91XXXXXXXXXX,,Mumbai,IN,Seller,Generated
07921db5-6faf-4457-aef3-e65bf2ff188d,Owner 8514,+91XXXXXXXXXX,,Mumbai,IN,Seller,Generated
0ac44619-70e7-4636-972f-e7868d2ff2ac,Owner 911,+91XXXXXXXXXX,,Delhi,IN,Seller,Generated
81ee3a28-6e3d-466e-8a3f-5fab71239513,Owner 9272,+91XXXXXXXXXX,,Mumbai,IN,Seller,Generated
db0c7376-a5ea-447e-aa17-41f6c32b5fc4,Owner 3409,+91XXXXXXXXXX,,London,IN,Seller,Generated
3d5706f5-c0d4-4724-b9a0-f4d408a7316e,Owner 9829,+91XXXXXXXXXX,,Mumbai,IN,Seller,Generated
335798d0-7c5e-4edd-9cd7-24aca1f7ad99,Owner 4040,+91XXXXXXXXXX,,London,IN,Seller,Generated
eae0c8b8-e687-469a-8349-6e1f9e0a7a1a,Owner 9715,+91XXXXXXXXXX,,Delhi,IN,Seller,Generated
90f007b1-ae02-4a49-b7ee-581e0692d866,Owner 1164,+91XXXXXXXXXX,,London,IN,Seller,Generated
7528e68c-7656-4b1f-9f49-31662ecdf8d7,Owner 9786,+91XXXXXXXXXX,,New York,IN,Seller,Generated
21caf1d5-8b10-43a8-9b39-6e492e7ba1b5,Owner 4360,+91XXXXXXXXXX,,Delhi,IN,Seller,Generated
42afdae8-8a28-453a-b510-91ad8e46f92e,Owner 7284,+91XXXXXXXXXX,,New York,IN,Seller,Generated
2eb04a55-f398-4b6e-879d-4c52ecffee7a,Owner 7340,+91XXXXXXXXXX,,Mumbai,IN,Seller,Generated
20aa583a-6571-45f3-b012-a858f4bdc865,Owner 1995,+91XXXXXXXXXX,,Mumbai,IN,Seller,Generated
5d84f11d-1a99-400b-ad0f-3e1b6346a966,Owner 354,+91XXXXXXXXXX,,Mumbai,IN,Seller,Generated
ad077876-8290-4aac-8189-16ebb84b0418,Owner 9030,+91XXXXXXXXXX,,London,IN,Seller,Generated
1a81291c-a9c8-4b4e-a1c5-ee4b2ad24dba,Owner 2710,+91XXXXXXXXXX,,New York,IN,Seller,Generated
15b28e45-3703-49ea-813b-11a5d42c256a,Owner 3421,+91XXXXXXXXXX,,Delhi,IN,Seller,Generated
469939fc-7eb0-4549-b25b-a4b43eec767f,Owner 7594,+91XXXXXXXXXX,,Mumbai,IN,Seller,Generated
2fe7eb47-0a45-41e6-ab1d-9c231e1b52a1,Owner 980,+91XXXXXXXXXX,,New York,IN,Seller,Generated
02f6ad95-ee87-4343-a15b-63817bb8effa,Owner 6619,+91XXXXXXXXXX,,London,IN,Seller,Generated
6b912089-5bc2-488a-bfe0-cf6ca76cccd9,Owner 283,+91XXXXXXXXXX,,New York,IN,Seller,Generated
4ece28eb-6556-420a-a028-41ad5334a0ae,Owner 726,+91XXXXXXXXXX,,Delhi,IN,Seller,Generated
35b4002e-4c2e-467b-b113-5f1976827d7e,Owner 9699,+91XXXXXXXXXX,,London,IN,Seller,Generated
e63733c4-6b0a-4f69-b58d-d5005b661307,Owner 6915,+91XXXXXXXXXX,,London,IN,Seller,Generated
2908058c-cffc-4f9b-aba4-ad21be29c36c,Owner 6833,+91XXXXXXXXXX,,London,IN,Seller,Generated
8e6c1e10-55f7-472d-a9b4-0814ae0e24b4,Owner 5734,+91XXXXXXXXXX,,Mumbai,IN,Seller,Generated
95bec0aa-8c02-4d64-9fc7-e80c24addaee,Owner 4745,+91XXXXXXXXXX,,Mumbai,IN,Seller,Generated
c21d5ec2-6394-4aac-a5fd-4d12f1e60aa2,Owner 1238,+91XXXXXXXXXX,,Mumbai,IN,Seller,Generated
ab09e339-e517-45d8-b9bd-893f8b4c07f4,Owner 4577,+91XXXXXXXXXX,,Delhi,IN,Seller,Generated
2609655a-9431-49ce-b860-dd224914f85f,Owner 3391,+91XXXXXXXXXX,,London,IN,Seller,Generated
90695006-3b9d-47af-83a2-eca6535c1be2,Owner 3870,+91XXXXXXXXXX,,London,IN,Seller,Generated
7bf93694-43ef-4fc9-9709-ef991d7667a3,Owner 4384,+91XXXXXXXXXX,,New York,IN,Seller,Generated
61ff3fdc-4f22-4ca0-8a9e-b76ae6b80edc,Owner 8562,+91XXXXXXXXXX,,Mumbai,IN,Seller,Generated
3ce6d953-eed3-4263-87bc-fc491bcf1e09,Owner 2178,+91XXXXXXXXXX,,Mumbai,IN,Seller,Generated
90381ab3-b026-4937-8793-71270f0b0a2c,Owner 1273,+91XXXXXXXXXX,,Delhi,IN,Seller,Generated
634315a6-7b2a-4613-9cc2-31418cb6d31f,Owner 3734,+91XXXXXXXXXX,,New York,IN,Seller,Generated
c1d387a6-42af-4035-83ec-6e445a33bc23,Owner 3139,+91XXXXXXXXXX,,New York,IN,Seller,Generated
4db3411d-637e-4c70-8930-c4918c80bdc4,Owner 1482,+91XXXXXXXXXX,,Delhi,IN,Seller,Generated
4dbf7cab-9bb8-4f69-9c5a-936f614e5d52,Owner 9445,+91XXXXXXXXXX,,Delhi,IN,Seller,Generated
83ea6d06-7b7c-4b7b-888e-5fc159c94531,Owner 5813,+91XXXXXXXXXX,,London,IN,Seller,Generated
43b2a93a-6c2e-4c9f-abba-32bd2fc012ae,Owner 8327,+91XXXXXXXXXX,,New York,IN,Seller,Generated
3199d60e-01bc-420b-9f2d-d37946b6449f,Owner 3310,+91XXXXXXXXXX,,New York,IN,Seller,Generated
ec4fa5d1-02e9-4040-9d31-f19f4e1dee2d,Owner 9118,+91XXXXXXXXXX,,London,IN,Seller,Generated
393296af-e87f-4b12-940b-23ed04537fd4,Owner 9424,+91XXXXXXXXXX,,London,IN,Seller,Generated
bc3567c1-84b9-48ae-b80b-345bbf7577ac,Owner 3090,+91XXXXXXXXXX,,Delhi,IN,Seller,Generated
fd8393ba-0bba-4108-974a-8c92405020bf,Owner 624,+91XXXXXXXXXX,,Delhi,IN,Seller,Generated
2d3f14b0-9ff8-4796-8955-d6968c32aeca,Owner 9698,+91XXXXXXXXXX,,Delhi,IN,Seller,Generated
a8a06ee2-e5a8-4565-a85d-ee6934fe0f0b,Owner 1683,+91XXXXXXXXXX,,Mumbai,IN,Seller,Generated
5085a706-eba7-47dc-96b8-50b217b6998a,Owner 1830,+91XXXXXXXXXX,,Delhi,IN,Seller,Generated
f92cf998-9fbb-4d5f-8d80-fb15e346987e,Owner 9063,+91XXXXXXXXXX,,Delhi,IN,Seller,Generated
724d85b4-6e59-4b79-aaee-c3301d5b3ffc,Owner 4543,+91XXXXXXXXXX,,Mumbai,IN,Seller,Generated
df834e6f-c5dc-4313-9401-980489f0acc5,Owner 2996,+91XXXXXXXXXX,,Delhi,IN,Seller,Generated
41c374e1-433e-4e57-9a89-b25c5472a9a6,Owner 6342,+91XXXXXXXXXX,,Delhi,IN,Seller,Generated
dbe67198-00e8-4869-bb4b-c40ac4c0aa8a,Owner 5168,+91XXXXXXXXXX,,Delhi,IN,Seller,Generated
77548def-8c62-4b6f-bfe6-6e4748644761,Owner 7196,+91XXXXXXXXXX,,New York,IN,Seller,Generated
9275a4b2-ae83-4ae0-be1d-a2ce3f4eb267,Owner 2905,+91XXXXXXXXXX,,London,IN,Seller,Generated
ad8e9f0a-bad8-411d-b773-d30941e3ded8,Owner 1744,+91XXXXXXXXXX,,Mumbai,IN,Seller,Generated
14df37fd-a55b-410b-9d6d-6cb321b69c82,Owner 449,+91XXXXXXXXXX,,New York,IN,Seller,Generated
800089e3-4af3-40b4-a04e-44ef4bfbbe2b,Owner 1470,+91XXXXXXXXXX,,London,IN,Seller,Generated
b29b71c7-517d-4afb-b418-c63b8707fd31,Owner 5906,+91XXXXXXXXXX,,London,IN,Seller,Generated
6e9a3622-f99a-42db-a852-2fb7eb8d5e4d,Owner 3133,+91XXXXXXXXXX,,Delhi,IN,Seller,Generated
9633a536-4034-4c69-9f91-ac1dd345a7e8,Owner 9871,+91XXXXXXXXXX,,Mumbai,IN,Seller,Generated
47f19459-f421-44f2-b2f7-80f03c454cb5,Owner 8402,+91XXXXXXXXXX,,London,IN,Seller,Generated
25c4fc77-cd72-416e-806d-24079f98896a,Owner 7313,+91XXXXXXXXXX,,Delhi,IN,Seller,Generated
340b8a95-cde7-42d8-bba0-90c5cdaf6633,Owner 9688,+91XXXXXXXXXX,,Mumbai,IN,Seller,Generated
63a0447d-a01c-4471-809f-d0dd6fd8c21a,Owner 5525,+91XXXXXXXXXX,,London,IN,Seller,Generated
b74f8d6d-9177-4ec6-9d09-ffab4464925e,Owner 7232,+91XXXXXXXXXX,,Delhi,IN,Seller,Generated
b3b67e07-1fcb-45d6-91ec-80410517ba2e,Owner 9293,+91XXXXXXXXXX,,Mumbai,IN,Seller,Generated
051916d8-c67e-4969-ba37-4eb29182dab2,Owner 439,+91XXXXXXXXXX,,Mumbai,IN,Seller,Generated
665207f1-f959-4c1c-8e0e-fae7be11010a,Owner 5524,+91XXXXXXXXXX,,Mumbai,IN,Seller,Generated
dde0bc12-2a5b-421f-b966-773bfbe0c82d,Owner 1879,+91XXXXXXXXXX,,London,IN,Seller,Generated
f7221d85-744a-412e-8d2b-1ba1178c5503,Owner 6871,+91XXXXXXXXXX,,New York,IN,Seller,Generated
17af77ba-5d49-4448-9bac-8128a3c9061f,Owner 1084,+91XXXXXXXXXX,,Delhi,IN,Seller,Generated
400d98f3-0633-44ba-ad53-05aee705ecfa,Owner 5846,+91XXXXXXXXXX,,London,IN,Seller,Generated
25fa8848-7283-4319-af62-e72deaa73055,Owner 206,+91XXXXXXXXXX,,Mumbai,IN,Seller,Generated
43bde068-d0fd-4ad1-82b7-598cf1e1e6a2,Owner 212,+91XXXXXXXXXX,,London,IN,Seller,Generated
ade74aae-a182-4884-8e04-29802de9482f,Owner 4754,+91XXXXXXXXXX,,Delhi,IN,Seller,Generated
09087552-a8a7-4bab-878f-75abad04d79a,Owner 9292,+91XXXXXXXXXX,,London,IN,Seller,Generated
6b1e6110-b1af-4e50-a007-241a2d7ed406,Owner 4212,+91XXXXXXXXXX,,London,IN,Seller,Generated
d9335924-7f47-4ad9-8943-98304d13300f,Owner 957,+91XXXXXXXXXX,,Delhi,IN,Seller,Generated
f2335e19-d812-44cf-b702-1ae5af33c709,Owner 2800,+91XXXXXXXXXX,,New York,IN,Seller,Generated
39dc1760-6992-4e76-a205-30927d8c6a50,Owner 9683,+91XXXXXXXXXX,,Delhi,IN,Seller,Generated
9f191ccc-548c-4fde-85e2-106ea0ce0e35,Owner 990,+91XXXXXXXXXX,,New York,IN,Seller,Generated
b7e82f8b-0e15-443f-8b08-b8eb7d699674,Owner 5960,+91XXXXXXXXXX,,Delhi,IN,Seller,Generated
87382113-6a67-4090-abde-e191280ba303,Owner 7316,+91XXXXXXXXXX,,New York,IN,Seller,Generated
7586a61d-fd4a-4f3d-b5f9-1563836d9dbc,Owner 4193,+91XXXXXXXXXX,,Delhi,IN,Seller,Generated
ab179fe5-f2bc-4cc2-b167-8eb3b3638b96,Owner 8864,+91XXXXXXXXXX,,Delhi,IN,Seller,Generated
56e8e967-7f9b-4142-837b-f4df6178cfd6,Owner 543,+91XXXXXXXXXX,,New York,IN,Seller,Generated
b04938d1-87f1-45cc-b695-3034d80b7a55,Owner 4750,+91XXXXXXXXXX,,Mumbai,IN,Seller,Generated
adf8814a-e961-4bc6-ae65-1198ef976b9a,Owner 331,+91XXXXXXXXXX,,New York,IN,Seller,Generated
8ccee421-885b-4ecf-86a3-b2eaea6d3d6c,Owner 7322,+91XXXXXXXXXX,,London,IN,Seller,Generated
5d9d31a9-f77e-45c1-9bbb-5f69359a36c9,Owner 715,+91XXXXXXXXXX,,London,IN,Seller,Generated
bacc5c19-7a79-4733-9a89-73cb437419e1,Owner 5492,+91XXXXXXXXXX,,Delhi,IN,Seller,Generated
6b5cacda-2170-4cba-b193-eae3604e9be5,Owner 2357,+91XXXXXXXXXX,,New York,IN,Seller,Generated
33d203e6-73e9-4d0c-bd77-176c0b11d1e6,Owner 8471,+91XXXXXXXXXX,,London,IN,Seller,Generated
ea0bd394-b89d-452e-a55a-8e7093205320,Owner 5033,+91XXXXXXXXXX,,New York,IN,Seller,Generated
a4a6f568-610c-4baa-9a35-b8c878763a55,Owner 9415,+91XXXXXXXXXX,,Delhi,IN,Seller,Generated
5b8204d5-ba2c-44b5-907c-e6a329afc1bd,Owner 2221,+91XXXXXXXXXX,,New York,IN,Seller,Generated
b2cb527f-8058-4395-af25-6ff917954412,Owner 6880,+91XXXXXXXXXX,,Delhi,IN,Seller,Generated
aca99152-7a01-4133-b9d7-71024ef00a7a,Owner 8555,+91XXXXXXXXXX,,New York,IN,Seller,Generated
f4b15a9e-44e9-4bd8-8323-be376879cf59,Owner 6501,+91XXXXXXXXXX,,Mumbai,IN,Seller,Generated
f4a6eed9-7448-4be9-8902-e182f0ff2b9b,Owner 1820,+91XXXXXXXXXX,,New York,IN,Seller,Generated
cc10f6ad-04cc-4a48-8068-07df8dbc3da6,Owner 896,+91XXXXXXXXXX,,Mumbai,IN,Seller,Generated
812b6b84-8ef3-4d6a-b5e1-aa9208d2b22e,Owner 5861,+91XXXXXXXXXX,,Delhi,IN,Seller,Generated
8dee390a-a271-41ab-a49d-c311b151eea3,Owner 5935,+91XXXXXXXXXX,,New York,IN,Seller,Generated
6e826ddd-8c81-4d3e-be69-5d4525c94d38,Owner 1647,+91XXXXXXXXXX,,New York,IN,Seller,Generated
f77ab494-f6c1-451a-904f-31a2425c982b,Owner 3997,+91XXXXXXXXXX,,Delhi,IN,Seller,Generated
b47026f1-9ab1-46d9-a0db-09e1e0907b2d,Owner 4362,+91XXXXXXXXXX,,Mumbai,IN,Seller,Generated
4cfa24e9-60bb-4c9c-9534-cf97080bff59,Owner 5685,+91XXXXXXXXXX,,London,IN,Seller,Generated
707b4ad8-fe23-4275-9787-506e14759bb6,Owner 1506,+91XXXXXXXXXX,,Mumbai,IN,Seller,Generated
d1b18035-bd8e-44c3-85cd-7f460e89ae95,Owner 2149,+91XXXXXXXXXX,,Mumbai,IN,Seller,Generated
b2bc97a8-b9dc-4c73-8264-857fc5a2f8ad,Owner 7495,+91XXXXXXXXXX,,Delhi,IN,Seller,Generated
4ecf348f-9620-4534-901d-0d4c1bf0917b,Owner 6960,+91XXXXXXXXXX,,Mumbai,IN,Seller,Generated
0a1e899b-5b3c-4efb-af24-3f4edc3b8c7d,Owner 9610,+91XXXXXXXXXX,,Delhi,IN,Seller,Generated
b134bad0-1bed-4595-8e39-6ff6ea37eb4e,Owner 5898,+91XXXXXXXXXX,,London,IN,Seller,Generated
202c2664-3a9c-4e0f-a604-358f80b2ee7b,Owner 3734,+91XXXXXXXXXX,,New York,IN,Seller,Generated
b1833b98-0c59-4993-826c-6d89f43bcb02,Owner 8851,+91XXXXXXXXXX,,Delhi,IN,Seller,Generated
f29bb922-ada3-4a87-9cd0-1c930477b97a,Owner 8949,+91XXXXXXXXXX,,Delhi,IN,Seller,Generated
9e4e1998-5d7d-4089-be7d-d1269ac98181,Owner 1500,+91XXXXXXXXXX,,Mumbai,IN,Seller,Generated
62297f25-58f9-45c1-91ee-74684c2540ce,Owner 5413,+91XXXXXXXXXX,,New York,IN,Seller,Generated
93bd9194-8c2f-417f-a643-b40ad72eb3f5,Owner 3199,+91XXXXXXXXXX,,Delhi,IN,Seller,Generated
3c71ac8c-af03-4beb-8b6d-b14a8ae69047,Owner 7855,+91XXXXXXXXXX,,Mumbai,IN,Seller,Generated
3c24a40d-5103-4245-b5d4-e68ef800536f,Owner 6257,+91XXXXXXXXXX,,New York,IN,Seller,Generated
c5305266-fb79-4bc8-9c02-0f0e946b782b,Owner 2665,+91XXXXXXXXXX,,New York,IN,Seller,Generated
2a7fa7dd-9827-422f-8362-a6b8acc0abf2,Owner 7460,+91XXXXXXXXXX,,London,IN,Seller,Generated
fbd5ef82-97fa-4f07-a64b-ca3bc4dd7e22,Owner 7176,+91XXXXXXXXXX,,Delhi,IN,Seller,Generated
184b6d31-1caa-4a24-9c82-ff2f09e6bef3,Owner 295,+91XXXXXXXXXX,,New York,IN,Seller,Generated
27da99db-7cca-4834-85d6-8440ea812df0,Owner 8407,+91XXXXXXXXXX,,Mumbai,IN,Seller,Generated
a762070b-5434-42b8-9d81-a3164d47fb6f,Owner 9374,+91XXXXXXXXXX,,London,IN,Seller,Generated
7ed3272a-e924-4bc5-9ad5-7520ec9e8b50,Owner 3680,+91XXXXXXXXXX,,Mumbai,IN,Seller,Generated
faad2867-740c-4fd5-ba35-7df034353281,Owner 2775,+91XXXXXXXXXX,,New York,IN,Seller,Generated
8ea25ca5-7afb-4943-8d15-565b939fa303,Owner 8581,+91XXXXXXXXXX,,London,IN,Seller,Generated
2af59799-55fc-4451-a4e1-80f7a8ae96cc,Owner 8851,+91XXXXXXXXXX,,New York,IN,Seller,Generated
714946b5-0b9c-4eb6-8d9c-8702ebe20102,Owner 3619,+91XXXXXXXXXX,,London,IN,Seller,Generated
c9695f33-bb31-4844-a7c1-fea838f80599,Owner 9093,+91XXXXXXXXXX,,New York,IN,Seller,Generated
22666983-160d-4c45-ad24-2e855d1c8f27,Owner 1959,+91XXXXXXXXXX,,London,IN,Seller,Generated
37a13811-0b0f-47d2-885c-680003e2a962,Owner 9129,+91XXXXXXXXXX,,New York,IN,Seller,Generated
19fbf602-09e7-4017-a656-7460a8901e4b,Owner 2444,+91XXXXXXXXXX,,Mumbai,IN,Seller,Generated
504bbb64-4867-45d9-85b0-ca2607657e21,Owner 5400,+91XXXXXXXXXX,,New York,IN,Seller,Generated
d24cd208-fdcd-43b5-81be-2598bb1ef89c,Owner 1196,+91XXXXXXXXXX,,London,IN,Seller,Generated
0d5e1cdc-794f-47de-9ae8-9947b1d171be,Owner 4986,+91XXXXXXXXXX,,London,IN,Seller,Generated
bc702f97-29f1-4a38-b19e-f012d9fa416f,Owner 7826,+91XXXXXXXXXX,,Mumbai,IN,Seller,Generated
8fff3c04-f4da-4174-890c-315dff84b90b,Owner 2867,+91XXXXXXXXXX,,New York,IN,Seller,Generated
d0e70142-7c90-4968-8711-b31be1573979,Owner 7910,+91XXXXXXXXXX,,Mumbai,IN,Seller,Generated
89989850-9be9-454e-8f7c-aad9d66f0cf6,Owner 660,+91XXXXXXXXXX,,Delhi,IN,Seller,Generated
d53ca4e9-8089-4aeb-9b4d-768cbef536cb,Owner 1517,+91XXXXXXXXXX,,Mumbai,IN,Seller,Generated
5f40c52b-c6b5-4902-a5d4-e902c7e89fd7,Owner 8970,+91XXXXXXXXXX,,Mumbai,IN,Seller,Generated
a1fb0f62-3698-43bd-aa44-462f46df421c,Owner 4268,+91XXXXXXXXXX,,New York,IN,Seller,Generated
885e4eec-5a27-4985-9699-e8b28ff2bb0b,Owner 9602,+91XXXXXXXXXX,,New York,IN,Seller,Generated
1bd5b04f-c1ad-4ea7-8bd3-7a9608228bbe,Owner 69,+91XXXXXXXXXX,,New York,IN,Seller,Generated
10b7e500-ee75-4808-b3d9-77c9c2964d39,Owner 8645,+91XXXXXXXXXX,,Delhi,IN,Seller,Generated
bf700296-e280-43f5-b1ff-687f32523d65,Owner 4452,+91XXXXXXXXXX,,New York,IN,Seller,Generated
1c16c425-799d-48b9-8b3a-5753bea9fd12,Owner 8458,+91XXXXXXXXXX,,London,IN,Seller,Generated
a6291e42-25c7-48e7-b534-17e6dc9adaad,Owner 7556,+91XXXXXXXXXX,,Delhi,IN,Seller,Generated
0c3574a4-2b05-4f0a-9dc9-f3cd1bbbd09e,Owner 8910,+91XXXXXXXXXX,,London,IN,Seller,Generated
477a1ca3-43a2-44ba-8d0b-36f0237ad2f8,Owner 5432,+91XXXXXXXXXX,,Delhi,IN,Seller,Generated
9fcf0a56-0d34-4d43-b9d6-e5a2f81e6da4,Owner 6068,+91XXXXXXXXXX,,Delhi,IN,Seller,Generated
221e6acd-7ab7-4f93-ad91-82f0e149b34d,Owner 2844,+91XXXXXXXXXX,,Delhi,IN,Seller,Generated
dcba7cf5-4c7e-4d95-860b-3b730f10f29e,Owner 9404,+91XXXXXXXXXX,,London,IN,Seller,Generated
4c75c9ba-a5c8-4376-8737-90d4fca8165f,Owner 9082,+91XXXXXXXXXX,,Delhi,IN,Seller,Generated
016ff962-349e-44d1-8768-fc9870b90741,Owner 1855,+91XXXXXXXXXX,,Mumbai,IN,Seller,Generated
d6ca6c6e-1ed7-4ce2-824e-3bdca9704a02,Owner 5090,+91XXXXXXXXXX,,Mumbai,IN,Seller,Generated
6f28625b-5166-499f-a7fe-2de282dc8f70,Owner 1766,+91XXXXXXXXXX,,Mumbai,IN,Seller,Generated
480a36ce-61f4-4661-bc16-ec500c89c2ba,Owner 12,+91XXXXXXXXXX,,Delhi,IN,Seller,Generated
c0462c4a-4c25-41c6-8f2a-b1ee16ca28ac,Owner 6689,+91XXXXXXXXXX,,London,IN,Seller,Generated
8b647a1c-3fcd-4cd6-81e5-41dc287cb150,Owner 2233,+91XXXXXXXXXX,,Mumbai,IN,Seller,Generated
a6c9486f-86f1-4cdc-83df-fa882db9ff10,Owner 8373,+91XXXXXXXXXX,,London,IN,Seller,Generated
64454cb4-b212-4c42-a74b-5d3039307a8a,Owner 3527,+91XXXXXXXXXX,,New York,IN,Seller,Generated
a9958f6e-694d-494d-aa63-e562fc81ea3b,Owner 8447,+91XXXXXXXXXX,,London,IN,Seller,Generated
5d08fa40-7f70-4c38-9492-992d1ab2aa4c,Owner 2350,+91XXXXXXXXXX,,London,IN,Seller,Generated
db9df0f3-524f-4faf-91fa-b369125ec27a,Owner 8570,+91XXXXXXXXXX,,New York,IN,Seller,Generated
d6b83c3f-d2d1-41d9-bcbb-d8b5556bc86d,Owner 7267,+91XXXXXXXXXX,,New York,IN,Seller,Generated
18cdd0db-dbb1-4ea7-95aa-cd7d2a3200ca,Owner 6167,+91XXXXXXXXXX,,Delhi,IN,Seller,Generated
4eb1e040-9f08-4ff5-b075-6c2f1e5f373e,Owner 6405,+91XXXXXXXXXX,,Delhi,IN,Seller,Generated
a034a638-eeea-4a41-9f92-eb99a2ac6719,Owner 1253,+91XXXXXXXXXX,,New York,IN,Seller,Generated
45f66916-307b-4c55-921c-38d006f2db33,Owner 3461,+91XXXXXXXXXX,,Delhi,IN,Seller,Generated
c85f4e5d-64fb-40c3-b6b3-22120f569c44,Owner 83,+91XXXXXXXXXX,,Delhi,IN,Seller,Generated
557f96a1-70c4-48b2-96f5-2740d2d5935a,Owner 3690,+91XXXXXXXXXX,,New York,IN,Seller,Generated
c4a70630-6e5a-4524-af29-b9766bc29837,Owner 8199,+91XXXXXXXXXX,,Delhi,IN,Seller,Generated
2b0550b2-6141-47b9-bbbd-3c299282ebb0,Owner 3193,+91XXXXXXXXXX,,London,IN,Seller,Generated
6b9ceff3-e11e-481d-a4e5-fe05af4f1cc3,Owner 2071,+91XXXXXXXXXX,,London,IN,Seller,Generated
2adb335c-0d04-442f-b8f9-acf510ead82c,Owner 5707,+91XXXXXXXXXX,,Delhi,IN,Seller,Generated
34632dfe-bd63-4cbe-b592-7df52b821248,Owner 994,+91XXXXXXXXXX,,Delhi,IN,Seller,Generated
8d75bc63-6acf-4e9d-b702-7c97910d3ec1,Owner 7961,+91XXXXXXXXXX,,London,IN,Seller,Generated
1866f341-79c6-4976-9ea8-b5197b7c9aea,Owner 3094,+91XXXXXXXXXX,,Mumbai,IN,Seller,Generated
16fca9e5-24f9-4bf2-8355-4b925d44430f,Owner 5399,+91XXXXXXXXXX,,Delhi,IN,Seller,Generated
f1a3552c-88c2-4bce-8c9c-7bd66442f082,Owner 7084,+91XXXXXXXXXX,,Delhi,IN,Seller,Generated
14851faa-2430-447b-b50e-653d5b9ee5fb,Owner 5495,+91XXXXXXXXXX,,London,IN,Seller,Generated
4249c4b5-fabd-4f20-8403-671ac08d6d68,Owner 7043,+91XXXXXXXXXX,,New York,IN,Seller,Generated
6199133b-007d-40c0-9dcb-b5c79770361d,Owner 7264,+91XXXXXXXXXX,,London,IN,Seller,Generated
5b258262-d75f-4558-89b0-556272da6a26,Owner 2164,+91XXXXXXXXXX,,Mumbai,IN,Seller,Generated
4bb7d242-d074-43d0-82ba-79a466c991f9,Owner 7599,+91XXXXXXXXXX,,Mumbai,IN,Seller,Generated
3eab7d95-a433-405b-b623-94245cccd128,Owner 1463,+91XXXXXXXXXX,,Delhi,IN,Seller,Generated
a641a82e-e0c0-4bdc-ae08-45b1b1260ced,Owner 9088,+91XXXXXXXXXX,,London,IN,Seller,Generated
dd19ce7d-0bc3-478a-b84a-238150b0034a,Owner 8923,+91XXXXXXXXXX,,London,IN,Seller,Generated
d026062d-a64c-4f84-bdc2-19c05dd2d270,Owner 2687,+91XXXXXXXXXX,,Delhi,IN,Seller,Generated
7a846264-f997-424b-b57e-0b5ae3025943,Owner 7848,+91XXXXXXXXXX,,Delhi,IN,Seller,Generated
90ce9c6e-a325-422b-a710-3b48dc90b885,Owner 6287,+91XXXXXXXXXX,,London,IN,Seller,Generated
da8b2995-df26-4f44-bb74-05abed66ec06,Owner 1599,+91XXXXXXXXXX,,Mumbai,IN,Seller,Generated
995b63a6-0f45-4b26-ba71-84817193ba3d,Owner 936,+91XXXXXXXXXX,,London,IN,Seller,Generated
8f6dae0d-af31-4549-b942-1f1d26df9be1,Owner 3804,+91XXXXXXXXXX,,Delhi,IN,Seller,Generated
4af9b606-bf6f-420f-ad96-0782f4d47373,Owner 643,+91XXXXXXXXXX,,Mumbai,IN,Seller,Generated
f283d4fa-d70f-4f95-b8c2-f14e77ab40b8,Owner 9226,+91XXXXXXXXXX,,Mumbai,IN,Seller,Generated
dee7c385-a9b9-4788-bec1-1f45cdf7da47,Owner 970,+91XXXXXXXXXX,,London,IN,Seller,Generated
367e90a1-9fdb-4bf8-b603-c05aa3d15780,Owner 8551,+91XXXXXXXXXX,,London,IN,Seller,Generated
f4b06180-9f34-4ba1-9541-d6f73839cb26,Owner 5970,+91XXXXXXXXXX,,London,IN,Seller,Generated
48809086-94aa-4a92-9ba9-b7dd9c9bc07f,Owner 5426,+91XXXXXXXXXX,,London,IN,Seller,Generated
e458e5ee-8774-4891-86ef-bf20847803b2,Owner 3976,+91XXXXXXXXXX,,Delhi,IN,Seller,Generated
3198a901-d180-412b-a140-b70d17c9b891,Owner 9035,+91XXXXXXXXXX,,London,IN,Seller,Generated
8541d4e6-9ca8-45a1-8737-34d9715d0a88,Owner 4752,+91XXXXXXXXXX,,Delhi,IN,Seller,Generated
499143d7-ea97-4d7d-9145-d840db1a7944,Owner 3064,+91XXXXXXXXXX,,Delhi,IN,Seller,Generated
4e5fb405-46f9-465a-a895-c81d7c55225a,Owner 9780,+91XXXXXXXXXX,,Mumbai,IN,Seller,Generated
1b10bac7-767d-40ae-bf99-0768da6d54c6,Owner 7836,+91XXXXXXXXXX,,London,IN,Seller,Generated
2d018c58-b1f7-40b8-a1c9-6b71b3d71214,Owner 2753,+91XXXXXXXXXX,,New York,IN,Seller,Generated
cd9004c4-1278-451f-91e0-c9902874df88,Owner 2723,+91XXXXXXXXXX,,London,IN,Seller,Generated
498fe4dd-c2e8-44df-b0e5-065b1e596392,Owner 5485,+91XXXXXXXXXX,,Delhi,IN,Seller,Generated
7328e3c0-e4d8-475b-9d00-b30f6b4b5cd8,Owner 2947,+91XXXXXXXXXX,,London,IN,Seller,Generated
a007be48-11dd-4612-a1fa-acce67b3c00b,Owner 196,+91XXXXXXXXXX,,Delhi,IN,Seller,Generated
4c9fc8a9-74d5-4bfb-80a0-2f096d1c382b,Owner 6174,+91XXXXXXXXXX,,Delhi,IN,Seller,Generated
f9425027-9eec-49fc-921f-9bfa0cece0f5,Owner 5527,+91XXXXXXXXXX,,London,IN,Seller,Generated
a2313b78-d008-429f-898b-f1ca22965277,Owner 7154,+91XXXXXXXXXX,,Delhi,IN,Seller,Generated
bf2ee7fe-d3e7-4448-aefa-04ba8fe9bdfe,Owner 1505,+91XXXXXXXXXX,,New York,IN,Seller,Generated
bb3a4977-c098-4d13-b6af-20d9b1444e47,Owner 5722,+91XXXXXXXXXX,,New York,IN,Seller,Generated
a4f06c0a-d7f0-485d-b9ff-04e00184202a,Owner 3250,+91XXXXXXXXXX,,Mumbai,IN,Seller,Generated
55781069-5933-42ac-968a-361771559f12,Owner 2389,+91XXXXXXXXXX,,London,IN,Seller,Generated
4facf532-a7cf-488c-8415-7b82a245e20c,Owner 3896,+91XXXXXXXXXX,,New York,IN,Seller,Generated
28ac9128-1d50-4534-ab57-5476221a9427,Owner 6321,+91XXXXXXXXXX,,New York,IN,Seller,Generated
3b84919b-e921-4885-a783-ca377054389e,Owner 1634,+91XXXXXXXXXX,,Mumbai,IN,Seller,Generated
7b288b28-6706-42cd-894e-a54cf3df0b64,Owner 5115,+91XXXXXXXXXX,,New York,IN,Seller,Generated
08c61800-56ba-4eb3-9925-d48eb37703c1,Owner 4850,+91XXXXXXXXXX,,Delhi,IN,Seller,Generated
1ca1673f-f637-454e-abfa-2890da904a95,Owner 2253,+91XXXXXXXXXX,,Delhi,IN,Seller,Generated
fb80d51f-f442-49ca-8727-15f4b78847f7,Owner 5534,+91XXXXXXXXXX,,New York,IN,Seller,Generated
20af60f6-bab5-4f6b-a705-dd9a31dbaa1a,Owner 953,+91XXXXXXXXXX,,Delhi,IN,Seller,Generated
c0919c3b-eddc-4372-839b-b1cb42f39e7c,Owner 7535,+91XXXXXXXXXX,,New York,IN,Seller,Generated
5de94f5a-758a-4c35-b3e2-6ff2abe62218,Owner 315,+91XXXXXXXXXX,,London,IN,Seller,Generated
751e91d8-0903-46ef-9503-097f831b96ea,Owner 9493,+91XXXXXXXXXX,,Delhi,IN,Seller,Generated
d292ccd4-3e4b-47f5-a9b4-184be74ff10c,Owner 4332,+91XXXXXXXXXX,,Mumbai,IN,Seller,Generated
38bc8398-8101-4a9e-a876-c64524235a49,Owner 6654,+91XXXXXXXXXX,,New York,IN,Seller,Generated
4b9f6bc9-7ea8-468d-9126-667ca6e3a0c0,Owner 7992,+91XXXXXXXXXX,,New York,IN,Seller,Generated
9edb59a6-bcae-4cf2-991a-6eed11cd26bc,Owner 2877,+91XXXXXXXXXX,,Mumbai,IN,Seller,Generated
a2d0aa38-631f-4d32-9190-3ca7f64e0b52,Owner 1955,+91XXXXXXXXXX,,Mumbai,IN,Seller,Generated
a650c995-c20d-4ad0-9e9e-87323639e8e2,Owner 7355,+91XXXXXXXXXX,,New York,IN,Seller,Generated
24c5a4d0-7fc4-4690-a203-6117509b4c8c,Owner 3703,+91XXXXXXXXXX,,New York,IN,Seller,Generated
266bf3ba-b9f2-4469-85a0-79ba81ba7e61,Owner 4266,+91XXXXXXXXXX,,Mumbai,IN,Seller,Generated
1e536232-4296-4ad2-807d-127e096b61af,Owner 3296,+91XXXXXXXXXX,,London,IN,Seller,Generated
70f0fc6a-8e43-4691-bd33-b60d6dbaff7d,Owner 7211,+91XXXXXXXXXX,,Delhi,IN,Seller,Generated
29397c6b-f292-44ef-84ee-ffae912eb0b0,Owner 1417,+91XXXXXXXXXX,,Mumbai,IN,Seller,Generated
c9521016-f0cc-4b18-a337-ab4eb7f41347,Owner 4696,+91XXXXXXXXXX,,Delhi,IN,Seller,Generated
c3c3b489-635e-4444-b9ed-fe8b60cc4f3b,Owner 3949,+91XXXXXXXXXX,,Mumbai,IN,Seller,Generated
352f60b6-b617-451f-b017-1dba91361175,Owner 4987,+91XXXXXXXXXX,,London,IN,Seller,Generated
dc418fc6-61f6-4d1f-938f-8bcb26a4a70d,Owner 5564,+91XXXXXXXXXX,,London,IN,Seller,Generated
2dbb7430-aa8a-4c73-845b-d94e5fc45a3a,Owner 7213,+91XXXXXXXXXX,,London,IN,Seller,Generated
a899fae3-e048-4524-993b-255bef28723d,Owner 3440,+91XXXXXXXXXX,,Delhi,IN,Seller,Generated
befb16a4-d656-498a-b3f5-69a377f8373f,Owner 9700,+91XXXXXXXXXX,,New York,IN,Seller,Generated
9f406005-bf97-49d6-9110-db595dcb99f1,Owner 4816,+91XXXXXXXXXX,,London,IN,Seller,Generated
1c103a57-33f3-4961-a9a4-a0ed4c13ba45,Owner 6606,+91XXXXXXXXXX,,Delhi,IN,Seller,Generated
7c8aad1a-4ad6-4b1a-8600-f8e7bec84bc9,Owner 6893,+91XXXXXXXXXX,,New York,IN,Seller,Generated
6868c1d8-7a17-4ac0-b258-13dd01d4bdb0,Owner 3324,+91XXXXXXXXXX,,Delhi,IN,Seller,Generated
7b7f3ad6-a946-47c6-89f5-531fc8592e5b,Owner 2063,+91XXXXXXXXXX,,New York,IN,Seller,Generated
f159cb61-2ddd-4db4-a148-f3609a40f6f8,Owner 6163,+91XXXXXXXXXX,,Mumbai,IN,Seller,Generated
5d68865c-7a1e-4919-81c0-2fb9d55f4f56,Owner 7923,+91XXXXXXXXXX,,New York,IN,Seller,Generated
fb42d131-57ff-4861-8e05-41b251de09c9,Owner 8743,+91XXXXXXXXXX,,Delhi,IN,Seller,Generated
5e0cdd9c-1e96-4268-8391-c24aa6a13849,Owner 4435,+91XXXXXXXXXX,,Delhi,IN,Seller,Generated
418b0533-8bff-40d5-936a-68916f55c4f3,Owner 9615,+91XXXXXXXXXX,,New York,IN,Seller,Generated
470dbe1f-6992-4253-93d4-396b65b30ea1,Owner 5350,+91XXXXXXXXXX,,Delhi,IN,Seller,Generated
f6d65dda-68f3-4c11-ab20-c232136079d6,Owner 4927,+91XXXXXXXXXX,,London,IN,Seller,Generated
cb2d92f6-a029-4ef8-86df-81e820d9369b,Owner 326,+91XXXXXXXXXX,,Delhi,IN,Seller,Generated
cdda64e7-a5c4-48d2-a53a-077c363a2247,Owner 2305,+91XXXXXXXXXX,,New York,IN,Seller,Generated
1e75dafd-e497-4be8-a0db-19b5472bf126,Owner 5029,+91XXXXXXXXXX,,London,IN,Seller,Generated
a107f87e-3ca2-448a-8584-43de2de01471,Owner 9805,+91XXXXXXXXXX,,London,IN,Seller,Generated
aa26165d-6a53-4576-a879-6d2449527fab,Owner 8193,+91XXXXXXXXXX,,Delhi,IN,Seller,Generated
2143184b-b04d-4c42-a11d-ae6a8bba2368,Owner 8843,+91XXXXXXXXXX,,Mumbai,IN,Seller,Generated
2a5a83d4-412d-44cb-b3e6-5bf408901500,Owner 571,+91XXXXXXXXXX,,Mumbai,IN,Seller,Generated
8a007fa9-ecce-4279-a01c-d9cbcfb8dd6d,Owner 3834,+91XXXXXXXXXX,,Delhi,IN,Seller,Generated
f67aa503-ede9-41ce-9c15-bfee5075d687,Owner 2158,+91XXXXXXXXXX,,Mumbai,IN,Seller,Generated
084c4b6e-8132-4add-a3ab-e9e94fb75fa7,Owner 418,+91XXXXXXXXXX,,London,IN,Seller,Generated
f896bf50-7818-4de6-9954-4f81dcf08249,Owner 5077,+91XXXXXXXXXX,,Delhi,IN,Seller,Generated
4014815a-b032-4306-b0c8-70efd866f240,Owner 5515,+91XXXXXXXXXX,,Delhi,IN,Seller,Generated
559da9cf-c645-4d6c-a24d-b5f83ac959db,Owner 4498,+91XXXXXXXXXX,,New York,IN,Seller,Generated
c39e340d-58c8-40eb-8b94-2ab029c7c536,Owner 534,+91XXXXXXXXXX,,Mumbai,IN,Seller,Generated
b34423c0-f88c-4b11-bc15-51f3e802a4c6,Owner 2386,+91XXXXXXXXXX,,Mumbai,IN,Seller,Generated
a5777ae6-9632-464a-92ef-9fe303da37db,Owner 1252,+91XXXXXXXXXX,,London,IN,Seller,Generated
c54fa50f-0924-49b7-8f14-f4a3b648468f,Owner 2017,+91XXXXXXXXXX,,New York,IN,Seller,Generated
28f94520-c527-4f34-8327-78a33cf08085,Owner 8175,+91XXXXXXXXXX,,Mumbai,IN,Seller,Generated
331606e4-5955-4251-8f70-2cdc5580b997,Owner 2454,+91XXXXXXXXXX,,Delhi,IN,Seller,Generated
cee0ced9-5118-4275-92d8-0051878ed6ea,Owner 2495,+91XXXXXXXXXX,,Mumbai,IN,Seller,Generated
1378f334-05c5-442c-bdec-afbb47e8cb23,Owner 5011,+91XXXXXXXXXX,,Mumbai,IN,Seller,Generated
805c3f42-b144-41a2-b70d-da4d7781267f,Owner 8351,+91XXXXXXXXXX,,Mumbai,IN,Seller,Generated
69bb660f-8ece-404e-9615-3c2d48daed79,Owner 7726,+91XXXXXXXXXX,,Delhi,IN,Seller,Generated
4448207f-031b-4ea7-90ce-b46c3cf88d14,Owner 2648,+91XXXXXXXXXX,,New York,IN,Seller,Generated
5105f830-3df4-49e5-a086-348ed8de0bc5,Owner 8635,+91XXXXXXXXXX,,London,IN,Seller,Generated
550cf340-023d-40d6-bd0a-0e3ff91b793d,Owner 885,+91XXXXXXXXXX,,Delhi,IN,Seller,Generated
5e21138e-7ff6-46d1-b15d-3953e7354829,Owner 9090,+91XXXXXXXXXX,,Delhi,IN,Seller,Generated
7909cde8-ba9d-4bf2-95a6-091db5cccf98,Owner 5801,+91XXXXXXXXXX,,Delhi,IN,Seller,Generated
49e53457-e64f-440d-8d8d-ecc07de06761,Owner 4528,+91XXXXXXXXXX,,Delhi,IN,Seller,Generated
7eee54d6-3d24-46c0-8ba2-b558cf16280d,Owner 2095,+91XXXXXXXXXX,,Mumbai,IN,Seller,Generated
27bf269c-372a-445a-8fe3-3dc693ce181a,Owner 251,+91XXXXXXXXXX,,Delhi,IN,Seller,Generated
a0124c98-4712-408a-b07d-bc8670a17feb,Owner 7504,+91XXXXXXXXXX,,Mumbai,IN,Seller,Generated
858f807a-da15-4f79-adbf-86e7cc6bf4f2,Owner 3652,+91XXXXXXXXXX,,Delhi,IN,Seller,Generated
8eb1f0c0-a8dc-4e47-be96-a2efedfa6447,Owner 8181,+91XXXXXXXXXX,,New York,IN,Seller,Generated
200b3779-e952-45c3-a0dd-0618ded25204,Owner 826,+91XXXXXXXXXX,,Mumbai,IN,Seller,Generated
9b0be454-c603-4870-b1e2-525a6e343ead,Owner 9145,+91XXXXXXXXXX,,London,IN,Seller,Generated
6f8fcfd6-0335-4773-9174-ab538ddd9355,Owner 9067,+91XXXXXXXXXX,,Mumbai,IN,Seller,Generated
b49c4eeb-80c5-402f-90a4-43e175648a0f,Owner 8788,+91XXXXXXXXXX,,London,IN,Seller,Generated
edd0ccc2-4a4f-45ce-9401-426884ed13f0,Owner 7645,+91XXXXXXXXXX,,Delhi,IN,Seller,Generated
c313ffdf-5e5f-4720-84c7-d9ef365f2212,Owner 3805,+91XXXXXXXXXX,,Delhi,IN,Seller,Generated
42b4f81d-64aa-4741-8e58-0c5737dba875,Owner 3116,+91XXXXXXXXXX,,Delhi,IN,Seller,Generated
ab6452a3-aa81-4ec7-ab5a-eb5af10d7995,Owner 1845,+91XXXXXXXXXX,,London,IN,Seller,Generated
34e7722d-a3eb-47a7-a1f4-2101cfa08f1d,Owner 4220,+91XXXXXXXXXX,,London,IN,Seller,Generated
40a3765c-efa9-431b-aa98-944abca91822,Owner 7894,+91XXXXXXXXXX,,Mumbai,IN,Seller,Generated
d0e5f0b3-5613-4eba-86f3-078e2ea85c9a,Owner 6191,+91XXXXXXXXXX,,London,IN,Seller,Generated
b660b718-4ea9-46e3-9b1a-ebfa3490d882,Owner 1815,+91XXXXXXXXXX,,New York,IN,Seller,Generated
6fd5e3d9-e972-446b-a62f-c9415b31a080,Owner 8755,+91XXXXXXXXXX,,New York,IN,Seller,Generated
328d30ea-e8b4-4ac4-9ef8-49ea992c5265,Owner 5554,+91XXXXXXXXXX,,Delhi,IN,Seller,Generated
4f862fec-6ea3-4152-b49c-c42eec750999,Owner 4267,+91XXXXXXXXXX,,New York,IN,Seller,Generated
8a9dcece-e9a4-4598-864b-955b69dad543,Owner 752,+91XXXXXXXXXX,,London,IN,Seller,Generated
6ebdb34e-e7f1-4d17-bf99-992b642e2f62,Owner 2220,+91XXXXXXXXXX,,Mumbai,IN,Seller,Generated
1b1378c4-c8f3-40d5-ac8c-20b579f026df,Owner 6448,+91XXXXXXXXXX,,Delhi,IN,Seller,Generated
48d0199d-677e-4e84-8a05-dfa016917fe0,Owner 3784,+91XXXXXXXXXX,,Mumbai,IN,Seller,Generated
fbc06145-9a6b-4628-a273-2f13133c9702,Owner 8760,+91XXXXXXXXXX,,Delhi,IN,Seller,Generated
1c3df0ef-9e04-4f15-9eb2-e6b5562d780f,Owner 9048,+91XXXXXXXXXX,,New York,IN,Seller,Generated
f9878b40-1e2b-47af-a59b-6d447aca34cd,Owner 2817,+91XXXXXXXXXX,,New York,IN,Seller,Generated
68534f78-29e8-42c7-b2e1-0fdc851883e0,Owner 7683,+91XXXXXXXXXX,,Delhi,IN,Seller,Generated
66910c5b-65c9-405e-9265-b2a9f9155cf1,Owner 1570,+91XXXXXXXXXX,,New York,IN,Seller,Generated
3575a150-e8e9-4d03-a69c-be9eb8d5361e,Owner 9449,+91XXXXXXXXXX,,London,IN,Seller,Generated
9bd2c442-0840-4dad-b1d8-834886f4f967,Owner 7921,+91XXXXXXXXXX,,Delhi,IN,Seller,Generated
5c01f07c-1ba4-4884-93e1-0a63c64a162c,Owner 6075,+91XXXXXXXXXX,,London,IN,Seller,Generated
35566d6d-7fb3-4f97-aad1-58a0a0b9242c,Owner 6912,+91XXXXXXXXXX,,Mumbai,IN,Seller,Generated
881af8e3-979b-4415-bc2d-ab326e947912,Owner 8949,+91XXXXXXXXXX,,London,IN,Seller,Generated
a93eb257-e6df-4848-a1e2-a5d89477627e,Owner 113,+91XXXXXXXXXX,,London,IN,Seller,Generated
8608b8c3-b3d9-4c47-b44b-f20f6d352f11,Owner 8169,+91XXXXXXXXXX,,Mumbai,IN,Seller,Generated
fd1a438b-fac4-4418-834f-8191d104bb18,Owner 5543,+91XXXXXXXXXX,,New York,IN,Seller,Generated
c176962b-555f-47b8-b6bc-746ba5b9c909,Owner 5086,+91XXXXXXXXXX,,Mumbai,IN,Seller,Generated
d18893c4-b972-4457-9d92-3193d50936fe,Owner 7914,+91XXXXXXXXXX,,London,IN,Seller,Generated
2a24dcfb-b202-496c-a763-66fb5f591ee6,Owner 9056,+91XXXXXXXXXX,,Mumbai,IN,Seller,Generated
81706c12-6f7a-4cce-9e2b-f575389bab8b,Owner 5332,+91XXXXXXXXXX,,Delhi,IN,Seller,Generated
1741ce9b-23fe-48f9-a8fc-289071f4ad41,Owner 461,+91XXXXXXXXXX,,London,IN,Seller,Generated
ceb2e02b-3397-4bdc-a77e-299aac980431,Owner 9854,+91XXXXXXXXXX,,Mumbai,IN,Seller,Generated
88cc57d2-a021-41f5-b091-9f63914a896f,Owner 5446,+91XXXXXXXXXX,,New York,IN,Seller,Generated
21361ded-7e4f-4d6e-b30d-25f0cd42c83e,Owner 4733,+91XXXXXXXXXX,,Mumbai,IN,Seller,Generated
7263fab3-732a-4e73-9e6b-e239abe131d5,Owner 3644,+91XXXXXXXXXX,,London,IN,Seller,Generated
e21ae2ab-8d2b-47b3-a2d8-2a27c2e17812,Owner 6107,+91XXXXXXXXXX,,New York,IN,Seller,Generated
1df9a767-2210-493b-bae3-b8b185724ac8,Owner 2813,+91XXXXXXXXXX,,London,IN,Seller,Generated
894455aa-2cf9-442c-a3d0-62aab61fa009,Owner 7502,+91XXXXXXXXXX,,Mumbai,IN,Seller,Generated
d0e6a8ba-8115-4b50-bcdc-ff2b8e82f2f6,Owner 4148,+91XXXXXXXXXX,,Mumbai,IN,Seller,Generated
dc82cb5b-8b4e-4aab-9917-5470f395a9c6,Owner 8097,+91XXXXXXXXXX,,Delhi,IN,Seller,Generated
58af63c9-e09d-43ac-850e-da377213988e,Owner 2140,+91XXXXXXXXXX,,Mumbai,IN,Seller,Generated
dfe485ed-9cb9-4b80-8218-2d1b272bb180,Owner 7209,+91XXXXXXXXXX,,Mumbai,IN,Seller,Generated
bf813615-2366-4745-9450-bfe073eb26e9,Owner 4804,+91XXXXXXXXXX,,Mumbai,IN,Seller,Generated
7aa39b7d-bd82-4fdd-8421-364fd06fbf5e,Owner 4991,+91XXXXXXXXXX,,Delhi,IN,Seller,Generated
fdb31014-324c-4f3c-9fbb-3768a55b0d2c,Owner 1497,+91XXXXXXXXXX,,New York,IN,Seller,Generated
d203d042-3ba8-4cc3-b26d-84a33ec7c7e5,Owner 714,+91XXXXXXXXXX,,New York,IN,Seller,Generated
365affe0-7f8f-4215-ab52-e6be3b22a6dc,Owner 1742,+91XXXXXXXXXX,,New York,IN,Seller,Generated
85ad36d4-2c22-424b-930c-24dde00f67b3,Owner 4097,+91XXXXXXXXXX,,London,IN,Seller,Generated
e8264635-f15f-4bc5-b2af-68f6abc4890a,Owner 8567,+91XXXXXXXXXX,,London,IN,Seller,Generated
c44904e6-cb81-4632-b576-83e05af62293,Owner 4102,+91XXXXXXXXXX,,Mumbai,IN,Seller,Generated
e9f4a9fe-86dc-47c8-9503-82b1d871423a,Owner 7987,+91XXXXXXXXXX,,Mumbai,IN,Seller,Generated
afc184e4-fd19-4ecb-bb82-4430a6aa6978,Owner 9083,+91XXXXXXXXXX,,Mumbai,IN,Seller,Generated
91770577-5557-44b9-9618-5109e7c92837,Owner 6642,+91XXXXXXXXXX,,New York,IN,Seller,Generated
35816e06-16c6-4558-aa6c-c33f4f355a8e,Owner 6969,+91XXXXXXXXXX,,London,IN,Seller,Generated
2fe86563-2afe-4161-a2a8-979d55d2dee2,Owner 506,+91XXXXXXXXXX,,New York,IN,Seller,Generated
6d0e7b3a-3b03-4da4-8d21-bf375db05f19,Owner 2884,+91XXXXXXXXXX,,Delhi,IN,Seller,Generated
76515b47-f3e0-46a2-b4c2-05b8c7ca8dcc,Owner 2338,+91XXXXXXXXXX,,Mumbai,IN,Seller,Generated
89efe05d-3839-4032-b239-e1fe71f9502d,Owner 4498,+91XXXXXXXXXX,,Mumbai,IN,Seller,Generated
528bb511-d92f-475e-9ca9-6156f2128b6d,Owner 3945,+91XXXXXXXXXX,,New York,IN,Seller,Generated
29cb3288-a815-4c54-8d99-1abe5d2fd0ad,Owner 3506,+91XXXXXXXXXX,,Delhi,IN,Seller,Generated
50a7d493-4da7-468b-b77c-535dca1cbea8,Owner 7463,+91XXXXXXXXXX,,Delhi,IN,Seller,Generated
06a5101b-6b27-4197-9c1f-78162c3a5afc,Owner 9071,+91XXXXXXXXXX,,Delhi,IN,Seller,Generated
504b1694-2558-486f-824f-a85e7d401cd9,Owner 8756,+91XXXXXXXXXX,,Mumbai,IN,Seller,Generated
4789d691-b443-40a1-9f7b-2d99685d54a0,Owner 4412,+91XXXXXXXXXX,,London,IN,Seller,Generated
375ff4d6-890f-4a2d-bfab-3d06d482983f,Owner 7550,+91XXXXXXXXXX,,London,IN,Seller,Generated
c0003526-3304-4af7-9c1b-bec15f086040,Owner 6774,+91XXXXXXXXXX,,Delhi,IN,Seller,Generated
31de8904-00e7-4feb-8289-37c6d1ed4bde,Owner 6728,+91XXXXXXXXXX,,Delhi,IN,Seller,Generated
0bf6ceca-23e7-4e7a-9b2a-df22223f00e3,Owner 3307,+91XXXXXXXXXX,,Delhi,IN,Seller,Generated
4f67da69-d541-48b9-b1ed-223f53705033,Owner 2588,+91XXXXXXXXXX,,Mumbai,IN,Seller,Generated
c06064e5-65c2-4a05-a6b1-17a3cd02399d,Owner 2176,+91XXXXXXXXXX,,New York,IN,Seller,Generated
09431b84-75b4-4a3b-a562-407a16b95c4d,Owner 4863,+91XXXXXXXXXX,,London,IN,Seller,Generated
dfa0496d-6906-4729-a963-9d05cd6cc3cf,Owner 9111,+91XXXXXXXXXX,,Delhi,IN,Seller,Generated
01f25206-d47b-46e6-923e-52622fdf1f6b,Owner 9052,+91XXXXXXXXXX,,New York,IN,Seller,Generated
3234d588-4e24-42aa-8aed-e28af6b479ea,Owner 5904,+91XXXXXXXXXX,,New York,IN,Seller,Generated
d6c38a77-111b-42c6-a30b-211d8932ae95,Owner 2127,+91XXXXXXXXXX,,Delhi,IN,Seller,Generated
6c113ecc-d716-4a45-bbaa-dab680eae391,Owner 4667,+91XXXXXXXXXX,,New York,IN,Seller,Generated
31aefb5b-45d3-4f24-a584-815b399e5a1f,Owner 2189,+91XXXXXXXXXX,,Delhi,IN,Seller,Generated
478522f8-fb7b-4828-af8f-2bcb3f1d4ec5,Owner 9666,+91XXXXXXXXXX,,Delhi,IN,Seller,Generated
838eed75-2ea3-4d1a-9876-b417be631857,Owner 8422,+91XXXXXXXXXX,,Delhi,IN,Seller,Generated
cd551860-6cbb-4f5e-8578-d8a1658858f4,Owner 3847,+91XXXXXXXXXX,,Mumbai,IN,Seller,Generated
5d37f11a-727e-4702-b0a9-b6eb7cf5aa5a,Owner 5564,+91XXXXXXXXXX,,New York,IN,Seller,Generated
ed7c9fa5-d14c-4359-a92a-9c61fb8b49f1,Owner 9736,+91XXXXXXXXXX,,Delhi,IN,Seller,Generated
870d4f00-3c38-4068-84d5-b8699410ed2d,Owner 7321,+91XXXXXXXXXX,,Delhi,IN,Seller,Generated
d6204fae-2cbf-4699-b023-53de08c8a840,Owner 3951,+91XXXXXXXXXX,,New York,IN,Seller,Generated
33ae1645-5f8c-408c-a839-a26cfa40ed1f,Owner 6023,+91XXXXXXXXXX,,Delhi,IN,Seller,Generated
e33ebc0f-c549-44b4-af6a-1273434f21ab,Owner 2278,+91XXXXXXXXXX,,Delhi,IN,Seller,Generated
5b5576b4-2bb0-4a7d-96d7-ae6b29f13976,Owner 2354,+91XXXXXXXXXX,,London,IN,Seller,Generated
453d116f-0431-46cb-adc6-5e56231601b2,Owner 1179,+91XXXXXXXXXX,,London,IN,Seller,Generated
343b9dc9-8fdd-4771-a690-0c9c2f7e0460,Owner 2799,+91XXXXXXXXXX,,New York,IN,Seller,Generated
98ff03b1-bfb3-402b-8a83-b7523a7ba9d3,Owner 3166,+91XXXXXXXXXX,,Mumbai,IN,Seller,Generated
7310b55c-70c6-4b00-b01c-635ba2c5601b,Owner 1660,+91XXXXXXXXXX,,Delhi,IN,Seller,Generated
99ee13ee-8813-496a-9147-b0faf28d02c3,Owner 1979,+91XXXXXXXXXX,,New York,IN,Seller,Generated
296f8288-81d5-41f0-b516-a0390227b5bf,Owner 6427,+91XXXXXXXXXX,,Mumbai,IN,Seller,Generated
a5ef812d-7883-4858-9f17-402af0990bc6,Owner 1292,+91XXXXXXXXXX,,New York,IN,Seller,Generated
e07bab7a-b6ca-4918-a2e0-01050909953e,Owner 2878,+91XXXXXXXXXX,,Delhi,IN,Seller,Generated
9bbcb53a-5b54-44e0-be27-230c76336728,Owner 6707,+91XXXXXXXXXX,,New York,IN,Seller,Generated
0f1a9856-ab65-4567-bfe2-4980d6e9d006,Owner 9505,+91XXXXXXXXXX,,London,IN,Seller,Generated
5f220670-7f01-4005-abf0-7edfde908dc5,Owner 8488,+91XXXXXXXXXX,,Delhi,IN,Seller,Generated
0bf64cf6-5a5e-4aa1-9967-a94fae4a0861,Owner 9243,+91XXXXXXXXXX,,Mumbai,IN,Seller,Generated
74e1cc27-89e5-4858-9843-e35ef342ae2a,Owner 6437,+91XXXXXXXXXX,,Mumbai,IN,Seller,Generated
156b8947-c1f9-40cd-9dfb-a059a4dd0936,Owner 5589,+91XXXXXXXXXX,,New York,IN,Seller,Generated
125461ed-27ce-46a4-a0ae-a0806dc65587,Owner 7630,+91XXXXXXXXXX,,London,IN,Seller,Generated
53628849-f0e8-4bab-9f62-bc8b007cb54d,Owner 5745,+91XXXXXXXXXX,,Delhi,IN,Seller,Generated
9c083ed5-ff87-4f03-beff-7a1f6a055686,Owner 8293,+91XXXXXXXXXX,,New York,IN,Seller,Generated
d56bce6e-26a1-4861-900b-8c87d67ef74d,Owner 9613,+91XXXXXXXXXX,,Delhi,IN,Seller,Generated
ca5c8956-f91b-478c-a561-989044154388,Owner 9538,+91XXXXXXXXXX,,Mumbai,IN,Seller,Generated
22527b9d-cfc2-4294-b374-bb83b3499f47,Owner 3387,+91XXXXXXXXXX,,London,IN,Seller,Generated
d2093ad8-1eb8-4225-8794-15d8ec8a422a,Owner 4025,+91XXXXXXXXXX,,New York,IN,Seller,Generated
89625daf-7c50-4f0f-bd12-b26bf354b232,Owner 6081,+91XXXXXXXXXX,,New York,IN,Seller,Generated
f97b0bd5-7fef-4acb-a80f-1647fdb20305,Owner 3893,+91XXXXXXXXXX,,Mumbai,IN,Seller,Generated
2b812b5b-ccd8-44b1-9ce1-777c8fbb95cd,Owner 5708,+91XXXXXXXXXX,,Mumbai,IN,Seller,Generated
2a9613f3-3745-4bd3-a080-e5ceb4ad8655,Owner 5644,+91XXXXXXXXXX,,Delhi,IN,Seller,Generated
9adda911-8f65-421c-94a4-2a3125fa1689,Owner 227,+91XXXXXXXXXX,,Mumbai,IN,Seller,Generated
1bebbb72-006f-41ad-ab45-ea2f1f91adb7,Owner 8750,+91XXXXXXXXXX,,New York,IN,Seller,Generated
315ff3ac-002e-4031-920b-0536e9821b7e,Owner 4283,+91XXXXXXXXXX,,London,IN,Seller,Generated
87a5c18e-47b8-400e-9be7-3908d4d30679,Owner 656,+91XXXXXXXXXX,,Mumbai,IN,Seller,Generated
b34db756-22fa-4bf8-86a1-d6fc9b16091d,Owner 5570,+91XXXXXXXXXX,,New York,IN,Seller,Generated
a1773910-17f1-4741-b66c-d0ac507cb445,Owner 3544,+91XXXXXXXXXX,,Delhi,IN,Seller,Generated
cb7f7714-9fb2-44bf-9187-4a4ec60f6ed9,Owner 6124,+91XXXXXXXXXX,,Delhi,IN,Seller,Generated
7c45fb0d-a96f-4b39-a1b3-52b938134106,Owner 8525,+91XXXXXXXXXX,,New York,IN,Seller,Generated
1b95ff92-b2c4-435c-896b-ba3d916dfe84,Owner 5250,+91XXXXXXXXXX,,London,IN,Seller,Generated
a6f59c67-a533-48fb-8520-4a318eb1e384,Owner 5810,+91XXXXXXXXXX,,London,IN,Seller,Generated
91120422-72a5-4201-bb2d-32b2f4ac2be9,Owner 987,+91XXXXXXXXXX,,Delhi,IN,Seller,Generated
68273b4f-164a-4658-87df-e3a1600a9bb7,Owner 7855,+91XXXXXXXXXX,,New York,IN,Seller,Generated
3c215b9f-2449-4bc8-b407-6d670820b538,Owner 2546,+91XXXXXXXXXX,,Mumbai,IN,Seller,Generated
f55c0da8-54ab-4c4e-9f07-e429c17842d3,Owner 5593,+91XXXXXXXXXX,,Delhi,IN,Seller,Generated
e16b799e-fc07-412d-9c17-7bb4fbc1cdfa,Owner 3368,+91XXXXXXXXXX,,Mumbai,IN,Seller,Generated
9651c5b3-f5e6-4e2f-a600-05054bb80c09,Owner 7230,+91XXXXXXXXXX,,London,IN,Seller,Generated
f90f9f7d-aa32-440c-8d6e-8c6337f32698,Owner 7550,+91XXXXXXXXXX,,London,IN,Seller,Generated
f432f2b7-55b3-4f65-9c38-c2c91983e1c9,Owner 7191,+91XXXXXXXXXX,,London,IN,Seller,Generated
0310003a-37cb-407f-8394-e2eea134774d,Owner 6886,+91XXXXXXXXXX,,Delhi,IN,Seller,Generated
6c1ef060-7aa8-443d-ae38-da9974fe357f,Owner 2334,+91XXXXXXXXXX,,Mumbai,IN,Seller,Generated
634e24be-2d63-476f-abac-3eeadc4531db,Owner 964,+91XXXXXXXXXX,,New York,IN,Seller,Generated
49fc546d-2f1e-4bcd-82d3-e10935f178ba,Owner 2368,+91XXXXXXXXXX,,Mumbai,IN,Seller,Generated
d53635c0-0257-4098-a33f-a091d6ed6210,Owner 5647,+91XXXXXXXXXX,,London,IN,Seller,Generated
2e329806-ed5a-46a5-a520-2ca05b9a5864,Owner 2859,+91XXXXXXXXXX,,Delhi,IN,Seller,Generated
b4029096-0e19-4ee9-99f9-41b5bf2d5233,Owner 3410,+91XXXXXXXXXX,,London,IN,Seller,Generated
6e1aa06d-1ea8-4ed6-9cfd-b062a84c49a0,Owner 6407,+91XXXXXXXXXX,,New York,IN,Seller,Generated
ce1b47a3-81d5-4cba-9acb-8ac7a892c636,Owner 9235,+91XXXXXXXXXX,,New York,IN,Seller,Generated
b36f7f7d-6a2d-4645-adc5-2f3cc219169c,Owner 1618,+91XXXXXXXXXX,,London,IN,Seller,Generated
dbfcbb8e-a827-49e2-8e3c-a8a90b3b2976,Owner 709,+91XXXXXXXXXX,,London,IN,Seller,Generated
2dd0f7df-ffa8-4001-9d1f-e3034f6c5c6d,Owner 8759,+91XXXXXXXXXX,,New York,IN,Seller,Generated
dc6fd7e8-04c4-4195-989c-e1d3511d4e40,Owner 7452,+91XXXXXXXXXX,,Mumbai,IN,Seller,Generated
b69cef8e-8370-4e28-b4ac-0a9af41b8990,Owner 1861,+91XXXXXXXXXX,,New York,IN,Seller,Generated
1c98b64b-8785-4384-bb4e-a8c7382f4d50,Owner 5288,+91XXXXXXXXXX,,Delhi,IN,Seller,Generated
577ec720-d0b7-4c5a-905b-61b9d9c5249e,Owner 9924,+91XXXXXXXXXX,,Mumbai,IN,Seller,Generated
bcad7a48-624f-4d94-a12d-be1f201f64de,Owner 7863,+91XXXXXXXXXX,,London,IN,Seller,Generated
aa51ee42-cbe3-41a8-9d2b-d987539cf67d,Owner 9805,+91XXXXXXXXXX,,New York,IN,Seller,Generated
a45a0d47-5bef-4014-88ce-d49141f301a6,Owner 9239,+91XXXXXXXXXX,,New York,IN,Seller,Generated
deceb731-f8d6-49f6-9b91-5d9fd6483754,Owner 6124,+91XXXXXXXXXX,,Mumbai,IN,Seller,Generated
6f4073e8-31cc-4b2e-9b8f-aea690118b16,Owner 5454,+91XXXXXXXXXX,,London,IN,Seller,Generated
4ec3680c-cb17-4218-9ea4-13d8eb1885d4,Owner 7657,+91XXXXXXXXXX,,London,IN,Seller,Generated
1a3f6274-93d4-44e0-bfed-a24bc9677dd5,Owner 5701,+91XXXXXXXXXX,,New York,IN,Seller,Generated
656aea16-cfb7-4478-996f-91fee8a0543d,Owner 2209,+91XXXXXXXXXX,,London,IN,Seller,Generated
b9737960-2e4f-488a-a93d-640df3ea0ac3,Owner 9388,+91XXXXXXXXXX,,Mumbai,IN,Seller,Generated
5969d02e-de9a-4e6f-ac52-f72a3576413c,Owner 5016,+91XXXXXXXXXX,,New York,IN,Seller,Generated
dd0a3ddb-1d41-4f7d-b5e4-590304bd95ad,Owner 2247,+91XXXXXXXXXX,,Mumbai,IN,Seller,Generated
b0fd08b1-b2a5-4235-8ff1-4207607fb21b,Owner 5825,+91XXXXXXXXXX,,London,IN,Seller,Generated
aff3e195-4015-4143-bc8f-7746404a6770,Owner 4858,+91XXXXXXXXXX,,Delhi,IN,Seller,Generated
092e4cc4-49f9-48e1-b173-0f91144a73ad,Owner 8316,+91XXXXXXXXXX,,Mumbai,IN,Seller,Generated
ccab1238-a4ba-41f7-b484-1db76a3f4d1c,Owner 6600,+91XXXXXXXXXX,,Mumbai,IN,Seller,Generated
a585283e-492d-4772-bb68-61309560620b,Owner 3980,+91XXXXXXXXXX,,Delhi,IN,Seller,Generated
c4517512-a851-4b6d-820f-f4d862648cb9,Owner 4300,+91XXXXXXXXXX,,New York,IN,Seller,Generated
f8ceed83-00d1-4e76-b2ed-d5d3737a8c9b,Owner 7415,+91XXXXXXXXXX,,New York,IN,Seller,Generated
2cd3ef01-2743-4ab3-98f3-4e349385c26c,Owner 646,+91XXXXXXXXXX,,Delhi,IN,Seller,Generated
62231be1-9afa-466b-a2ac-6be800cd61c9,Owner 1761,+91XXXXXXXXXX,,Mumbai,IN,Seller,Generated
57b50c87-167d-4054-ac25-3c388c690b36,Owner 9603,+91XXXXXXXXXX,,Delhi,IN,Seller,Generated
45e43017-cd65-4f2f-9b8d-98242e8020e1,Owner 3958,+91XXXXXXXXXX,,Mumbai,IN,Seller,Generated
f4af905e-15a9-474c-87c8-6e4d006c40c5,Owner 6258,+91XXXXXXXXXX,,New York,IN,Seller,Generated
2adc4d99-84d3-4c17-a8d7-e82f569d8126,Owner 2930,+91XXXXXXXXXX,,Delhi,IN,Seller,Generated
ec97ce8b-157f-4421-9cd6-6cf36a6d23b0,Owner 8059,+91XXXXXXXXXX,,Mumbai,IN,Seller,Generated
4d509b77-a954-4a64-bece-2a5f6e9d0637,Owner 6910,+91XXXXXXXXXX,,New York,IN,Seller,Generated
33d1d774-87c0-4d0a-85cb-3f4c5779ceab,Owner 4711,+91XXXXXXXXXX,,New York,IN,Seller,Generated
6a402e87-1ba3-40ae-b380-b5b31b78a9b1,Owner 247,+91XXXXXXXXXX,,London,IN,Seller,Generated
913e0423-fa7d-40d0-a327-9675e7b70a8a,Owner 9176,+91XXXXXXXXXX,,Mumbai,IN,Seller,Generated
37b8c07a-6295-4150-a93f-356b408d94d4,Owner 2665,+91XXXXXXXXXX,,London,IN,Seller,Generated
0b90a948-9a7e-4888-b124-173383310ec3,Owner 4333,+91XXXXXXXXXX,,New York,IN,Seller,Generated
579d11d8-5ef2-437b-9c80-007c92cab823,Owner 8624,+91XXXXXXXXXX,,Mumbai,IN,Seller,Generated
b04a16aa-5c8d-4318-a892-8e3f30a70da6,Owner 6718,+91XXXXXXXXXX,,New York,IN,Seller,Generated
1d190a8f-e159-4a35-b445-846d2f814e95,Owner 8616,+91XXXXXXXXXX,,London,IN,Seller,Generated
506987b7-cc7f-48ad-8432-5eb9d03b21ae,Owner 2694,+91XXXXXXXXXX,,Delhi,IN,Seller,Generated
6a1700df-57c1-4546-83d3-c543a45054b3,Owner 2187,+91XXXXXXXXXX,,New York,IN,Seller,Generated
efbd37fe-9c7f-4fd2-a1ae-7201cf00c719,Owner 506,+91XXXXXXXXXX,,London,IN,Seller,Generated
9eadd084-9f64-4133-82cc-d5b06387a2ce,Owner 4418,+91XXXXXXXXXX,,Mumbai,IN,Seller,Generated
1fc98cc5-6bda-42bd-b209-dce8d74582bb,Owner 1885,+91XXXXXXXXXX,,London,IN,Seller,Generated
79d7b499-604c-4b04-a623-8369a0458d5c,Owner 5764,+91XXXXXXXXXX,,London,IN,Seller,Generated
1e807b35-7ed3-4c06-a19e-be387a08b3e1,Owner 814,+91XXXXXXXXXX,,New York,IN,Seller,Generated
4c5f5cad-c05c-46da-ad5f-e73cba77056d,Owner 1748,+91XXXXXXXXXX,,New York,IN,Seller,Generated
387665f0-ee05-4567-bac7-db17c64739ca,Owner 6813,+91XXXXXXXXXX,,Delhi,IN,Seller,Generated
bd849ac4-430c-4819-a860-06168900fd67,Owner 7719,+91XXXXXXXXXX,,New York,IN,Seller,Generated
7663a643-ed75-4a14-ad4c-b54e206d5d5b,Owner 6088,+91XXXXXXXXXX,,London,IN,Seller,Generated
de141e29-8326-4ef0-991f-5392e06d1f5b,Owner 6961,+91XXXXXXXXXX,,London,IN,Seller,Generated
a74bafdd-fef7-40ca-b7a9-047d55895a37,Owner 295,+91XXXXXXXXXX,,Delhi,IN,Seller,Generated
1fe15f2d-262e-4e1b-be38-e996887af3d9,Owner 6991,+91XXXXXXXXXX,,New York,IN,Seller,Generated
57fc1ca3-ad7d-43c7-a4e8-8bd7ac96ce1e,Owner 795,+91XXXXXXXXXX,,London,IN,Seller,Generated
26a82d8c-dd8c-44df-87bd-db1920f42fc0,Owner 4842,+91XXXXXXXXXX,,Mumbai,IN,Seller,Generated
8ad86f68-fd4d-44ae-8ad4-3bbddfb2bde8,Owner 2191,+91XXXXXXXXXX,,Mumbai,IN,Seller,Generated
dbc3c23e-4023-45d0-9980-590aeb37230b,Owner 9839,+91XXXXXXXXXX,,London,IN,Seller,Generated
fd527d87-9177-4dbd-ae82-e3c3d4560c26,Owner 4908,+91XXXXXXXXXX,,Delhi,IN,Seller,Generated
c866ecbb-6db1-4b5b-9a45-45f21ebb9605,Owner 8899,+91XXXXXXXXXX,,Delhi,IN,Seller,Generated
315955bf-9b5a-4f52-b4f0-2a864b8f1c53,Owner 4375,+91XXXXXXXXXX,,New York,IN,Seller,Generated
115f4bc4-deef-4bfb-aa38-e62fc2034bfa,Owner 7763,+91XXXXXXXXXX,,Mumbai,IN,Seller,Generated
e48461fa-5b8e-40eb-84b9-6435e53ff47d,Owner 4660,+91XXXXXXXXXX,,London,IN,Seller,Generated
f2e32e73-fb60-422e-8577-67822ac85ef4,Owner 4832,+91XXXXXXXXXX,,London,IN,Seller,Generated
12b2bbc2-7f0e-4551-ba3d-8a5b8ba2b252,Owner 8936,+91XXXXXXXXXX,,Delhi,IN,Seller,Generated
8ab417d3-c184-4fe9-8dbc-8f43029eef04,Owner 8541,+91XXXXXXXXXX,,London,IN,Seller,Generated
c39d6e4b-6299-4357-b13b-ed7ef93522e4,Owner 7150,+91XXXXXXXXXX,,Delhi,IN,Seller,Generated
94c6fa2d-4da0-496a-b355-53d7fb9bccdd,Owner 8981,+91XXXXXXXXXX,,Delhi,IN,Seller,Generated
ac46f2eb-8c12-4b26-84ad-5365b2f5126a,Owner 3315,+91XXXXXXXXXX,,Mumbai,IN,Seller,Generated
6dce01ed-fecd-463e-b268-c733bc39e495,Owner 5681,+91XXXXXXXXXX,,Mumbai,IN,Seller,Generated
5fe11b3b-79ef-4256-a470-43bde3cecc59,Owner 9501,+91XXXXXXXXXX,,Mumbai,IN,Seller,Generated
072b61ed-b20f-4585-af5f-e1acc1a2fa40,Owner 1908,+91XXXXXXXXXX,,Mumbai,IN,Seller,Generated
fdfdcc13-5100-4c70-bfeb-c1d8c7614a4d,Owner 5895,+91XXXXXXXXXX,,London,IN,Seller,Generated
47223335-95ba-4cc9-bf51-f033f2ce729f,Owner 5996,+91XXXXXXXXXX,,New York,IN,Seller,Generated
39a7f315-6649-494a-ac06-a9202f386c43,Owner 4164,+91XXXXXXXXXX,,London,IN,Seller,Generated
516b6682-7309-45cb-840c-f143274e5f28,Owner 2397,+91XXXXXXXXXX,,New York,IN,Seller,Generated
19e996ed-a77e-47af-bf34-e5129ced5f02,Owner 9797,+91XXXXXXXXXX,,Delhi,IN,Seller,Generated
3779ba35-9283-4ea1-b156-961dbf59512a,Owner 3099,+91XXXXXXXXXX,,London,IN,Seller,Generated
fa96cff1-899e-4ff7-9c84-4c824de40aad,Owner 480,+91XXXXXXXXXX,,Delhi,IN,Seller,Generated
2a0f09ad-f984-4065-9091-8a46973f29a7,Owner 9833,+91XXXXXXXXXX,,New York,IN,Seller,Generated
c0a8a332-bc01-4b2e-9b21-86f541328212,Owner 7103,+91XXXXXXXXXX,,Delhi,IN,Seller,Generated
b21325d4-6ab7-4cc0-bbca-e304c0b715b0,Owner 5646,+91XXXXXXXXXX,,Delhi,IN,Seller,Generated
2bda2307-c39c-46dd-9c5a-b2b092189d76,Owner 3523,+91XXXXXXXXXX,,Mumbai,IN,Seller,Generated
79727be7-15bf-42f3-98b1-504dc886188b,Owner 1948,+91XXXXXXXXXX,,Delhi,IN,Seller,Generated
1f92eda5-65eb-4430-83c8-5758ef7820e0,Owner 5983,+91XXXXXXXXXX,,Delhi,IN,Seller,Generated
b2607820-d529-4d6d-8ddc-bc2e80072933,Owner 3323,+91XXXXXXXXXX,,London,IN,Seller,Generated
1d3a2d7f-df31-4a5f-9f53-4774256d4339,Owner 9167,+91XXXXXXXXXX,,Mumbai,IN,Seller,Generated
f7f9f339-dd1c-44df-b331-76fed23506ef,Owner 4377,+91XXXXXXXXXX,,London,IN,Seller,Generated
9d2f2634-e3df-4c34-b859-32c6e2eb6fbe,Owner 3658,+91XXXXXXXXXX,,New York,IN,Seller,Generated
3a623f66-e25c-485e-a4fe-33fa2db46321,Owner 3374,+91XXXXXXXXXX,,Delhi,IN,Seller,Generated
b0752581-b5e3-4da2-9d75-3277a71a8c4a,Owner 6474,+91XXXXXXXXXX,,Delhi,IN,Seller,Generated
125ba0a1-fbed-48e8-87bf-1573fd9fc8d7,Owner 2081,+91XXXXXXXXXX,,Delhi,IN,Seller,Generated
a1aaa764-999b-40c9-b57c-884f7ac75e4d,Owner 1415,+91XXXXXXXXXX,,New York,IN,Seller,Generated
f3f61d21-e681-4e2b-b29a-fe7be6154bf4,Owner 8938,+91XXXXXXXXXX,,Delhi,IN,Seller,Generated
f3d2ac42-7799-453d-8ccf-0a403a1f78d8,Owner 7689,+91XXXXXXXXXX,,London,IN,Seller,Generated
761f2a74-1b5b-4970-8da0-7b697d0af2f8,Owner 1861,+91XXXXXXXXXX,,London,IN,Seller,Generated
38ea33d6-920c-4300-9ef5-a47229e68e2f,Owner 6364,+91XXXXXXXXXX,,Mumbai,IN,Seller,Generated
cdbdab4a-4d73-4198-b359-af88a93dca68,Owner 9340,+91XXXXXXXXXX,,Delhi,IN,Seller,Generated
7bd06582-d959-4015-a8c7-a96440005134,Owner 4585,+91XXXXXXXXXX,,New York,IN,Seller,Generated
423093ec-f670-4d71-a192-3e223ce2ffa0,Owner 5423,+91XXXXXXXXXX,,Delhi,IN,Seller,Generated
97072a63-ea51-4513-90fb-dae62d086427,Owner 9095,+91XXXXXXXXXX,,Delhi,IN,Seller,Generated
92d0dd80-b49f-4d64-b880-c05e5d58f3d7,Owner 5482,+91XXXXXXXXXX,,London,IN,Seller,Generated
aa615fd4-b1ef-4965-a708-bd08947d08ba,Owner 4785,+91XXXXXXXXXX,,New York,IN,Seller,Generated
d21e010c-dac7-4265-a264-84db1d40e3a6,Owner 7229,+91XXXXXXXXXX,,Delhi,IN,Seller,Generated
e5c7c2f4-ea3e-4f2f-ac22-bcb675812b0a,Owner 5522,+91XXXXXXXXXX,,New York,IN,Seller,Generated
82aed704-df2f-453c-816f-0c9c51bd739a,Owner 6055,+91XXXXXXXXXX,,Delhi,IN,Seller,Generated
46b8b9d6-ee8f-481f-8b2e-3171f1680d10,Owner 77,+91XXXXXXXXXX,,Delhi,IN,Seller,Generated
f534aa86-4b80-46dd-b84c-f5628e805dac,Owner 6116,+91XXXXXXXXXX,,London,IN,Seller,Generated
d0a85c2e-5123-4c19-a853-f0581c56b7cb,Owner 4908,+91XXXXXXXXXX,,Mumbai,IN,Seller,Generated
d0188dfe-cfeb-4efc-b749-771aaa2d8477,Owner 5237,+91XXXXXXXXXX,,Delhi,IN,Seller,Generated
91f5110f-14c1-4057-a1a4-59d6410b1af4,Owner 4795,+91XXXXXXXXXX,,Delhi,IN,Seller,Generated
dc82cf07-6297-4fcc-918b-4b8e480b8332,Owner 6974,+91XXXXXXXXXX,,Mumbai,IN,Seller,Generated
61eee5d9-75dd-43a4-8afa-2cc15c346d37,Owner 122,+91XXXXXXXXXX,,London,IN,Seller,Generated
9ec91b57-4179-4e5d-b533-e10194fafdaf,Owner 841,+91XXXXXXXXXX,,Mumbai,IN,Seller,Generated
397d04cc-aa0f-4ad3-83e1-9730e6b58925,Owner 105,+91XXXXXXXXXX,,New York,IN,Seller,Generated
24660a3f-e311-4099-b548-20785866763c,Owner 5452,+91XXXXXXXXXX,,Delhi,IN,Seller,Generated
3afc54b2-ae04-47b6-8204-92b6cc0583e7,Owner 1978,+91XXXXXXXXXX,,Delhi,IN,Seller,Generated
1d5c5831-6c55-414e-a05d-488177e25aea,Owner 2582,+91XXXXXXXXXX,,New York,IN,Seller,Generated
35d08f77-bd21-49c9-8bd1-5f0e37f26ab9,Owner 8520,+91XXXXXXXXXX,,Mumbai,IN,Seller,Generated
1d8bf33c-d7bf-4d9c-99a1-51e933af5234,Owner 1692,+91XXXXXXXXXX,,Delhi,IN,Seller,Generated
835f8465-3c84-405a-8b39-dc64be87eea4,Owner 3994,+91XXXXXXXXXX,,Delhi,IN,Seller,Generated
5134db45-2eb1-4df3-950b-68c7eb80879d,Owner 1685,+91XXXXXXXXXX,,London,IN,Seller,Generated
b855eeea-6f02-4a16-8ca7-107eb68925ed,Owner 2860,+91XXXXXXXXXX,,Mumbai,IN,Seller,Generated
9504c360-6794-4f99-9e88-cf94ba82733a,Owner 9769,+91XXXXXXXXXX,,Mumbai,IN,Seller,Generated
a88562ee-76cd-4e6d-9369-7e9dd1dba948,Owner 220,+91XXXXXXXXXX,,London,IN,Seller,Generated
9e2127a8-6eb8-42ea-989d-09edb7d374c1,Owner 7532,+91XXXXXXXXXX,,Delhi,IN,Seller,Generated
6f230bc6-4d33-4b37-a781-b6ca64a60d84,Owner 7551,+91XXXXXXXXXX,,Delhi,IN,Seller,Generated
656d7855-47fd-406a-81b3-8822648eb68b,Owner 9087,+91XXXXXXXXXX,,New York,IN,Seller,Generated
3aeb78a9-69a1-440f-be72-ebe09ba91b6f,Owner 7724,+91XXXXXXXXXX,,Mumbai,IN,Seller,Generated
e5c4f5ff-403b-417d-bdbb-9a1de2f67e66,Owner 1738,+91XXXXXXXXXX,,London,IN,Seller,Generated
2e9946f6-c4c8-4290-a5c8-316451901f5f,Owner 7061,+91XXXXXXXXXX,,New York,IN,Seller,Generated
561cf44e-3392-4915-8d0e-e5396f325a3f,Owner 5789,+91XXXXXXXXXX,,New York,IN,Seller,Generated
5e4acd03-9cf8-4a30-bdde-0099b59207b3,Owner 4700,+91XXXXXXXXXX,,New York,IN,Seller,Generated
0b540488-2ecc-468a-b176-98775aa44fdc,Owner 4098,+91XXXXXXXXXX,,Delhi,IN,Seller,Generated
1ce1e212-dfc1-49c4-90e0-b81431200c1f,Owner 5640,+91XXXXXXXXXX,,London,IN,Seller,Generated
a524d0d3-74c2-41a5-b980-beb8239cfa55,Owner 6182,+91XXXXXXXXXX,,New York,IN,Seller,Generated
915d0262-3b2f-4973-90c7-8e3c6e1ff6c6,Owner 2696,+91XXXXXXXXXX,,Delhi,IN,Seller,Generated
36305034-b9d7-430f-af54-30e82339d73c,Owner 1058,+91XXXXXXXXXX,,Mumbai,IN,Seller,Generated
71e55bb5-93fd-481a-8cb1-59244242e66a,Owner 8165,+91XXXXXXXXXX,,London,IN,Seller,Generated
2761328a-19a3-4253-9db9-f74413f9971d,Owner 8163,+91XXXXXXXXXX,,Delhi,IN,Seller,Generated
1b77de01-4f1d-4092-9491-48c56d907574,Owner 3464,+91XXXXXXXXXX,,New York,IN,Seller,Generated
7b653fc9-b015-40a1-967e-b4d72de1c1ff,Owner 9594,+91XXXXXXXXXX,,Delhi,IN,Seller,Generated
de85aa1c-1163-4831-877b-5b6decc2d11f,Owner 2901,+91XXXXXXXXXX,,London,IN,Seller,Generated
28fc4459-3bab-464e-ad07-e20feb59bb68,Owner 3891,+91XXXXXXXXXX,,New York,IN,Seller,Generated
e8c2c74d-2b58-46a5-be0f-b0700ce101b3,Owner 5975,+91XXXXXXXXXX,,London,IN,Seller,Generated
290e5b6a-da9c-4c7a-bf40-e074e8de6696,Owner 6784,+91XXXXXXXXXX,,Delhi,IN,Seller,Generated
f8f9acf5-2550-47f7-94a7-73b88ef610eb,Owner 7160,+91XXXXXXXXXX,,New York,IN,Seller,Generated
533e9782-fb3c-4d85-9d2d-188031e1a04d,Owner 3229,+91XXXXXXXXXX,,Delhi,IN,Seller,Generated
87b426ce-ffe8-4cf9-82de-cd348817e729,Owner 1,+91XXXXXXXXXX,,Mumbai,IN,Seller,Generated
085b73ae-007b-4f80-896e-0c38beae2867,Owner 2589,+91XXXXXXXXXX,,Mumbai,IN,Seller,Generated
0645f28d-5307-4f9d-a024-38412b80868b,Owner 6553,+91XXXXXXXXXX,,Mumbai,IN,Seller,Generated
5a2575c8-2301-4dbf-b7a6-cbe3ebed5c64,Owner 5165,+91XXXXXXXXXX,,Mumbai,IN,Seller,Generated
097269b7-b72b-413a-8c9e-9f2c81506942,Owner 1212,+91XXXXXXXXXX,,New York,IN,Seller,Generated
39390db4-f018-4356-8ea1-948ce64d51fc,Owner 5180,+91XXXXXXXXXX,,Mumbai,IN,Seller,Generated
eed055d9-f23e-4171-80c3-ecb8c379e86a,Owner 5868,+91XXXXXXXXXX,,Mumbai,IN,Seller,Generated
bd79b27b-eb93-4149-8149-837aa7ea153f,Owner 809,+91XXXXXXXXXX,,London,IN,Seller,Generated
3d8bbcfa-6caa-4292-9264-93a65f93ee87,Owner 2177,+91XXXXXXXXXX,,Delhi,IN,Seller,Generated
945ce6fb-5756-4f95-9000-a7ae37cde2fd,Owner 3284,+91XXXXXXXXXX,,Delhi,IN,Seller,Generated
cc393bd2-3023-43e1-9e8c-bc5e5c9d4d4a,Owner 5482,+91XXXXXXXXXX,,London,IN,Seller,Generated
c5a59b96-5607-4c6b-b880-88c4052ff012,Owner 2845,+91XXXXXXXXXX,,New York,IN,Seller,Generated
128a1640-10b2-441a-95ad-42f3c9fe7eb6,Owner 1894,+91XXXXXXXXXX,,Delhi,IN,Seller,Generated
c3706fa8-8143-4494-a394-c5a7ed1ea5cc,Owner 8359,+91XXXXXXXXXX,,London,IN,Seller,Generated
15f11932-04f6-4aa8-aef1-6c8103b720b3,Owner 1772,+91XXXXXXXXXX,,Mumbai,IN,Seller,Generated
5a904879-4549-4423-8ee5-054a67acd407,Owner 2771,+91XXXXXXXXXX,,London,IN,Seller,Generated
b0163154-d9bf-41ec-9da3-bb8aaf19eb73,Owner 2408,+91XXXXXXXXXX,,Delhi,IN,Seller,Generated
bdd5e194-f12a-4ab5-9240-c22d9f8654b7,Owner 3783,+91XXXXXXXXXX,,Mumbai,IN,Seller,Generated
90c0d5b4-556e-4389-838d-37a9be27ea0c,Owner 4431,+91XXXXXXXXXX,,Delhi,IN,Seller,Generated
e2938488-5ee3-45c2-94c0-d54986f2a546,Owner 2385,+91XXXXXXXXXX,,Delhi,IN,Seller,Generated
1c180e5f-4a1c-4ef4-8178-6410c48ac2db,Owner 9367,+91XXXXXXXXXX,,Mumbai,IN,Seller,Generated
ff938f64-e1c0-4da0-9bd4-9a03f131183a,Owner 886,+91XXXXXXXXXX,,London,IN,Seller,Generated
1279ee1e-b571-48aa-ad4d-a56127b89c4a,Owner 2977,+91XXXXXXXXXX,,Delhi,IN,Seller,Generated
5802c8cf-d09a-4667-97c1-b27b1f2ee63d,Owner 2395,+91XXXXXXXXXX,,London,IN,Seller,Generated
dc83bbd3-5cca-4984-9d38-e3e202135f00,Owner 3711,+91XXXXXXXXXX,,New York,IN,Seller,Generated
b2fe69d1-9998-4899-8b7a-1a6d87c08415,Owner 5523,+91XXXXXXXXXX,,Mumbai,IN,Seller,Generated
8aea51c2-c030-4b2d-a019-e00ba64098a2,Owner 7659,+91XXXXXXXXXX,,Mumbai,IN,Seller,Generated
c713f5d9-aaa7-4dd7-a2f4-d13904a1cf01,Owner 4636,+91XXXXXXXXXX,,Mumbai,IN,Seller,Generated
b9103247-ae95-4d32-b585-1d9b3e82048c,Owner 9199,+91XXXXXXXXXX,,New York,IN,Seller,Generated
9ed3739f-f8a8-4114-8442-c26757c6951c,Owner 4874,+91XXXXXXXXXX,,London,IN,Seller,Generated
a2708b3e-80ff-4261-bf09-a4d39553e191,Owner 9068,+91XXXXXXXXXX,,Delhi,IN,Seller,Generated
7f68393a-f03d-4632-aedc-7afb32dba181,Owner 4618,+91XXXXXXXXXX,,New York,IN,Seller,Generated
d879b7cf-6b7e-4d43-b1ed-7608e1da1817,Owner 1726,+91XXXXXXXXXX,,Mumbai,IN,Seller,Generated
891218db-ed7a-4ce5-8f8d-98b378c0de1b,Owner 3175,+91XXXXXXXXXX,,London,IN,Seller,Generated
bc8a528f-862c-4923-92bd-ce2d8700df82,Owner 7816,+91XXXXXXXXXX,,Mumbai,IN,Seller,Generated
9c37742a-d3b5-4dde-b0d8-6a9bdc3ab955,Owner 3173,+91XXXXXXXXXX,,Delhi,IN,Seller,Generated
1cf526c8-05b2-43ab-a27f-eb4802a66e36,Owner 2938,+91XXXXXXXXXX,,Delhi,IN,Seller,Generated
275eab18-dda9-4d60-b2e0-d78016415a89,Owner 567,+91XXXXXXXXXX,,London,IN,Seller,Generated
186938cf-b4db-4334-abb2-b116115dac13,Owner 9675,+91XXXXXXXXXX,,London,IN,Seller,Generated
59457f48-1b88-4955-ba3d-0a6ac9363f76,Owner 6808,+91XXXXXXXXXX,,London,IN,Seller,Generated
51c83206-f808-4f1b-8ee3-967dfe6070c2,Owner 7986,+91XXXXXXXXXX,,New York,IN,Seller,Generated
0328b273-e376-4a4f-b446-bc49397e27d6,Owner 4666,+91XXXXXXXXXX,,London,IN,Seller,Generated
d137c503-c04a-4edf-a450-d4ac3df9db6a,Owner 1384,+91XXXXXXXXXX,,Mumbai,IN,Seller,Generated
7240b580-6701-4807-9071-2470050c3506,Owner 7557,+91XXXXXXXXXX,,London,IN,Seller,Generated
d727048c-78b5-4590-b67c-ca78b44db0ac,Owner 9453,+91XXXXXXXXXX,,Delhi,IN,Seller,Generated
38b5d158-7d13-40da-948b-2d121d37ec89,Owner 7239,+91XXXXXXXXXX,,New York,IN,Seller,Generated
0ccd5865-af1c-4db4-9ced-85f7e60d6e20,Owner 3600,+91XXXXXXXXXX,,New York,IN,Seller,Generated
f629efcf-b8f9-4e8b-9bae-bc9c39ccd37c,Owner 7499,+91XXXXXXXXXX,,Mumbai,IN,Seller,Generated
2842f851-f88a-42bc-ac20-e35a90c8cc69,Owner 627,+91XXXXXXXXXX,,New York,IN,Seller,Generated
1bc28ab1-e789-4cd5-8045-c3844fe96b0a,Owner 9841,+91XXXXXXXXXX,,New York,IN,Seller,Generated
ea004251-1e47-45c9-847b-43b500cb125e,Owner 4999,+91XXXXXXXXXX,,London,IN,Seller,Generated
d3a09235-bd43-4b82-ad06-d927f22feccf,Owner 6098,+91XXXXXXXXXX,,New York,IN,Seller,Generated
917176da-8a41-43f4-aad4-1ed507e55cc2,Owner 3045,+91XXXXXXXXXX,,Mumbai,IN,Seller,Generated
081587fe-a434-4ae8-b2e1-d0d35e02f062,Owner 6526,+91XXXXXXXXXX,,Delhi,IN,Seller,Generated
331c2afd-5aec-416b-8858-0dbbd0af9433,Owner 8785,+91XXXXXXXXXX,,Delhi,IN,Seller,Generated
be90a3d9-99a2-47ee-9563-8c456cb7dfc8,Owner 2165,+91XXXXXXXXXX,,New York,IN,Seller,Generated
6f2a5c31-df58-4f21-bf4f-aa7a7fe033f8,Owner 1693,+91XXXXXXXXXX,,Mumbai,IN,Seller,Generated
9f928c0e-7eaf-4cf9-92cc-8f2598e950b2,Owner 7324,+91XXXXXXXXXX,,London,IN,Seller,Generated
5fc3972f-4874-44d2-8bf3-a0b0c5621432,Owner 4803,+91XXXXXXXXXX,,London,IN,Seller,Generated
8db9b5de-b4f2-4436-b9a0-fa9984964b20,Owner 2463,+91XXXXXXXXXX,,New York,IN,Seller,Generated
3adac39f-08bc-48c9-9d0e-1f06ccc65f78,Owner 2249,+91XXXXXXXXXX,,New York,IN,Seller,Generated
97447e53-1f68-42a5-a278-9e2a7def079f,Owner 1428,+91XXXXXXXXXX,,Delhi,IN,Seller,Generated
eedfb2fe-b5c4-4810-9c13-28303e1195a0,Owner 5626,+91XXXXXXXXXX,,London,IN,Seller,Generated
f5c88469-71ac-4c90-9bc7-d29c94ff5490,Owner 4673,+91XXXXXXXXXX,,Mumbai,IN,Seller,Generated
ab2bdf8d-d488-44a2-86f9-89b85ec7493c,Owner 4333,+91XXXXXXXXXX,,Delhi,IN,Seller,Generated
2ef38673-46ee-40c8-ac9c-06c5a70d796a,Owner 4071,+91XXXXXXXXXX,,London,IN,Seller,Generated
4e4fc584-65f0-43dd-ab4e-187c470972e0,Owner 4043,+91XXXXXXXXXX,,New York,IN,Seller,Generated
99c58786-8b0c-4801-a2d3-69a74f96b992,Owner 8783,+91XXXXXXXXXX,,New York,IN,Seller,Generated
5a7066b2-0ef0-4ab9-897d-40299485d6ff,Owner 5268,+91XXXXXXXXXX,,Mumbai,IN,Seller,Generated
0dbc7660-ea75-423d-8117-6c8f5bafd70c,Owner 2524,+91XXXXXXXXXX,,Mumbai,IN,Seller,Generated
dd0b10ba-9194-4e01-8aec-d9bb5f55cf89,Owner 1308,+91XXXXXXXXXX,,New York,IN,Seller,Generated
3183e7ee-3dc3-4452-823f-f516120f74b2,Owner 3447,+91XXXXXXXXXX,,Delhi,IN,Seller,Generated
f3748089-3429-4763-bff8-c2a8e0ba52e2,Owner 3775,+91XXXXXXXXXX,,London,IN,Seller,Generated
27ff3802-8894-4b36-87f5-5e1ef92ca0dd,Owner 2474,+91XXXXXXXXXX,,Delhi,IN,Seller,Generated
443e2186-45a3-454c-9953-2c0f6a1685a0,Owner 109,+91XXXXXXXXXX,,London,IN,Seller,Generated
d17868b2-670a-490b-b192-ff52f2495701,Owner 6002,+91XXXXXXXXXX,,Mumbai,IN,Seller,Generated
db443ca6-06ea-41d7-a2e8-f069daa743be,Owner 670,+91XXXXXXXXXX,,London,IN,Seller,Generated
8bbff13d-cfda-4477-84a8-a2aefdb02247,Owner 9917,+91XXXXXXXXXX,,London,IN,Seller,Generated
6f09011a-b3f0-459f-8017-5251d01b6d4d,Owner 7747,+91XXXXXXXXXX,,London,IN,Seller,Generated
008f56f2-c15c-46c4-afdb-e775d5f8f4c3,Owner 3036,+91XXXXXXXXXX,,Delhi,IN,Seller,Generated
6b8d5c61-e30b-40f6-aa3e-9d072387e5c0,Owner 6309,+91XXXXXXXXXX,,London,IN,Seller,Generated
5105999c-b350-438f-9a31-78b4abb4d7c1,Owner 4769,+91XXXXXXXXXX,,Delhi,IN,Seller,Generated
5588a131-49cc-43e2-90d1-063d42d57281,Owner 5604,+91XXXXXXXXXX,,Mumbai,IN,Seller,Generated
3edd0845-9a48-4684-a5dc-b21198d266f7,Owner 8465,+91XXXXXXXXXX,,London,IN,Seller,Generated
3d2a07da-0493-4943-be84-ec9fb524703d,Owner 9605,+91XXXXXXXXXX,,Delhi,IN,Seller,Generated
690cbb92-596f-4b65-a309-31e43f3b7a61,Owner 8409,+91XXXXXXXXXX,,London,IN,Seller,Generated
5727e1c2-3512-47fb-b95c-d8586fa5fa4d,Owner 364,+91XXXXXXXXXX,,Mumbai,IN,Seller,Generated
6c8fac49-621a-42d9-9271-46ffe6190d3d,Owner 5113,+91XXXXXXXXXX,,New York,IN,Seller,Generated
28697f45-dd10-4b69-87d3-c66b3a8bab8a,Owner 1562,+91XXXXXXXXXX,,London,IN,Seller,Generated
5d1a4d83-2066-484a-8218-1412b8b3e512,Owner 3869,+91XXXXXXXXXX,,London,IN,Seller,Generated
bbb80089-dea1-44d4-8fdf-0852b309d92c,Owner 279,+91XXXXXXXXXX,,Delhi,IN,Seller,Generated
8ae485c7-2eab-4762-bf28-f4a507b2a360,Owner 1896,+91XXXXXXXXXX,,London,IN,Seller,Generated
b8a473be-a460-4c5b-b111-e7f9fc660532,Owner 4161,+91XXXXXXXXXX,,London,IN,Seller,Generated
eac81ffb-5243-46ba-bdd7-b54d59e78eb3,Owner 3780,+91XXXXXXXXXX,,Mumbai,IN,Seller,Generated
a8790582-3e7e-40c3-a426-499c33b24918,Owner 3249,+91XXXXXXXXXX,,London,IN,Seller,Generated
38a4ef86-e135-4246-b7fc-bcd22ca898d9,Owner 4148,+91XXXXXXXXXX,,Delhi,IN,Seller,Generated
85ede8c2-480f-4263-8985-d95abc860fb3,Owner 9432,+91XXXXXXXXXX,,London,IN,Seller,Generated
4b4279da-6a30-4295-93c7-2bed34d11d84,Owner 2843,+91XXXXXXXXXX,,New York,IN,Seller,Generated
eec30a74-de4c-4bf4-a2d5-d009e9523097,Owner 7386,+91XXXXXXXXXX,,New York,IN,Seller,Generated
022e8336-2e3e-484a-93de-c2a521b81a65,Owner 4467,+91XXXXXXXXXX,,Delhi,IN,Seller,Generated
72c124a4-225e-450f-9c5d-c3ebdf18a84d,Owner 686,+91XXXXXXXXXX,,London,IN,Seller,Generated
daa6f586-3748-4e46-a2d8-e77b72ed703e,Owner 3115,+91XXXXXXXXXX,,London,IN,Seller,Generated
ad8ec11d-3621-4555-b84e-0b66e9288684,Owner 3838,+91XXXXXXXXXX,,London,IN,Seller,Generated
54ba8c9e-ab7e-4766-87ec-3d3b5b02066c,Owner 6012,+91XXXXXXXXXX,,London,IN,Seller,Generated
70669660-a219-4102-bd3a-0385888db36a,Owner 8682,+91XXXXXXXXXX,,Mumbai,IN,Seller,Generated
ff5a308d-be50-4b9b-8d10-09f04d7f2f8f,Owner 6225,+91XXXXXXXXXX,,Delhi,IN,Seller,Generated
29ead301-35c9-4830-9831-91b5d94bdf5d,Owner 288,+91XXXXXXXXXX,,Delhi,IN,Seller,Generated
c0d8ec99-471c-48e9-96ee-b181e2531aed,Owner 2815,+91XXXXXXXXXX,,New York,IN,Seller,Generated
e42d2d77-f6c5-4682-9b44-db7b60e1e510,Owner 8223,+91XXXXXXXXXX,,New York,IN,Seller,Generated
a0fda1f8-4b9d-4992-8fbf-863e57fa4af0,Owner 404,+91XXXXXXXXXX,,Delhi,IN,Seller,Generated
09001675-6de3-468f-8994-2e2c528ad878,Owner 9719,+91XXXXXXXXXX,,New York,IN,Seller,Generated
4c559353-9353-473d-8de0-a56fa860e444,Owner 4878,+91XXXXXXXXXX,,New York,IN,Seller,Generated
8ac68554-1889-4406-a49c-9a83f811015a,Owner 7444,+91XXXXXXXXXX,,New York,IN,Seller,Generated
b2b390f2-ec52-48e0-b4f9-609348960038,Owner 4508,+91XXXXXXXXXX,,New York,IN,Seller,Generated
71ad3761-bb0f-4a46-b88b-359fba0a2ee5,Owner 1991,+91XXXXXXXXXX,,New York,IN,Seller,Generated
c7d0edbf-c1bc-43bb-bc04-ea88b255304d,Owner 4074,+91XXXXXXXXXX,,Delhi,IN,Seller,Generated
b6f163b2-b444-402e-9b8a-4580f730f024,Owner 286,+91XXXXXXXXXX,,London,IN,Seller,Generated
df312b67-955d-4bd0-8742-45f6abf09767,Owner 904,+91XXXXXXXXXX,,Mumbai,IN,Seller,Generated
24e6f32c-aa1a-4fd0-978c-283635c9aa31,Owner 2815,+91XXXXXXXXXX,,Mumbai,IN,Seller,Generated
966b06f1-6881-497c-aa29-bb77b8cbe98c,Owner 1814,+91XXXXXXXXXX,,Delhi,IN,Seller,Generated
df8ca14c-108b-449e-9896-0a15df92361c,Owner 5569,+91XXXXXXXXXX,,Delhi,IN,Seller,Generated
a298ea70-63c8-45c8-9690-e86509502aca,Owner 8501,+91XXXXXXXXXX,,New York,IN,Seller,Generated
b2d3b78f-fab8-40a0-991d-7f4052d3523f,Owner 8523,+91XXXXXXXXXX,,Delhi,IN,Seller,Generated
1e1386c9-2a05-4cf8-a809-0fa311db76ab,Owner 828,+91XXXXXXXXXX,,Mumbai,IN,Seller,Generated
6740ba2a-f857-4044-ab76-06db3bcb0327,Owner 5619,+91XXXXXXXXXX,,New York,IN,Seller,Generated
51207b12-6f21-4814-aba2-dd7da101ec5f,Owner 8658,+91XXXXXXXXXX,,London,IN,Seller,Generated
4f09694e-6eeb-4196-ab56-fd5623081de2,Owner 9560,+91XXXXXXXXXX,,Mumbai,IN,Seller,Generated
467ead33-5ceb-4b15-b677-66c5c80b8db0,Owner 8660,+91XXXXXXXXXX,,Delhi,IN,Seller,Generated
0b5282e0-feb7-470b-96c5-37f6af2790b0,Owner 7038,+91XXXXXXXXXX,,Delhi,IN,Seller,Generated
540187c7-65dc-4da2-a9f7-a4ca38ef7795,Owner 1787,+91XXXXXXXXXX,,New York,IN,Seller,Generated
fd4a7b6e-72c4-4a07-b14d-7c553de9ac7c,Owner 7789,+91XXXXXXXXXX,,Delhi,IN,Seller,Generated
0683550c-b936-4640-ac75-c936c65e347a,Owner 2498,+91XXXXXXXXXX,,New York,IN,Seller,Generated
e9723944-0322-4b41-b90e-309b8df97afe,Owner 5307,+91XXXXXXXXXX,,Delhi,IN,Seller,Generated
859d90ed-517a-45a6-b696-a9bd8e2dc349,Owner 3723,+91XXXXXXXXXX,,Delhi,IN,Seller,Generated
bf0abe12-d393-416f-9366-87ff8c588133,Owner 9481,+91XXXXXXXXXX,,Delhi,IN,Seller,Generated
dd7f8bd9-b77d-4f47-aea2-ac71dd8911ed,Owner 8485,+91XXXXXXXXXX,,Delhi,IN,Seller,Generated
0c3705f9-3205-4c5c-b827-1a2ef815c053,Owner 2419,+91XXXXXXXXXX,,London,IN,Seller,Generated
19b40d01-f086-41e7-9e4b-1eb682b1f2ed,Owner 3987,+91XXXXXXXXXX,,London,IN,Seller,Generated
5b57e0c6-2105-44af-87a9-8d242d1a4f87,Owner 5629,+91XXXXXXXXXX,,Mumbai,IN,Seller,Generated
f9205138-46a8-4585-b30a-e8c506bd93fc,Owner 7370,+91XXXXXXXXXX,,Delhi,IN,Seller,Generated
1ac1d995-2cde-42f3-aaab-c55e23c8ec8a,Owner 6512,+91XXXXXXXXXX,,London,IN,Seller,Generated
f6ba0377-95b6-4ecd-acae-b4ba2eb6c542,Owner 4885,+91XXXXXXXXXX,,Delhi,IN,Seller,Generated
42755f87-447b-43b5-bfb5-0db737d74f9e,Owner 5671,+91XXXXXXXXXX,,New York,IN,Seller,Generated
314eeb19-ddc6-4703-8582-b18cbc102a3b,Owner 6358,+91XXXXXXXXXX,,New York,IN,Seller,Generated
1fd7bc81-dcac-447b-8bd0-e9224c0f30d7,Owner 9551,+91XXXXXXXXXX,,London,IN,Seller,Generated
c84cc330-9a6d-4149-a7cf-8710effc883f,Owner 6821,+91XXXXXXXXXX,,New York,IN,Seller,Generated
ca83df6c-575f-4123-991c-7f89788ac7e0,Owner 4474,+91XXXXXXXXXX,,London,IN,Seller,Generated
c575817f-c8b4-4bb6-9418-01029bfc20c3,Owner 7740,+91XXXXXXXXXX,,New York,IN,Seller,Generated
24f9e1d9-78c5-4034-bf47-ee280b0bea11,Owner 8712,+91XXXXXXXXXX,,Mumbai,IN,Seller,Generated
62068471-2027-43ec-8aac-5efc95b8c544,Owner 1260,+91XXXXXXXXXX,,London,IN,Seller,Generated
f33a2d78-642d-47da-a87d-857f8fdd3dcc,Owner 3357,+91XXXXXXXXXX,,Delhi,IN,Seller,Generated
ea3b1a0f-0283-46cb-baef-2c777768a1af,Owner 7966,+91XXXXXXXXXX,,Mumbai,IN,Seller,Generated
53dc285c-a35c-432c-95f0-4feca2597567,Owner 267,+91XXXXXXXXXX,,New York,IN,Seller,Generated
99d21c92-8ae1-40d2-8064-d63da464dc37,Owner 9974,+91XXXXXXXXXX,,Mumbai,IN,Seller,Generated
d8097109-ed72-49f4-a7e5-cf9182a5f652,Owner 9727,+91XXXXXXXXXX,,Delhi,IN,Seller,Generated
cddf2e68-3190-449f-b18e-ba0e267c5cbf,Owner 6925,+91XXXXXXXXXX,,London,IN,Seller,Generated
2da2ea99-a9e8-426e-a6c5-2a14698b0c69,Owner 5968,+91XXXXXXXXXX,,Delhi,IN,Seller,Generated
34f3747c-e235-4d22-ae51-435b5e8ec487,Owner 8572,+91XXXXXXXXXX,,New York,IN,Seller,Generated
c38017a3-9b4b-49c5-a7c0-bb0b3056e83a,Owner 9668,+91XXXXXXXXXX,,London,IN,Seller,Generated
211f17b6-52ea-41d9-af56-a572c14d6c67,Owner 9040,+91XXXXXXXXXX,,New York,IN,Seller,Generated
4ecfe1c5-1c5f-47a2-9d50-659564ead952,Owner 7991,+91XXXXXXXXXX,,London,IN,Seller,Generated
7507c5b4-0158-448d-9af9-b46f4816b11b,Owner 6971,+91XXXXXXXXXX,,London,IN,Seller,Generated
c7ef33fc-7a5a-47b7-8a71-e3457566e708,Owner 4719,+91XXXXXXXXXX,,Mumbai,IN,Seller,Generated
dd3cb208-037c-4c08-b8f6-f83e2387d13d,Owner 2210,+91XXXXXXXXXX,,London,IN,Seller,Generated
5ddffcf2-687a-482b-9f43-8f47a78bf4c8,Owner 7698,+91XXXXXXXXXX,,New York,IN,Seller,Generated
fb117303-4daf-4528-911d-0217eb6a0904,Owner 1642,+91XXXXXXXXXX,,Mumbai,IN,Seller,Generated
4598268b-4c08-4976-a511-f03c53674ad6,Owner 8296,+91XXXXXXXXXX,,Delhi,IN,Seller,Generated
312b1952-5d6d-49f5-a846-ef9abddedf06,Owner 2862,+91XXXXXXXXXX,,New York,IN,Seller,Generated
7fa3af5f-742a-4998-9907-4f3093cae2d8,Owner 1404,+91XXXXXXXXXX,,New York,IN,Seller,Generated
52bd6e73-70d5-461d-9203-7af52330296b,Owner 1552,+91XXXXXXXXXX,,Delhi,IN,Seller,Generated
9fd57fc4-f277-4542-8e2d-1c76671b4e48,Owner 3549,+91XXXXXXXXXX,,London,IN,Seller,Generated
f4521689-b9ec-4e7a-be89-e821c5da01f3,Owner 6520,+91XXXXXXXXXX,,Delhi,IN,Seller,Generated
881bf3be-2c6c-4d79-8bd9-725fde86109f,Owner 2277,+91XXXXXXXXXX,,Mumbai,IN,Seller,Generated
0a7a2e56-9cd5-4403-9c77-ed662e43cc2a,Owner 537,+91XXXXXXXXXX,,Delhi,IN,Seller,Generated
eb2dff7a-62b2-436d-9e4a-39b2498f21c3,Owner 866,+91XXXXXXXXXX,,Mumbai,IN,Seller,Generated
f2110571-9cca-48c1-846f-2cae4801b314,Owner 5785,+91XXXXXXXXXX,,New York,IN,Seller,Generated
50e2fdaf-77a2-4d87-b4ff-39df370d60aa,Owner 8994,+91XXXXXXXXXX,,Delhi,IN,Seller,Generated
f77a2555-8206-419e-ba48-c9eb338a2bd9,Owner 1546,+91XXXXXXXXXX,,New York,IN,Seller,Generated
36d97706-45b7-4c51-b9b8-77c233b2c188,Owner 4144,+91XXXXXXXXXX,,London,IN,Seller,Generated
89eb803a-699a-4d5c-ae2d-764885ba235a,Owner 5201,+91XXXXXXXXXX,,Delhi,IN,Seller,Generated
0c8cd090-37af-4b8b-8947-12f826f99584,Owner 2813,+91XXXXXXXXXX,,New York,IN,Seller,Generated
69d6ec40-4b43-461f-8a09-b8e18b50a801,Owner 8705,+91XXXXXXXXXX,,Delhi,IN,Seller,Generated
62a6e6ed-ce1f-4875-a243-8274de08ec73,Owner 7479,+91XXXXXXXXXX,,London,IN,Seller,Generated
0233dbb9-e503-4d80-ae79-ad8f080c6764,Owner 9615,+91XXXXXXXXXX,,London,IN,Seller,Generated
f3788b5b-0cfc-4eee-9606-723a4f40aa25,Owner 9812,+91XXXXXXXXXX,,Mumbai,IN,Seller,Generated
6f1d7937-c25f-4c64-bcc7-8819391a93a8,Owner 6553,+91XXXXXXXXXX,,Mumbai,IN,Seller,Generated
54092c08-53da-4b10-9dc3-9005c141c555,Owner 7203,+91XXXXXXXXXX,,Mumbai,IN,Seller,Generated
4efda8b0-5698-47c5-8930-31a93996ff3e,Owner 246,+91XXXXXXXXXX,,Mumbai,IN,Seller,Generated
a6cd9541-1a14-4cab-905b-8b5e31e403a7,Owner 2384,+91XXXXXXXXXX,,Mumbai,IN,Seller,Generated
1792d43e-2ad1-48c1-9d0a-39030cf560ce,Owner 3860,+91XXXXXXXXXX,,Mumbai,IN,Seller,Generated
f32016c8-ac5d-4fc8-b1a4-bd6c14eb000c,Owner 2587,+91XXXXXXXXXX,,New York,IN,Seller,Generated
67c708bf-fe5c-46ed-8518-eaf60fed6692,Owner 9167,+91XXXXXXXXXX,,Delhi,IN,Seller,Generated
b86e9129-b468-491b-8dd2-9c59e63fa16e,Owner 3000,+91XXXXXXXXXX,,New York,IN,Seller,Generated
2da92292-a510-42dd-9185-1f54113d2653,Owner 900,+91XXXXXXXXXX,,London,IN,Seller,Generated
a9d25d27-08ee-4cda-9156-4e7f79b3ee65,Owner 8432,+91XXXXXXXXXX,,Delhi,IN,Seller,Generated
cf358815-9c38-467f-912c-41785e4d2247,Owner 4010,+91XXXXXXXXXX,,New York,IN,Seller,Generated
31c93b75-5f00-49d3-a88c-336a846e423f,Owner 8441,+91XXXXXXXXXX,,Delhi,IN,Seller,Generated
d670c492-a2a8-45ab-88f2-4049a5ce45da,Owner 4074,+91XXXXXXXXXX,,Delhi,IN,Seller,Generated
5cfc98c0-07c4-4b2d-a0ca-f9ef7183ef60,Owner 9712,+91XXXXXXXXXX,,New York,IN,Seller,Generated
8dc60fc1-fb04-408e-906d-b8fb71be17e2,Owner 8065,+91XXXXXXXXXX,,Delhi,IN,Seller,Generated
ed9b2440-d998-4899-9ac9-87a1b157c66b,Owner 8479,+91XXXXXXXXXX,,Delhi,IN,Seller,Generated
25d6a1cd-51d9-4bf1-8c08-2c03ac612b4c,Owner 5721,+91XXXXXXXXXX,,Delhi,IN,Seller,Generated
3817aced-8262-4d95-a1c6-3308c9a1a67f,Owner 7808,+91XXXXXXXXXX,,London,IN,Seller,Generated
1f2d2d19-8524-4a74-914f-fe18723a437b,Owner 1470,+91XXXXXXXXXX,,New York,IN,Seller,Generated
6b988eb0-60d1-4694-b693-ddbf1787e3e1,Owner 896,+91XXXXXXXXXX,,Mumbai,IN,Seller,Generated
567a1d51-d6b8-4b1a-95ed-30f438a3b1a4,Owner 3290,+91XXXXXXXXXX,,New York,IN,Seller,Generated
fba63198-917a-4937-a084-c7151567925f,Owner 7785,+91XXXXXXXXXX,,London,IN,Seller,Generated
f71a5dd8-84e3-4b11-b20f-96d016cf4667,Owner 2935,+91XXXXXXXXXX,,London,IN,Seller,Generated
3e6b7d59-bfc4-42d1-b958-d1ef5971e379,Owner 5602,+91XXXXXXXXXX,,London,IN,Seller,Generated
ceae4e69-72c7-4974-bf9f-364fe8ccccf5,Owner 8711,+91XXXXXXXXXX,,Mumbai,IN,Seller,Generated
231d2fc4-186a-499a-97c3-75cef1c91a02,Owner 2926,+91XXXXXXXXXX,,Mumbai,IN,Seller,Generated
731a55ed-7326-4d53-b0b9-ac0a5e860f0d,Owner 9512,+91XXXXXXXXXX,,London,IN,Seller,Generated
c0226804-f172-4d3d-b65d-a448a8203fb9,Owner 7127,+91XXXXXXXXXX,,Delhi,IN,Seller,Generated
a491ac35-86e4-4cd5-923c-edc5e5f635e4,Owner 4008,+91XXXXXXXXXX,,Delhi,IN,Seller,Generated
8df97267-f699-46bb-a76f-c05d79a2045c,Owner 2570,+91XXXXXXXXXX,,London,IN,Seller,Generated
a872c3a2-6a7f-4d6d-b3f7-26713abe283a,Owner 8813,+91XXXXXXXXXX,,New York,IN,Seller,Generated
cdbf89bb-01c5-41ba-a3e2-b93c6b76a63b,Owner 2862,+91XXXXXXXXXX,,Mumbai,IN,Seller,Generated
d272ca4f-9c40-47bb-9b36-6737511838c1,Owner 5689,+91XXXXXXXXXX,,Mumbai,IN,Seller,Generated
fa6a46ba-9c7b-4a1c-b690-fd30e6b3401d,Owner 4673,+91XXXXXXXXXX,,London,IN,Seller,Generated
73148339-17d0-4887-bc63-e2054c42ca75,Owner 887,+91XXXXXXXXXX,,London,IN,Seller,Generated
0cba7920-2379-4f5f-94bd-ef6fa1869997,Owner 2414,+91XXXXXXXXXX,,Delhi,IN,Seller,Generated
54d606ad-403f-4dc2-bf75-4e943b338df0,Owner 2072,+91XXXXXXXXXX,,Mumbai,IN,Seller,Generated
826b9ad6-6976-40bd-8a25-d4a182b97eee,Owner 363,+91XXXXXXXXXX,,London,IN,Seller,Generated
2c89265c-8a92-4b95-b479-ed3d39cb25c2,Owner 8261,+91XXXXXXXXXX,,London,IN,Seller,Generated
4527ca42-d001-4d1f-8349-843b53c94ec0,Owner 2725,+91XXXXXXXXXX,,London,IN,Seller,Generated
d33114d1-584a-4367-915a-f43d5ae609a9,Owner 4239,+91XXXXXXXXXX,,Delhi,IN,Seller,Generated
6e46352e-f726-4275-a3e9-0ef4807b0cc1,Owner 528,+91XXXXXXXXXX,,New York,IN,Seller,Generated
f2e86054-203d-4a6f-8114-5b4a0dd98a58,Owner 1990,+91XXXXXXXXXX,,London,IN,Seller,Generated
435be6fe-61ef-4398-86a5-161b854dd1e6,Owner 9024,+91XXXXXXXXXX,,New York,IN,Seller,Generated
a32a6a85-7a5f-46f8-9cfe-6efbba25d22a,Owner 4370,+91XXXXXXXXXX,,Delhi,IN,Seller,Generated
160d7aa1-028e-404c-844b-a5c7df8c0469,Owner 2338,+91XXXXXXXXXX,,New York,IN,Seller,Generated
1a14ba7a-7f2c-4f72-b990-fa2a220b4fd4,Owner 5594,+91XXXXXXXXXX,,Mumbai,IN,Seller,Generated
adb9ac57-fbef-4405-b737-b52346fb8932,Owner 5336,+91XXXXXXXXXX,,London,IN,Seller,Generated
e94ed715-0b20-4f66-ac8f-b060af606130,Owner 6483,+91XXXXXXXXXX,,Mumbai,IN,Seller,Generated
de1506fb-60fa-4b11-9034-e2a532a27369,Owner 8218,+91XXXXXXXXXX,,Mumbai,IN,Seller,Generated
e1c3e5b0-3fa6-4550-af2b-14d9a5de8ede,Owner 2326,+91XXXXXXXXXX,,New York,IN,Seller,Generated
bf41539d-03a3-4791-8758-edbda16a250f,Owner 2180,+91XXXXXXXXXX,,Mumbai,IN,Seller,Generated
77d7015f-c048-4389-a1c9-401c20fa7c77,Owner 7344,+91XXXXXXXXXX,,New York,IN,Seller,Generated
f0cffdfd-d66c-41f4-a024-d880d7afce83,Owner 5609,+91XXXXXXXXXX,,London,IN,Seller,Generated
79d91c78-5ec7-434a-8ced-1ff4f806cafa,Owner 3052,+91XXXXXXXXXX,,New York,IN,Seller,Generated
844e068e-d2a3-47c8-9a13-a6a4c64d8bbf,Owner 8231,+91XXXXXXXXXX,,Delhi,IN,Seller,Generated
9544ed89-5813-4e31-bfcd-dcdc9d3a9281,Owner 6163,+91XXXXXXXXXX,,Mumbai,IN,Seller,Generated
19b77fb4-531f-4db5-a436-0d328c47dc0a,Owner 135,+91XXXXXXXXXX,,New York,IN,Seller,Generated
d4b0a882-c7b5-4249-bb04-6c367c012e12,Owner 2781,+91XXXXXXXXXX,,Delhi,IN,Seller,Generated
ef33fdc0-b7b5-43a1-b361-0fda16f1717b,Owner 409,+91XXXXXXXXXX,,New York,IN,Seller,Generated
f0acaa64-c6aa-4f1b-9e97-5f8fcde36fb5,Owner 2692,+91XXXXXXXXXX,,London,IN,Seller,Generated
3ddca34c-7aaa-4045-92aa-5711a00fffcb,Owner 5492,+91XXXXXXXXXX,,Mumbai,IN,Seller,Generated
7a33cdee-008c-4558-9a58-eb5b2df86da7,Owner 9278,+91XXXXXXXXXX,,Mumbai,IN,Seller,Generated
0116381b-d2b8-4d0c-9586-477ead508213,Owner 5981,+91XXXXXXXXXX,,Mumbai,IN,Seller,Generated
b9333737-c042-46d2-81f2-1c2236920fae,Owner 6260,+91XXXXXXXXXX,,Mumbai,IN,Seller,Generated
bea19b9e-c82c-46df-9632-eb7eacbbcc9f,Owner 5798,+91XXXXXXXXXX,,New York,IN,Seller,Generated
fa5a9a70-2894-4b47-8744-7d3dc59c8d64,Owner 8486,+91XXXXXXXXXX,,London,IN,Seller,Generated
97732600-2517-43d5-8e3a-ed35b196dedd,Owner 103,+91XXXXXXXXXX,,New York,IN,Seller,Generated
49f92df3-ca0e-4673-a036-cfffbef47809,Owner 611,+91XXXXXXXXXX,,Delhi,IN,Seller,Generated
3f02bbf9-3ff5-483f-a971-03e0406014d0,Owner 5115,+91XXXXXXXXXX,,Delhi,IN,Seller,Generated
c45b1e4f-c353-4ac8-b495-4662e975af7d,Owner 3426,+91XXXXXXXXXX,,Delhi,IN,Seller,Generated
7a99efb0-3c94-4872-9986-ee237d7fa437,Owner 6262,+91XXXXXXXXXX,,Mumbai,IN,Seller,Generated
3bc47e41-f642-4212-a72d-6a5005503a5c,Owner 8204,+91XXXXXXXXXX,,Delhi,IN,Seller,Generated
02e5ddab-8330-4abd-9a2e-da043af51ac9,Owner 6073,+91XXXXXXXXXX,,Delhi,IN,Seller,Generated
511585b0-3d7e-4e1d-9613-46cb92ab7f27,Owner 4158,+91XXXXXXXXXX,,New York,IN,Seller,Generated
5fd1e015-6e01-4c4f-91d3-81057434abed,Owner 2323,+91XXXXXXXXXX,,Mumbai,IN,Seller,Generated
bac39486-fda9-4a47-ab07-6e9cf530d7a6,Owner 6901,+91XXXXXXXXXX,,London,IN,Seller,Generated
770ff01c-7122-41f1-ae81-2c1731ce8d9f,Owner 9782,+91XXXXXXXXXX,,New York,IN,Seller,Generated
26253e3d-96ee-489f-a6ba-cce689d24c38,Owner 6038,+91XXXXXXXXXX,,Delhi,IN,Seller,Generated
874801ec-219a-4710-b980-653d511b5fee,Owner 7669,+91XXXXXXXXXX,,London,IN,Seller,Generated
bfd9b408-0a70-4935-9ebd-d1a2de67c19b,Owner 2680,+91XXXXXXXXXX,,New York,IN,Seller,Generated
fa8c6a8d-a618-4c72-b40c-dcb230679e43,Owner 5778,+91XXXXXXXXXX,,Mumbai,IN,Seller,Generated
bfeb945f-a55a-48dd-bbd8-7db933288b4c,Owner 3713,+91XXXXXXXXXX,,Mumbai,IN,Seller,Generated
f9718c8e-c0ec-4a3d-ad81-ae38e4cc80fc,Owner 8744,+91XXXXXXXXXX,,Delhi,IN,Seller,Generated
48c2f07d-48ed-4510-83b4-328d0459deb8,Owner 8378,+91XXXXXXXXXX,,Mumbai,IN,Seller,Generated
047bd1d7-1aa1-441e-b79b-e90f1673d982,Owner 4633,+91XXXXXXXXXX,,New York,IN,Seller,Generated
25f3bcf4-b1fb-4c96-83b8-f020301dbfef,Owner 8989,+91XXXXXXXXXX,,Mumbai,IN,Seller,Generated
bae7a913-154a-44bf-b62e-926cf9be0c7e,Owner 6668,+91XXXXXXXXXX,,New York,IN,Seller,Generated
262434ed-ad8a-4048-9f02-9a6fa42b2444,Owner 6094,+91XXXXXXXXXX,,Mumbai,IN,Seller,Generated
3ff7ee47-2df3-4b54-bf7a-7110f0890728,Owner 2054,+91XXXXXXXXXX,,London,IN,Seller,Generated
b5af27bf-4867-4a8b-bd32-86546715ba7b,Owner 17,+91XXXXXXXXXX,,London,IN,Seller,Generated
0fe2f022-2692-4850-8375-5d69e8fafb87,Owner 2,+91XXXXXXXXXX,,New York,IN,Seller,Generated
f1028a63-b03c-4e94-9184-3528a032f113,Owner 3480,+91XXXXXXXXXX,,London,IN,Seller,Generated
9c2c8ce1-5f1a-43e2-b7d0-4c6e15f7cb8d,Owner 1584,+91XXXXXXXXXX,,Delhi,IN,Seller,Generated
1e851a00-800d-432b-baf7-e00ef285d2a3,Owner 2316,+91XXXXXXXXXX,,New York,IN,Seller,Generated
5b97f9de-76c2-47f7-b567-340fdb07df37,Owner 6431,+91XXXXXXXXXX,,New York,IN,Seller,Generated
1b389eff-b7ef-4aa9-9553-dafc73cc7675,Owner 2922,+91XXXXXXXXXX,,Mumbai,IN,Seller,Generated
9ff14baf-a5fb-4cd2-83ad-41ba789195b7,Owner 5758,+91XXXXXXXXXX,,New York,IN,Seller,Generated
b864f2d3-e259-4869-a1e8-959ee555503f,Owner 8253,+91XXXXXXXXXX,,Mumbai,IN,Seller,Generated
c2afeeac-5273-443c-a565-37af4498877e,Owner 1984,+91XXXXXXXXXX,,Delhi,IN,Seller,Generated
51a0d781-fcbd-4eca-9ebe-68cb3cac6d3a,Owner 6126,+91XXXXXXXXXX,,Delhi,IN,Seller,Generated
2d7907a3-b720-40ca-b7c6-49a55d239a38,Owner 1417,+91XXXXXXXXXX,,London,IN,Seller,Generated
6edc6807-479e-489d-9769-0b644cba5cad,Owner 9141,+91XXXXXXXXXX,,New York,IN,Seller,Generated
1e05f9f2-36d5-41a9-a011-8890527c625a,Owner 6281,+91XXXXXXXXXX,,Delhi,IN,Seller,Generated
d3c2b468-9562-428a-bc25-2f8bff2eebe1,Owner 1336,+91XXXXXXXXXX,,New York,IN,Seller,Generated
5fa97ca2-53dc-4018-bcb4-d44bb9bd3103,Owner 2013,+91XXXXXXXXXX,,Delhi,IN,Seller,Generated
c98ff6e8-b2ea-4197-a6d0-9e1e0fdabec0,Owner 5450,+91XXXXXXXXXX,,New York,IN,Seller,Generated
db440ca5-1d7e-4722-bfd9-dd8d3fd03089,Owner 3396,+91XXXXXXXXXX,,Delhi,IN,Seller,Generated
bd7d315d-6aaf-465e-9853-3c9ff46e8e58,Owner 1722,+91XXXXXXXXXX,,Delhi,IN,Seller,Generated
9d1ed673-a8ce-44a4-b462-1b9199224579,Owner 5182,+91XXXXXXXXXX,,Delhi,IN,Seller,Generated
237e062f-64f5-46c4-bc37-0694b0b79a1b,Owner 9926,+91XXXXXXXXXX,,London,IN,Seller,Generated
8cd97e0e-cee0-4429-8ab7-f9130178bc1a,Owner 7807,+91XXXXXXXXXX,,New York,IN,Seller,Generated
bb7ce414-a8ce-4536-b1cb-15475c5ddb58,Owner 2684,+91XXXXXXXXXX,,Delhi,IN,Seller,Generated
29ebafb5-73ac-4cea-afe9-fd7b2e8ac413,Owner 2008,+91XXXXXXXXXX,,Mumbai,IN,Seller,Generated
7eeb2d3c-5ae8-4fac-b0d0-8491f04c88b3,Owner 6228,+91XXXXXXXXXX,,New York,IN,Seller,Generated
62042e1d-d321-4dcc-9e7b-55f7e8e64a93,Owner 1897,+91XXXXXXXXXX,,London,IN,Seller,Generated
9379b2ee-a4ca-409d-92a3-909280508403,Owner 6647,+91XXXXXXXXXX,,Delhi,IN,Seller,Generated
efb676bb-efeb-48c3-9b0c-21c1e25d32b8,Owner 1568,+91XXXXXXXXXX,,London,IN,Seller,Generated
8bfb3a79-c856-485c-bb20-20be2756b2d4,Owner 7480,+91XXXXXXXXXX,,London,IN,Seller,Generated
8571713f-bd7f-428e-acf2-0f3f42e6f1db,Owner 9934,+91XXXXXXXXXX,,Delhi,IN,Seller,Generated
73d7a369-90ef-4523-9174-267e64576bcf,Owner 2937,+91XXXXXXXXXX,,Delhi,IN,Seller,Generated
33b0ade1-8a14-423a-8deb-f9342ed8acc0,Owner 9364,+91XXXXXXXXXX,,Mumbai,IN,Seller,Generated
a9fe2497-edd1-403b-88f7-a14bbcea7e9d,Owner 8140,+91XXXXXXXXXX,,Delhi,IN,Seller,Generated
db78065b-9f61-4760-aa25-c865d44b4424,Owner 86,+91XXXXXXXXXX,,New York,IN,Seller,Generated
4b8bf24c-6a49-4221-9321-a6bfa87afd02,Owner 2804,+91XXXXXXXXXX,,New York,IN,Seller,Generated
228adc7c-2fee-4a38-a6ec-3829c58e6f48,Owner 5873,+91XXXXXXXXXX,,New York,IN,Seller,Generated
7abda139-761e-4ac9-8285-ff4956187d79,Owner 4014,+91XXXXXXXXXX,,London,IN,Seller,Generated
3cba7e5f-7372-4767-a64e-78f7a196a844,Owner 3850,+91XXXXXXXXXX,,Mumbai,IN,Seller,Generated
257734bc-40cb-4a7c-8fc9-4e979fd6fcb5,Owner 8215,+91XXXXXXXXXX,,Mumbai,IN,Seller,Generated
aae6a3af-21cd-4a76-833f-bf985a9ee484,Owner 4230,+91XXXXXXXXXX,,Mumbai,IN,Seller,Generated
3f994836-30f3-4af8-8256-4fee676a67b0,Owner 5883,+91XXXXXXXXXX,,New York,IN,Seller,Generated
81408a0a-a5bf-46fa-a9b4-635903998ee2,Owner 6817,+91XXXXXXXXXX,,New York,IN,Seller,Generated
4a7cca07-b9fe-4fa7-aec3-c4e871dbdd20,Owner 7072,+91XXXXXXXXXX,,Mumbai,IN,Seller,Generated
1372db68-d5f9-434a-9b24-70c802a37e34,Owner 6839,+91XXXXXXXXXX,,Delhi,IN,Seller,Generated
369e644a-40f1-4127-ac09-b5ef1e23a219,Owner 8127,+91XXXXXXXXXX,,Delhi,IN,Seller,Generated
90eec72a-85ad-4d27-9612-7e13e8c7d7f7,Owner 4648,+91XXXXXXXXXX,,New York,IN,Seller,Generated
9f802f0d-7465-4409-90bb-d6073557519f,Owner 247,+91XXXXXXXXXX,,London,IN,Seller,Generated
9eb6d961-8a16-4761-82d3-d6c83e477cf8,Owner 2396,+91XXXXXXXXXX,,London,IN,Seller,Generated
0ba19694-392d-4bd8-b0bb-05711a6bd00d,Owner 7926,+91XXXXXXXXXX,,Mumbai,IN,Seller,Generated
50262e00-5098-432d-b602-03a99ff1fb71,Owner 537,+91XXXXXXXXXX,,Delhi,IN,Seller,Generated
0cf75101-3903-472b-bd45-66a1fc19656d,Owner 2046,+91XXXXXXXXXX,,Delhi,IN,Seller,Generated
48d091a2-036d-4870-9a5e-e1a3a81f91bf,Owner 7912,+91XXXXXXXXXX,,London,IN,Seller,Generated
4be71f05-70bd-49b0-915c-1ecf7f04cb29,Owner 8139,+91XXXXXXXXXX,,New York,IN,Seller,Generated
f59bd8e4-42eb-44dd-96fb-453ea635b57d,Owner 8111,+91XXXXXXXXXX,,London,IN,Seller,Generated
ab8a2d1b-8875-452a-bc18-ff615c134952,Owner 2122,+91XXXXXXXXXX,,New York,IN,Seller,Generated
ba5bcced-3006-4a98-bf48-d641075d8e22,Owner 7162,+91XXXXXXXXXX,,London,IN,Seller,Generated
f882af1e-73f6-426f-85ec-345af060011b,Owner 3782,+91XXXXXXXXXX,,New York,IN,Seller,Generated
0d541065-35b1-4037-b73c-d5d85bd5f599,Owner 4271,+91XXXXXXXXXX,,New York,IN,Seller,Generated
b4153adc-318d-46ef-87e4-9f6d6ccea32f,Owner 1653,+91XXXXXXXXXX,,Delhi,IN,Seller,Generated
353efb66-e7b8-4447-a5fb-85d78f1716cf,Owner 1481,+91XXXXXXXXXX,,Mumbai,IN,Seller,Generated
275ba079-8352-4867-a81d-47bbdcb36c64,Owner 1189,+91XXXXXXXXXX,,New York,IN,Seller,Generated
dcd439ae-6f3e-4be8-8e70-212cae12af3f,Owner 8132,+91XXXXXXXXXX,,Delhi,IN,Seller,Generated
6fd64f29-98e7-4a84-8e1b-1f215fb40465,Owner 919,+91XXXXXXXXXX,,Mumbai,IN,Seller,Generated
da879c0a-3032-418e-aa92-71b39c265793,Owner 1647,+91XXXXXXXXXX,,New York,IN,Seller,Generated
e1b4bac9-5582-4db8-aa44-9b03230cc38c,Owner 6621,+91XXXXXXXXXX,,New York,IN,Seller,Generated
5aa36bae-bdec-4e29-a3ea-695147b55652,Owner 1937,+91XXXXXXXXXX,,London,IN,Seller,Generated
8a6ee0dd-62c7-4396-a3dd-4e35cb6cf25d,Owner 4724,+91XXXXXXXXXX,,New York,IN,Seller,Generated
9f6bea97-3d3d-4a5c-9f91-1064b60460c7,Owner 769,+91XXXXXXXXXX,,Mumbai,IN,Seller,Generated
93678a49-87bd-4fed-a378-a26455258804,Owner 2857,+91XXXXXXXXXX,,Delhi,IN,Seller,Generated
58422b8d-b720-4b6f-8fce-6fe3abaf8d34,Owner 5095,+91XXXXXXXXXX,,London,IN,Seller,Generated
c00a234d-de4c-4d60-a33a-dc0a55f70e8b,Owner 1185,+91XXXXXXXXXX,,London,IN,Seller,Generated
8f087827-9ea8-45c6-927b-7db6cb2d89cd,Owner 4758,+91XXXXXXXXXX,,New York,IN,Seller,Generated
b59fd1fa-7787-4211-94b0-280a45d7c78d,Owner 1590,+91XXXXXXXXXX,,Mumbai,IN,Seller,Generated
fe2597fd-2985-455a-9ec7-27720a01b917,Owner 9745,+91XXXXXXXXXX,,Mumbai,IN,Seller,Generated
1b786579-ae9b-423f-ada4-e74666e2d42f,Owner 3840,+91XXXXXXXXXX,,London,IN,Seller,Generated
f098e897-9790-43aa-af63-e1d8153e8835,Owner 8149,+91XXXXXXXXXX,,Delhi,IN,Seller,Generated
b4fa5d7a-baab-4b27-be31-b3701bfe9cf9,Owner 6013,+91XXXXXXXXXX,,Mumbai,IN,Seller,Generated
ddb1c47a-6e37-4f71-a9e5-a7f0cebebd0d,Owner 7645,+91XXXXXXXXXX,,Delhi,IN,Seller,Generated
98aae09d-c0a1-4d27-8a3f-32a9390ad16c,Owner 6556,+91XXXXXXXXXX,,Mumbai,IN,Seller,Generated
9df73ffe-c396-42d1-af3a-12f4408e0638,Owner 9870,+91XXXXXXXXXX,,London,IN,Seller,Generated
34d164a5-e0b1-4e86-9e90-1ffb165eb05e,Owner 3773,+91XXXXXXXXXX,,London,IN,Seller,Generated
eb09b98e-d79a-4a53-802d-fc936abdb1be,Owner 6703,+91XXXXXXXXXX,,Mumbai,IN,Seller,Generated
6a68fe30-5771-43b8-950f-4b09b79ed1a0,Owner 517,+91XXXXXXXXXX,,Mumbai,IN,Seller,Generated
7fc62981-818b-441c-87fc-ccf0c9e51ac5,Owner 1145,+91XXXXXXXXXX,,Mumbai,IN,Seller,Generated
fffe6d13-6695-43aa-82c1-e1c566186be2,Owner 7273,+91XXXXXXXXXX,,Delhi,IN,Seller,Generated
96f625fd-7ccd-4563-b710-a8567e560266,Owner 6583,+91XXXXXXXXXX,,New York,IN,Seller,Generated
2c7d9eb1-cce2-4414-9f5a-093c07f4eede,Owner 2391,+91XXXXXXXXXX,,Mumbai,IN,Seller,Generated
3548d335-b451-4282-be28-622202224c04,Owner 636,+91XXXXXXXXXX,,London,IN,Seller,Generated
6be05bcf-4ae1-4c6b-9e89-f1dcaf89282d,Owner 7892,+91XXXXXXXXXX,,Mumbai,IN,Seller,Generated
67ec7e1a-31c9-485e-accc-c6add32ee6a8,Owner 9509,+91XXXXXXXXXX,,London,IN,Seller,Generated
7d1737ed-c257-45cb-bc07-df3923408622,Owner 8058,+91XXXXXXXXXX,,London,IN,Seller,Generated
56fbb7f9-aff0-4ee4-9b92-479f476aafc0,Owner 5559,+91XXXXXXXXXX,,Mumbai,IN,Seller,Generated
ad816b1c-bf78-4022-b1a8-2ceb572908a9,Owner 8965,+91XXXXXXXXXX,,New York,IN,Seller,Generated
c035c6d6-5070-47f3-bc1e-059ca0f01611,Owner 9958,+91XXXXXXXXXX,,London,IN,Seller,Generated
1e2695c5-3142-4084-b55e-8377aabcc5b3,Owner 6769,+91XXXXXXXXXX,,Delhi,IN,Seller,Generated
c9e245de-0bc2-4fc8-812d-76c3c205d0f6,Owner 4614,+91XXXXXXXXXX,,New York,IN,Seller,Generated
15c8f77b-65b0-480f-a54e-6452d9baf60e,Owner 1900,+91XXXXXXXXXX,,New York,IN,Seller,Generated
dff53841-dddd-4f77-a1d9-d46bafe24507,Owner 2113,+91XXXXXXXXXX,,London,IN,Seller,Generated
fc7c6534-9211-4476-aacb-41b35cf5cfed,Owner 7689,+91XXXXXXXXXX,,London,IN,Seller,Generated
4f5db03c-7605-487e-bf49-4819138edc44,Owner 4763,+91XXXXXXXXXX,,London,IN,Seller,Generated
38686cb9-9849-4d0a-94d3-1c96001e92d5,Owner 5411,+91XXXXXXXXXX,,Mumbai,IN,Seller,Generated
a4091992-79fb-4571-804e-e5bd324e0beb,Owner 522,+91XXXXXXXXXX,,New York,IN,Seller,Generated
d9fdcff0-b575-4e55-94f7-827605703f43,Owner 3956,+91XXXXXXXXXX,,New York,IN,Seller,Generated
3aa528d4-db56-4c30-9c1e-d62d806b8aae,Owner 2940,+91XXXXXXXXXX,,Delhi,IN,Seller,Generated
78b0553f-48ec-4b2e-8546-7323844ca222,Owner 7788,+91XXXXXXXXXX,,Delhi,IN,Seller,Generated
8029b763-ea1e-4e10-ab7a-1a31db8ee8e9,Owner 2985,+91XXXXXXXXXX,,New York,IN,Seller,Generated
cba26627-4cb1-4d23-9743-86835541cbe5,Owner 7851,+91XXXXXXXXXX,,Delhi,IN,Seller,Generated
aef1050b-46f6-448e-85e8-a7ddc93e5e95,Owner 5044,+91XXXXXXXXXX,,New York,IN,Seller,Generated
85a5014e-ffcf-444e-92ec-db792d0b3e5a,Owner 5628,+91XXXXXXXXXX,,Mumbai,IN,Seller,Generated
f74eb9dd-4c9f-499f-83d7-905d999f1d5d,Owner 5483,+91XXXXXXXXXX,,London,IN,Seller,Generated
f9dc7e72-8013-43f1-929f-db53ce711e22,Owner 8974,+91XXXXXXXXXX,,New York,IN,Seller,Generated
355add43-9221-425e-920a-f0a6089a7dfa,Owner 6825,+91XXXXXXXXXX,,Mumbai,IN,Seller,Generated
e7d97ff8-012e-4665-a015-7e3adb87116e,Owner 7991,+91XXXXXXXXXX,,Mumbai,IN,Seller,Generated
e03a9503-2c5c-481c-9ef2-2ad67de522d5,Owner 383,+91XXXXXXXXXX,,Mumbai,IN,Seller,Generated
9be3ae69-0727-435a-871f-a65f0352fd33,Owner 9995,+91XXXXXXXXXX,,Delhi,IN,Seller,Generated
53b235da-455d-45b0-a3cd-a928e9271a5a,Owner 2349,+91XXXXXXXXXX,,Delhi,IN,Seller,Generated
f60ec84e-7078-4f70-845a-77549397a39a,Owner 7336,+91XXXXXXXXXX,,Mumbai,IN,Seller,Generated
83d75dd8-b6c7-46fa-a396-b38c5cb6480f,Owner 6164,+91XXXXXXXXXX,,Mumbai,IN,Seller,Generated
b9dfbcc8-1779-4455-94e1-a94b19b02c56,Owner 5989,+91XXXXXXXXXX,,Delhi,IN,Seller,Generated
4f6de808-e1f1-4212-a8c0-dd556ecfc859,Owner 5633,+91XXXXXXXXXX,,Delhi,IN,Seller,Generated
7f6cb31b-9d6d-42fc-9efb-a35057d93d3a,Owner 9061,+91XXXXXXXXXX,,Mumbai,IN,Seller,Generated
cbbe4675-2f0e-4552-bd72-772151b648ea,Owner 8738,+91XXXXXXXXXX,,Mumbai,IN,Seller,Generated
3d4ba5f8-86d6-4723-8cbf-811b530cfda4,Owner 9641,+91XXXXXXXXXX,,Mumbai,IN,Seller,Generated
7fe82b9d-26be-4b84-8c15-80ebae68a4cf,Owner 1740,+91XXXXXXXXXX,,Mumbai,IN,Seller,Generated
972a1161-382a-4724-ae33-bf7c771530ce,Owner 7580,+91XXXXXXXXXX,,Mumbai,IN,Seller,Generated
4d5361a0-8ae0-42e6-b42d-5dac784a8bb8,Owner 8504,+91XXXXXXXXXX,,Mumbai,IN,Seller,Generated
a240f0d4-3d74-4755-a3b0-33aa187be70e,Owner 1235,+91XXXXXXXXXX,,Delhi,IN,Seller,Generated
e1a27453-40b7-441e-b605-329a6e6762cb,Owner 2974,+91XXXXXXXXXX,,Mumbai,IN,Seller,Generated
d829d61f-3b0c-4070-aa9f-211e0ce65684,Owner 4577,+91XXXXXXXXXX,,New York,IN,Seller,Generated
ee80c336-f60a-4277-8be2-815fa103a83e,Owner 2042,+91XXXXXXXXXX,,Delhi,IN,Seller,Generated
f94eb2d4-3a81-4b18-8aa6-8ad181dda382,Owner 624,+91XXXXXXXXXX,,London,IN,Seller,Generated
7de40967-0811-425c-8e74-01a5d6a188d1,Owner 5090,+91XXXXXXXXXX,,Delhi,IN,Seller,Generated
2a136520-9b65-434a-8ff7-75d02a0a5c04,Owner 4261,+91XXXXXXXXXX,,Mumbai,IN,Seller,Generated
fef97f6b-d12b-4dc1-9d59-c116c6c31393,Owner 5451,+91XXXXXXXXXX,,New York,IN,Seller,Generated
3cb1e18d-ca0b-46eb-9f55-febdca081720,Owner 7097,+91XXXXXXXXXX,,London,IN,Seller,Generated
52f1fb69-6e2a-44c2-ad1f-322dff58143d,Owner 4207,+91XXXXXXXXXX,,Delhi,IN,Seller,Generated
dac48bf8-c33f-4c22-bbfe-99ae1b747f24,Owner 1682,+91XXXXXXXXXX,,Delhi,IN,Seller,Generated
76e5c32a-f05c-4411-bfa8-990ae896e5e6,Owner 3459,+91XXXXXXXXXX,,New York,IN,Seller,Generated
aa137ce0-93ac-4690-a91a-ccdb28dadfe7,Owner 8559,+91XXXXXXXXXX,,New York,IN,Seller,Generated
40a05a0b-a761-42aa-9ebb-a125489cf7d9,Owner 4610,+91XXXXXXXXXX,,Mumbai,IN,Seller,Generated
dc92d0c7-32bc-4d55-b4d8-769bd751aeac,Owner 9342,+91XXXXXXXXXX,,Mumbai,IN,Seller,Generated
97e199ad-1b38-484f-909f-949c97a17fe9,Owner 2448,+91XXXXXXXXXX,,Mumbai,IN,Seller,Generated
4d0ddfd3-46d8-4f6e-afc1-059f06954952,Owner 4845,+91XXXXXXXXXX,,New York,IN,Seller,Generated
0ffc1a63-6b63-47db-ba4d-7f437efdc883,Owner 7378,+91XXXXXXXXXX,,London,IN,Seller,Generated
425f1812-2237-4461-b555-3b498f0de90d,Owner 8135,+91XXXXXXXXXX,,London,IN,Seller,Generated
2ced5a96-f9c6-4c44-8f7e-89312e6d1106,Owner 6042,+91XXXXXXXXXX,,London,IN,Seller,Generated
8d42e08d-7c35-4eca-b2b1-f5e432c5d1a7,Owner 4947,+91XXXXXXXXXX,,London,IN,Seller,Generated
bf17de62-b3d5-4d7d-9da3-395ad31d3aec,Owner 8836,+91XXXXXXXXXX,,London,IN,Seller,Generated
2a0e07c2-b896-4fd9-af5b-f7c4c562b032,Owner 6922,+91XXXXXXXXXX,,Mumbai,IN,Seller,Generated
810da2ca-8f84-4cbe-8d82-e5f241e7e968,Owner 3386,+91XXXXXXXXXX,,New York,IN,Seller,Generated
0acc08fb-7288-4e8d-a62d-d95ad06110ce,Owner 4612,+91XXXXXXXXXX,,Mumbai,IN,Seller,Generated
43c7dcce-17fd-4db4-afe8-eb4f24a40ad3,Owner 8724,+91XXXXXXXXXX,,Mumbai,IN,Seller,Generated
7cb407c3-ede7-47cf-8702-6f1f56832bae,Owner 7838,+91XXXXXXXXXX,,Mumbai,IN,Seller,Generated
dba6e0fa-6b86-49b8-b88b-e9c3cfd1ba32,Owner 3694,+91XXXXXXXXXX,,Mumbai,IN,Seller,Generated
74945ba9-eed5-4585-bb98-8800dabe292f,Owner 6981,+91XXXXXXXXXX,,Delhi,IN,Seller,Generated
a51d5d5d-9b77-47fb-9e76-87daa12f2109,Owner 5663,+91XXXXXXXXXX,,Delhi,IN,Seller,Generated
69aa2d18-93f2-450c-89d4-847b0d4a704d,Owner 4745,+91XXXXXXXXXX,,Delhi,IN,Seller,Generated
2aff29cc-b357-4440-8ce5-7514acb7faa6,Owner 8579,+91XXXXXXXXXX,,Delhi,IN,Seller,Generated
502536dc-471d-47b5-ba92-5ec033a380ed,Owner 842,+91XXXXXXXXXX,,London,IN,Seller,Generated
f75df3fd-7478-4bdd-93c7-57efef563cc1,Owner 4486,+91XXXXXXXXXX,,New York,IN,Seller,Generated
1dcd2dbb-6bd3-429e-ad24-a132b7941eb4,Owner 7647,+91XXXXXXXXXX,,Mumbai,IN,Seller,Generated
a9066772-52be-4316-8976-8b98f3812656,Owner 7391,+91XXXXXXXXXX,,London,IN,Seller,Generated
7fdf3541-68bb-44f0-8b73-d100350e32b5,Owner 1055,+91XXXXXXXXXX,,New York,IN,Seller,Generated
41aea5c8-258d-4603-9c22-12d176d968c5,Owner 4537,+91XXXXXXXXXX,,London,IN,Seller,Generated
d765aae7-ee1f-4a7f-8eb7-189579af075d,Owner 873,+91XXXXXXXXXX,,Delhi,IN,Seller,Generated
f7867e01-0e3e-43ba-b004-de45f36c1e68,Owner 7145,+91XXXXXXXXXX,,London,IN,Seller,Generated
668f1eae-55d2-4501-b555-62389b4989d6,Owner 8175,+91XXXXXXXXXX,,Delhi,IN,Seller,Generated
d7bca7e5-9023-49a0-9704-a9956581f5f7,Owner 8759,+91XXXXXXXXXX,,New York,IN,Seller,Generated
ef001532-3eb8-47ec-ba19-265e9c890b50,Owner 7450,+91XXXXXXXXXX,,New York,IN,Seller,Generated
679e965a-dd9b-4f20-826b-492ba71d279f,Owner 9799,+91XXXXXXXXXX,,Delhi,IN,Seller,Generated
bc5e9778-264f-4b87-8fe9-8259e579f57d,Owner 35,+91XXXXXXXXXX,,London,IN,Seller,Generated
cb889148-4988-4274-9e85-26de9406f6e1,Owner 5662,+91XXXXXXXXXX,,Delhi,IN,Seller,Generated
a019d1cd-2abf-468f-93a6-aa7c2ea18791,Owner 481,+91XXXXXXXXXX,,London,IN,Seller,Generated
9df35456-ab2c-41b9-a7ea-b4721f2f11af,Owner 6341,+91XXXXXXXXXX,,London,IN,Seller,Generated
b63b27a2-2c5a-4bcf-b23c-025a8b809fd1,Owner 548,+91XXXXXXXXXX,,New York,IN,Seller,Generated
a491ce51-668e-4ac3-bd20-2584c68fce2c,Owner 1795,+91XXXXXXXXXX,,London,IN,Seller,Generated
b20d63fc-ac3b-48a3-81d6-b025871ec5b2,Owner 9934,+91XXXXXXXXXX,,Mumbai,IN,Seller,Generated
8d90554a-5723-4705-aacb-7e9c03a49f36,Owner 9274,+91XXXXXXXXXX,,Delhi,IN,Seller,Generated
939b4bf2-400d-4869-9d35-b0d2aeb10a4f,Owner 5226,+91XXXXXXXXXX,,New York,IN,Seller,Generated
2fc9da67-fc71-43af-b9c6-e13fe97c07e0,Owner 2159,+91XXXXXXXXXX,,New York,IN,Seller,Generated
31bd9c3f-a3b4-406f-8819-8e5d740e360d,Owner 9629,+91XXXXXXXXXX,,Mumbai,IN,Seller,Generated
615355bc-10d8-403d-a9ec-ee5f0ba273d6,Owner 3904,+91XXXXXXXXXX,,London,IN,Seller,Generated
f2ec4766-f412-4df6-9c19-e6718169dd2a,Owner 6236,+91XXXXXXXXXX,,Delhi,IN,Seller,Generated
345bcbbb-1093-417d-9bca-69534c4ca4a6,Owner 9626,+91XXXXXXXXXX,,Delhi,IN,Seller,Generated
8afff783-c87e-439a-b58e-d13368e23d48,Owner 325,+91XXXXXXXXXX,,London,IN,Seller,Generated
347acc7a-59b1-4bf7-b945-d5fbe5eaef30,Owner 4556,+91XXXXXXXXXX,,London,IN,Seller,Generated
94db97db-4c9e-4e30-8e63-fc6cd68a0c9a,Owner 8980,+91XXXXXXXXXX,,Delhi,IN,Seller,Generated
7ccfb18f-de2f-45f5-84fc-7ff0d0226e7b,Owner 9779,+91XXXXXXXXXX,,Delhi,IN,Seller,Generated
42a036c8-6ccf-4541-9438-77c02791973e,Owner 6233,+91XXXXXXXXXX,,New York,IN,Seller,Generated
60b6ae4d-089b-4acc-b731-11a166656c3a,Owner 9713,+91XXXXXXXXXX,,New York,IN,Seller,Generated
4455cf05-489c-4588-b2cd-807286fc9024,Owner 1417,+91XXXXXXXXXX,,London,IN,Seller,Generated
0791cfba-6edf-4c29-8fdf-59874379754a,Owner 1397,+91XXXXXXXXXX,,London,IN,Seller,Generated
6b7d7f5d-3a3c-4bae-b9c9-8bbdbdaf2651,Owner 6858,+91XXXXXXXXXX,,London,IN,Seller,Generated
fab464cc-5f05-4f5e-8072-123ecdd7e916,Owner 246,+91XXXXXXXXXX,,New York,IN,Seller,Generated
8eaa2bc6-4ee1-470f-8008-aa8238468271,Owner 5884,+91XXXXXXXXXX,,Mumbai,IN,Seller,Generated
db9fc259-77de-45d6-9c03-f5aa42d80fad,Owner 8767,+91XXXXXXXXXX,,New York,IN,Seller,Generated
dcc72b7d-5a2b-49a2-b440-3b95a610a58e,Owner 2579,+91XXXXXXXXXX,,London,IN,Seller,Generated
31115b12-04c7-42ea-bc5f-02f01f508820,Owner 9970,+91XXXXXXXXXX,,London,IN,Seller,Generated
0393d35a-15c4-48ae-985f-ff7f1b7e00e6,Owner 2768,+91XXXXXXXXXX,,New York,IN,Seller,Generated
22e8dcdd-b994-49e4-b7f8-8d5f60a4ff3e,Owner 3776,+91XXXXXXXXXX,,Mumbai,IN,Seller,Generated
95831089-ecd6-41e5-8d17-ea883aa82c67,Owner 6504,+91XXXXXXXXXX,,Delhi,IN,Seller,Generated
1255e1e9-d637-49c2-ad38-8527c05905cf,Owner 8972,+91XXXXXXXXXX,,London,IN,Seller,Generated
e7661b22-0d97-472e-a4ee-d7ab205e3f53,Owner 7804,+91XXXXXXXXXX,,New York,IN,Seller,Generated
f21c82bf-e28e-406e-aa10-98b837965d8a,Owner 158,+91XXXXXXXXXX,,Delhi,IN,Seller,Generated
81ca785a-22b7-4762-aed7-2fe6ce57bd32,Owner 2194,+91XXXXXXXXXX,,Mumbai,IN,Seller,Generated
8473fbf4-ea15-4b9c-b49a-0234e3b20c53,Owner 3316,+91XXXXXXXXXX,,Mumbai,IN,Seller,Generated
c9aa6927-fc53-472c-9beb-4e7c2794c73e,Owner 8906,+91XXXXXXXXXX,,Mumbai,IN,Seller,Generated
ddf3d3b8-17ee-497a-9f32-116d79b048f1,Owner 9102,+91XXXXXXXXXX,,Mumbai,IN,Seller,Generated
5915b8fc-e00b-4937-a08b-883da3dd079f,Owner 8012,+91XXXXXXXXXX,,New York,IN,Seller,Generated
56f63dac-897d-493f-8372-5c987badc7e1,Owner 9237,+91XXXXXXXXXX,,Mumbai,IN,Seller,Generated
94c1c5c7-baa2-4de8-a659-cb580f6302ef,Owner 7578,+91XXXXXXXXXX,,London,IN,Seller,Generated
a66bdbec-6cb7-4013-aa3d-c6bbda1ff861,Owner 3676,+91XXXXXXXXXX,,London,IN,Seller,Generated
2f69edec-b99c-4e15-be0b-c857a1843408,Owner 8843,+91XXXXXXXXXX,,New York,IN,Seller,Generated
cf2f0c26-1c6c-41ba-925c-e5da979c83e1,Owner 2153,+91XXXXXXXXXX,,Mumbai,IN,Seller,Generated
b9208678-f299-438b-a4bb-f003f1b58308,Owner 1243,+91XXXXXXXXXX,,Mumbai,IN,Seller,Generated
d1f75a3a-f6ca-43ab-947c-9abad101253b,Owner 383,+91XXXXXXXXXX,,New York,IN,Seller,Generated
57dca2c9-cb20-447a-8e54-39336588ca3d,Owner 3146,+91XXXXXXXXXX,,Delhi,IN,Seller,Generated
8af31d17-836c-4644-aae0-91f01c376106,Owner 3385,+91XXXXXXXXXX,,London,IN,Seller,Generated
46119db8-33a7-46ba-9740-7848b76454fd,Owner 3578,+91XXXXXXXXXX,,New York,IN,Seller,Generated
cb7a691a-1ace-41e8-84dc-5df1cce16904,Owner 7368,+91XXXXXXXXXX,,Delhi,IN,Seller,Generated
52962455-9614-4c10-b106-fd95e2900790,Owner 1521,+91XXXXXXXXXX,,Delhi,IN,Seller,Generated
096bdb4f-aab2-4645-a75f-c424fc0e7cc8,Owner 7523,+91XXXXXXXXXX,,Delhi,IN,Seller,Generated
505ea977-5853-4ba7-abd2-b899a1dfa9b7,Owner 6768,+91XXXXXXXXXX,,Delhi,IN,Seller,Generated
25c0fd85-a833-4b4a-9a11-abe23966cc41,Owner 7402,+91XXXXXXXXXX,,New York,IN,Seller,Generated
74645f72-e13d-45f8-972f-60ac5602da92,Owner 6767,+91XXXXXXXXXX,,Mumbai,IN,Seller,Generated
3290e536-edec-497f-9581-9e4ee60133cf,Owner 5238,+91XXXXXXXXXX,,Mumbai,IN,Seller,Generated
0da2e6d9-aee2-46b5-9b39-64cb60752f09,Owner 6591,+91XXXXXXXXXX,,New York,IN,Seller,Generated
6b9dca0e-dfef-4cfa-a59b-147b9a5066a9,Owner 6711,+91XXXXXXXXXX,,Mumbai,IN,Seller,Generated
942c1cfd-2f15-4275-acfd-d4ee8b48b55b,Owner 3280,+91XXXXXXXXXX,,Mumbai,IN,Seller,Generated
ee20e667-a93b-497b-89f1-b20cdd46ceaf,Owner 7183,+91XXXXXXXXXX,,London,IN,Seller,Generated
52952765-3d90-4c59-80e9-d90b8d01b8f5,Owner 4952,+91XXXXXXXXXX,,Mumbai,IN,Seller,Generated
a84729c1-22be-4702-bf44-9bf58fd88a08,Owner 2595,+91XXXXXXXXXX,,Mumbai,IN,Seller,Generated
3a63f6fa-993a-4b83-824e-7631962558f4,Owner 1676,+91XXXXXXXXXX,,New York,IN,Seller,Generated
e58e4ed6-9762-474a-b72e-15e47899db34,Owner 136,+91XXXXXXXXXX,,Mumbai,IN,Seller,Generated
a092b4f5-2b9e-4d90-8520-a443548701db,Owner 827,+91XXXXXXXXXX,,Delhi,IN,Seller,Generated
f3c16502-2eca-42f7-b94e-cbcf17dfa353,Owner 6610,+91XXXXXXXXXX,,New York,IN,Seller,Generated
0782c870-435b-4faa-864a-392a18319b9b,Owner 7317,+91XXXXXXXXXX,,New York,IN,Seller,Generated
4f87b444-6050-4899-8dbd-86d999e8ca37,Owner 864,+91XXXXXXXXXX,,Delhi,IN,Seller,Generated
7f6c585b-95d4-412f-8e3c-f37eb609de0a,Owner 7644,+91XXXXXXXXXX,,Delhi,IN,Seller,Generated
7d358490-07a0-4642-b2d7-acf72af784f8,Owner 9484,+91XXXXXXXXXX,,London,IN,Seller,Generated
1bfed38c-ed10-4cdc-af17-551c4f7ae28a,Owner 9804,+91XXXXXXXXXX,,London,IN,Seller,Generated
b7409388-c3eb-485f-bc3b-af9691c335ca,Owner 8982,+91XXXXXXXXXX,,Delhi,IN,Seller,Generated
3160186f-6714-4d2f-96eb-8c64c8da8cb0,Owner 1916,+91XXXXXXXXXX,,London,IN,Seller,Generated
ac41df37-b6d3-438a-a5af-a89a044f8739,Owner 6038,+91XXXXXXXXXX,,New York,IN,Seller,Generated
14e31c46-1327-40b3-a046-2902dcb36df9,Owner 8974,+91XXXXXXXXXX,,London,IN,Seller,Generated
72ca8a2c-7bc3-4f91-80e3-d606046d5ae6,Owner 9879,+91XXXXXXXXXX,,Delhi,IN,Seller,Generated
1c7bd88a-1a73-4c11-928e-5e335940029c,Owner 9759,+91XXXXXXXXXX,,Delhi,IN,Seller,Generated
25ffd2b9-ba8d-45f3-aec4-c377f6369dd8,Owner 5131,+91XXXXXXXXXX,,London,IN,Seller,Generated
9a884780-f659-4d2c-848b-0c3de6acdb9a,Owner 9968,+91XXXXXXXXXX,,New York,IN,Seller,Generated
98e5ec88-03c4-419f-be15-1de43b1504b7,Owner 3998,+91XXXXXXXXXX,,Mumbai,IN,Seller,Generated
a423106b-13e4-4a6e-821f-6b5339f52924,Owner 4102,+91XXXXXXXXXX,,London,IN,Seller,Generated
d42487da-4ea8-489b-bb2b-96d4bbd5410d,Owner 8130,+91XXXXXXXXXX,,Delhi,IN,Seller,Generated
53c2f4b2-573d-4ca0-a260-db2b7cd58bdf,Owner 446,+91XXXXXXXXXX,,Mumbai,IN,Seller,Generated
fd5c5ed1-be95-4a2c-b995-c2a394766d02,Owner 6237,+91XXXXXXXXXX,,New York,IN,Seller,Generated
f8971f76-e387-492c-9e83-8b887d27bc84,Owner 9327,+91XXXXXXXXXX,,Delhi,IN,Seller,Generated
6705f55a-7abc-4085-a241-e7d085e11102,Owner 7114,+91XXXXXXXXXX,,New York,IN,Seller,Generated
fca49db0-84e0-43c9-9618-6e28c46b061a,Owner 6896,+91XXXXXXXXXX,,Delhi,IN,Seller,Generated
0707e3d7-5c64-423f-9383-1dd1f2d61370,Owner 7637,+91XXXXXXXXXX,,Delhi,IN,Seller,Generated
71717659-f5f6-470e-9fca-48e5ce88de88,Owner 3536,+91XXXXXXXXXX,,New York,IN,Seller,Generated
61e9f577-9f22-4925-a0a8-771195ba52b6,Owner 9112,+91XXXXXXXXXX,,Mumbai,IN,Seller,Generated
d10b54dd-199d-4cc9-98b7-bd1e0ddc429b,Owner 1592,+91XXXXXXXXXX,,Delhi,IN,Seller,Generated
c7f470d8-bd36-43b3-a376-533c2c32d46e,Owner 5111,+91XXXXXXXXXX,,New York,IN,Seller,Generated
c1e7dfcb-f310-4c93-934a-968f3219197f,Owner 6868,+91XXXXXXXXXX,,London,IN,Seller,Generated
b8966858-f28c-4cea-a3a3-672f51cb94a9,Owner 4585,+91XXXXXXXXXX,,New York,IN,Seller,Generated
e66d3c32-b71b-478d-990b-1f5791feda7e,Owner 3895,+91XXXXXXXXXX,,London,IN,Seller,Generated
7cfcdd15-4915-46ed-82e0-042502a1e102,Owner 5715,+91XXXXXXXXXX,,Mumbai,IN,Seller,Generated
1cb25553-ae4b-4ea1-b8e4-d01defda00b8,Owner 3453,+91XXXXXXXXXX,,New York,IN,Seller,Generated
80fd3f34-a63c-4f2d-8f6d-d2ae4905cf21,Owner 264,+91XXXXXXXXXX,,London,IN,Seller,Generated
26bdaafc-81f6-4bf3-bd47-276f9d572cac,Owner 6757,+91XXXXXXXXXX,,New York,IN,Seller,Generated
f561612d-50f5-4dd0-92a1-43b7a0fcd7c6,Owner 6402,+91XXXXXXXXXX,,London,IN,Seller,Generated
fa9e7aa5-b06d-4bd3-8b66-96aeb0ec5946,Owner 491,+91XXXXXXXXXX,,New York,IN,Seller,Generated
71aff3be-a72b-451c-ad86-fb24426a2f85,Owner 7850,+91XXXXXXXXXX,,London,IN,Seller,Generated
db7da0ed-518e-459d-ae9d-251b7e975b0a,Owner 2144,+91XXXXXXXXXX,,Delhi,IN,Seller,Generated
e4063c1d-0d60-4fa7-a011-81d9b8aeb852,Owner 3938,+91XXXXXXXXXX,,Delhi,IN,Seller,Generated
cf82ba0c-abcb-4856-826a-271489766e67,Owner 7179,+91XXXXXXXXXX,,London,IN,Seller,Generated
7a94a6ee-8257-4d1c-8ea0-b945150d451d,Owner 589,+91XXXXXXXXXX,,Delhi,IN,Seller,Generated
17c2fd3e-f6a3-44b9-946e-afa1784db087,Owner 2841,+91XXXXXXXXXX,,London,IN,Seller,Generated
b89b89b8-b36f-4ec0-913b-237aaac7d8cf,Owner 2962,+91XXXXXXXXXX,,London,IN,Seller,Generated
09b4f2d2-f8c9-4e46-93e7-771e82e65f3a,Owner 7148,+91XXXXXXXXXX,,Delhi,IN,Seller,Generated
22973480-7763-4f72-a01a-967a0176f714,Owner 3012,+91XXXXXXXXXX,,Delhi,IN,Seller,Generated
9f148810-4304-4b3d-9d4a-26be2acc7abc,Owner 502,+91XXXXXXXXXX,,Delhi,IN,Seller,Generated
afcbb14c-b9c1-4af7-9340-1ee1a69830fa,Owner 1500,+91XXXXXXXXXX,,New York,IN,Seller,Generated
7bc798d4-a369-4912-ae2e-211bc4863458,Owner 4019,+91XXXXXXXXXX,,London,IN,Seller,Generated
7e84c13f-caa0-4241-887a-78137dc3559c,Owner 9149,+91XXXXXXXXXX,,London,IN,Seller,Generated
21eca7c2-9e16-43b9-8910-cafde2c723b1,Owner 9250,+91XXXXXXXXXX,,Delhi,IN,Seller,Generated
3c68ee23-8fde-4314-9984-71a53c16cafd,Owner 7259,+91XXXXXXXXXX,,New York,IN,Seller,Generated
bfb7e5c4-9f0e-45a6-b326-11dca2f584cc,Owner 698,+91XXXXXXXXXX,,Delhi,IN,Seller,Generated
cd16f00a-d1cd-4ec0-8e8c-13db2b73b5e0,Owner 9575,+91XXXXXXXXXX,,Mumbai,IN,Seller,Generated
239365e0-4cce-415c-b74b-025741eccc32,Owner 4652,+91XXXXXXXXXX,,Mumbai,IN,Seller,Generated
32b03cc0-6268-4de6-8069-f61a3b1245a4,Owner 5464,+91XXXXXXXXXX,,London,IN,Seller,Generated
6105a048-65c4-4d86-a9f9-f2b48f3ad535,Owner 7974,+91XXXXXXXXXX,,Mumbai,IN,Seller,Generated
89662cce-c713-4c4a-baaf-c2260a686a91,Owner 9829,+91XXXXXXXXXX,,Delhi,IN,Seller,Generated
42901518-e42e-41e9-9d23-8a9b58ab0282,Owner 2346,+91XXXXXXXXXX,,Delhi,IN,Seller,Generated
734eba82-0331-4e4d-bfbc-f7e8d19648f0,Owner 7683,+91XXXXXXXXXX,,Mumbai,IN,Seller,Generated
59f89d5e-731d-4063-b99c-ca14905d7277,Owner 5538,+91XXXXXXXXXX,,London,IN,Seller,Generated
b91a08f1-c5ae-40e5-9ff5-92c67f294697,Owner 300,+91XXXXXXXXXX,,London,IN,Seller,Generated
82021a04-0ecf-4fe6-bfd0-3989c14ba1d1,Owner 4919,+91XXXXXXXXXX,,Mumbai,IN,Seller,Generated
0e57985c-b9c1-4947-9239-e18a4a6d97eb,Owner 3470,+91XXXXXXXXXX,,London,IN,Seller,Generated
733fbc87-9005-4c62-bc4d-cb2dd4b48b81,Owner 1953,+91XXXXXXXXXX,,London,IN,Seller,Generated
c322e3cb-469d-4918-8397-01f53fafb6ca,Owner 4582,+91XXXXXXXXXX,,Mumbai,IN,Seller,Generated
1a7c4cf8-32bf-4eff-9f9c-568ebafe115f,Owner 6943,+91XXXXXXXXXX,,New York,IN,Seller,Generated
c99e8dc8-a0dd-4ec2-95ee-271454662b53,Owner 4499,+91XXXXXXXXXX,,Mumbai,IN,Seller,Generated
f9df2071-45e6-423b-a1dc-55efdb2ecc4d,Owner 1479,+91XXXXXXXXXX,,Mumbai,IN,Seller,Generated
6ca892c4-9c10-4720-a823-e777137d416b,Owner 5837,+91XXXXXXXXXX,,Mumbai,IN,Seller,Generated
201fac42-4abe-4576-b40e-1da2f0287124,Owner 8517,+91XXXXXXXXXX,,New York,IN,Seller,Generated
18d02697-b79d-4de5-8291-e585bfe158c7,Owner 355,+91XXXXXXXXXX,,New York,IN,Seller,Generated
88d7922f-bd1c-447d-9ffb-f7b25512ad14,Owner 4920,+91XXXXXXXXXX,,London,IN,Seller,Generated
e4b2cdc2-285f-48b4-9ed0-2e26608a73b8,Owner 1852,+91XXXXXXXXXX,,Delhi,IN,Seller,Generated
fca5bde2-cc03-426d-b295-362906e68fd8,Owner 3337,+91XXXXXXXXXX,,Delhi,IN,Seller,Generated
2da5ec2d-7ce8-45a9-9e85-5a0a563a7ab0,Owner 7493,+91XXXXXXXXXX,,Delhi,IN,Seller,Generated
c50b2abb-491f-4dce-8ecc-8b2d45c11ca9,Owner 6044,+91XXXXXXXXXX,,Mumbai,IN,Seller,Generated
d1fafc37-ffd7-4d27-a12b-836b40111b65,Owner 5753,+91XXXXXXXXXX,,London,IN,Seller,Generated
3f5712f3-e62f-4c68-ba96-d0a430f34bb5,Owner 1316,+91XXXXXXXXXX,,Delhi,IN,Seller,Generated
87d01ebe-6838-47e7-8f50-13c735a6250b,Owner 9548,+91XXXXXXXXXX,,London,IN,Seller,Generated
d9f3d58c-f93a-46ce-9a32-71e054359fdc,Owner 743,+91XXXXXXXXXX,,New York,IN,Seller,Generated
aaad0cbd-6be8-4d90-bf84-b22d2c8c4915,Owner 6356,+91XXXXXXXXXX,,London,IN,Seller,Generated
d34dffbe-1b73-40b1-a445-ddb80ed241b4,Owner 8406,+91XXXXXXXXXX,,New York,IN,Seller,Generated
a80d9e9c-fd60-4dfe-83fd-ebac8d793cc5,Owner 1082,+91XXXXXXXXXX,,London,IN,Seller,Generated
1af76f27-ef2e-4012-8af9-1e53db7524aa,Owner 1046,+91XXXXXXXXXX,,London,IN,Seller,Generated
a6b01427-01df-456d-867c-d89b6d1c7bb4,Owner 5484,+91XXXXXXXXXX,,London,IN,Seller,Generated
6a8e2801-cd21-432a-862e-181f47223d0e,Owner 9875,+91XXXXXXXXXX,,Delhi,IN,Seller,Generated
26fc01d4-255f-4dc4-affa-5a4a1e11bac5,Owner 6972,+91XXXXXXXXXX,,New York,IN,Seller,Generated
aaee85a4-0273-4512-b991-fcdc51ca3f0c,Owner 8715,+91XXXXXXXXXX,,Delhi,IN,Seller,Generated
6ce3dfef-9f13-47d0-a14b-a2a8cf682424,Owner 115,+91XXXXXXXXXX,,Delhi,IN,Seller,Generated
f5b2e751-b0f5-4262-a387-d9361d4be1a1,Owner 4529,+91XXXXXXXXXX,,Delhi,IN,Seller,Generated
6e317254-ed44-4e11-8c3a-a772ddc3beb4,Owner 9985,+91XXXXXXXXXX,,London,IN,Seller,Generated
528279c9-6b50-4c0e-bcbe-9ef090089c8d,Owner 5485,+91XXXXXXXXXX,,London,IN,Seller,Generated
cad1cb9b-7ca6-4e96-8fd6-4f9e0f23937d,Owner 7986,+91XXXXXXXXXX,,London,IN,Seller,Generated
b7397223-5efb-4652-897c-22da1e0505b1,Owner 2059,+91XXXXXXXXXX,,London,IN,Seller,Generated
470a987c-83f5-41c0-817e-daefcb5abf45,Owner 7301,+91XXXXXXXXXX,,London,IN,Seller,Generated
0d717a81-1798-4f91-9120-170aaf8b31b5,Owner 6682,+91XXXXXXXXXX,,New York,IN,Seller,Generated
dccfb261-5e89-40b7-8eff-a702dd5f8d49,Owner 9728,+91XXXXXXXXXX,,London,IN,Seller,Generated
484730dd-2a19-465f-8f76-adc7cb941521,Owner 2681,+91XXXXXXXXXX,,Delhi,IN,Seller,Generated
e894a4df-4968-43a8-bfaf-97a8c535a558,Owner 5109,+91XXXXXXXXXX,,New York,IN,Seller,Generated
744998cf-3fb8-4635-9410-1628b90d73d0,Owner 7469,+91XXXXXXXXXX,,New York,IN,Seller,Generated
af0e7054-62ad-48f3-9cfe-badb117a3f13,Owner 8988,+91XXXXXXXXXX,,London,IN,Seller,Generated
59bc01fd-cc23-4a3e-b5b5-4d5e5b9059a6,Owner 4468,+91XXXXXXXXXX,,London,IN,Seller,Generated
8b049587-8bd6-47f0-9318-30e29ed4ec77,Owner 1317,+91XXXXXXXXXX,,Delhi,IN,Seller,Generated
3924443c-5007-491b-b062-1a9eceabedf5,Owner 424,+91XXXXXXXXXX,,Mumbai,IN,Seller,Generated
480c3cbf-d43a-431a-84d9-114d333891d9,Owner 2664,+91XXXXXXXXXX,,Delhi,IN,Seller,Generated
442ed949-da54-462d-9454-25f485e89f12,Owner 3968,+91XXXXXXXXXX,,Mumbai,IN,Seller,Generated
0ec114a8-f258-455f-a269-2305ba89284d,Owner 7464,+91XXXXXXXXXX,,Mumbai,IN,Seller,Generated
e7121e99-30cb-4604-8e97-a1a81ed9693f,Owner 5726,+91XXXXXXXXXX,,London,IN,Seller,Generated
2d30d792-381c-4d48-846d-aa4bc0ea8a59,Owner 6783,+91XXXXXXXXXX,,London,IN,Seller,Generated
a65b3553-229c-402b-a812-ab11bf71732b,Owner 2725,+91XXXXXXXXXX,,Mumbai,IN,Seller,Generated
2edd90f3-931a-4332-9f80-2863974624aa,Owner 1786,+91XXXXXXXXXX,,London,IN,Seller,Generated
706cec73-b6e8-4873-ae5d-a0142b71fff8,Owner 4855,+91XXXXXXXXXX,,London,IN,Seller,Generated
b022bc1b-f299-481a-895a-9350a2267627,Owner 3955,+91XXXXXXXXXX,,Delhi,IN,Seller,Generated
7198ea6d-4361-4813-bc74-e93497c74049,Owner 2721,+91XXXXXXXXXX,,London,IN,Seller,Generated
5744606c-278d-4b9c-a0db-815ff9c7249a,Owner 6579,+91XXXXXXXXXX,,Delhi,IN,Seller,Generated
76cbd8c9-0de7-4c48-8133-363a9789d9f9,Owner 8527,+91XXXXXXXXXX,,New York,IN,Seller,Generated
d369dd4a-e500-4765-a3af-9c068332e855,Owner 4581,+91XXXXXXXXXX,,London,IN,Seller,Generated
a0372544-3a8b-44de-af17-270962c72998,Owner 3168,+91XXXXXXXXXX,,Mumbai,IN,Seller,Generated
8b3a56d3-bec6-4cb4-be67-8b2a85724da7,Owner 4749,+91XXXXXXXXXX,,Delhi,IN,Seller,Generated
df235be2-5f18-4098-ac7d-0b01ff632716,Owner 2698,+91XXXXXXXXXX,,Delhi,IN,Seller,Generated
948e06ba-1836-4838-84e1-34c3239383ad,Owner 2005,+91XXXXXXXXXX,,New York,IN,Seller,Generated
4f4004b0-d1fb-4cd8-a684-fecd33d03310,Owner 6930,+91XXXXXXXXXX,,Delhi,IN,Seller,Generated
13e4b143-9178-4fb8-8241-cc4d974c7234,Owner 8670,+91XXXXXXXXXX,,New York,IN,Seller,Generated
c037c119-20ac-4d7a-9b32-46c353667de6,Owner 9619,+91XXXXXXXXXX,,Mumbai,IN,Seller,Generated
044e9656-fa76-4d6e-9955-737602c6fbaa,Owner 7291,+91XXXXXXXXXX,,Mumbai,IN,Seller,Generated
b4b3b556-605a-4700-bbf4-52ef4926e156,Owner 5540,+91XXXXXXXXXX,,Delhi,IN,Seller,Generated
a67d1c94-d935-4b10-b161-d5700c4a0eb3,Owner 8259,+91XXXXXXXXXX,,New York,IN,Seller,Generated
2887faa5-757c-40f3-af8a-ac650dc2d603,Owner 7301,+91XXXXXXXXXX,,Delhi,IN,Seller,Generated
b9aaf6b8-5bd2-4da6-bc46-49375aa8fd4c,Owner 7569,+91XXXXXXXXXX,,New York,IN,Seller,Generated
2c6d8820-d405-4e4d-83cf-ffca48cfcc61,Owner 1765,+91XXXXXXXXXX,,Mumbai,IN,Seller,Generated
ecbe6c04-6941-4a1b-b3e6-09a495cf379e,Owner 9267,+91XXXXXXXXXX,,London,IN,Seller,Generated
2ea2cd82-a968-4ecc-a9d8-92dfe494f4b3,Owner 649,+91XXXXXXXXXX,,Delhi,IN,Seller,Generated
f22e4d6d-6e1a-40b4-b156-132e7e53a7a8,Owner 5138,+91XXXXXXXXXX,,Delhi,IN,Seller,Generated
881428c8-583f-4df9-ab13-b75abe59f6d7,Owner 1181,+91XXXXXXXXXX,,London,IN,Seller,Generated
e398274a-114d-4ac2-a457-4802f99455e8,Owner 2126,+91XXXXXXXXXX,,New York,IN,Seller,Generated
1e4af848-594d-417d-a520-8702b7bea983,Owner 3184,+91XXXXXXXXXX,,Delhi,IN,Seller,Generated
061a2603-63e9-42e2-b7eb-272fef547c6c,Owner 684,+91XXXXXXXXXX,,New York,IN,Seller,Generated
6e235d81-fffe-4f7e-bcbb-fefde67c0882,Owner 5464,+91XXXXXXXXXX,,London,IN,Seller,Generated
58763617-d1d5-4670-97fe-8a02f35c100b,Owner 2242,+91XXXXXXXXXX,,London,IN,Seller,Generated
544008a2-5f1c-4dea-9aee-9e6778b0278b,Owner 9791,+91XXXXXXXXXX,,Mumbai,IN,Seller,Generated
865c934f-02ef-42cf-8c6c-f0cf24c13ff9,Owner 2832,+91XXXXXXXXXX,,Delhi,IN,Seller,Generated
e94c039a-91b3-4840-ab95-e86d6857d147,Owner 9950,+91XXXXXXXXXX,,London,IN,Seller,Generated
