lead_id,name,phone,email,city,country,type,notes
e9c66a36-6d92-41ec-ac80-9dbc79b58daf,Owner 6326,+91XXXXXXXXXX,,Mumbai,IN,Seller,Generated
e28c0a2c-5d59-409c-945f-26c2c6b63606,Owner 1148,+91XXXXXXXXXX,,London,IN,Seller,Generated
7ced8d1a-e647-44d9-b3ef-cb87c72cee2d,Owner 4723,+91XXXXXXXXXX,,Delhi,IN,Seller,Generated
2cb19c48-f0ae-4931-b222-20ed89317588,Owner 8404,+91XXXXXXXXXX,,Delhi,IN,Seller,Generated
433d9250-a6c3-4ca8-b7a6-75a8a643a0e6,Owner 130,+91XXXXXXXXXX,,New York,IN,Seller,Generated
d8c741af-ca8c-40e0-aaa0-3090fcf39c66,Owner 4907,+91XXXXXXXXXX,,New York,IN,Seller,Generated
f1fb6a61-2361-447d-9275-7ce6c12fb415,Owner 1674,+91XXXXXXXXXX,,London,IN,Seller,Generated
40956af9-1d5a-4f1a-a643-3682eb62c858,Owner 4696,+91XXXXXXXXXX,,New York,IN,Seller,Generated
099ec5c9-b1ad-4d0a-9d44-829d581f9677,Owner 9669,+91XXXXXXXXXX,,Mumbai,IN,Seller,Generated
71563069-475b-4971-a38f-e9bf5c6a41a9,Owner 2937,+91XXXXXXXXXX,,New York,IN,Seller,Generated
a7944e54-e702-45e5-8aea-0ff6a9e82759,Owner 9519,+91XXXXXXXXXX,,Delhi,IN,Seller,Generated
707ffecb-2c70-4985-ae96-e39e21525a4e,Owner 1629,+91XXXXXXXXXX,,London,IN,Seller,Generated
c1ad9766-5307-4868-ada4-2223e9edacc2,Owner 624,+91XXXXXXXXXX,,London,IN,Seller,Generated
aa64e1d0-d914-44da-b3bb-5f57a33b3307,Owner 584,+91XXXXXXXXXX,,New York,IN,Seller,Generated
bbdb7c1c-7288-4109-a773-fe73966c2d17,Owner 4283,+91XXXXXXXXXX,,Mumbai,IN,Seller,Generated
083357f9-c47a-429e-8d0a-45e66df0c258,Owner 5734,+91XXXXXXXXXX,,New York,IN,Seller,Generated
315ef0dd-2e72-4b54-99d8-9ccee75c9377,Owner 3567,+91XXXXXXXXXX,,Delhi,IN,Seller,Generated
913b967d-53a7-47a5-8a8e-c67530907eeb,Owner 4434,+91XXXXXXXXXX,,Mumbai,IN,Seller,Generated
4ecbb2f0-9f06-4453-ab28-f0617e5b7f43,Owner 4310,+91XXXXXXXXXX,,London,IN,Seller,Generated
32e9b888-b51c-4ecc-9aad-e726307e24fc,Owner 1721,+91XXXXXXXXXX,,New York,IN,Seller,Generated
1cf2a2d6-80cf-4bfb-96a1-7df4e9cae853,Owner 4070,+91XXXXXXXXXX,,New York,IN,Seller,Generated
8b0f781d-67e9-44f2-ba50-f0a74d7b3320,Owner 5472,+91XXXXXXXXXX,,London,IN,Seller,Generated
b6dc5cc6-fd17-42c2-b3a3-0493d34ff89c,Owner 4484,+91XXXXXXXXXX,,Mumbai,IN,Seller,Generated
313ea10b-9d60-4aa6-84e2-cd31b856b176,Owner 6228,+91XXXXXXXXXX,,London,IN,Seller,Generated
ed9de9ce-061f-45d5-b207-6f20b27384bf,Owner 6229,+91XXXXXXXXXX,,Delhi,IN,Seller,Generated
bc8288ef-0008-4a62-8064-67d64fd12f2c,Owner 9618,+91XXXXXXXXXX,,Delhi,IN,Seller,Generated
cd6b2156-b82a-4d64-9811-e6aadeca326a,Owner 2737,+91XXXXXXXXXX,,Delhi,IN,Seller,Generated
fafd8ed6-6abc-41ae-a970-36964c8762be,Owner 4392,+91XXXXXXXXXX,,New York,IN,Seller,Generated
5eaa8ccd-57be-41cb-90ad-fea68f04e806,Owner 2169,+91XXXXXXXXXX,,New York,IN,Seller,Generated
b159a7ba-cfbf-4ab8-a07d-59d0b197ead0,Owner 5232,+91XXXXXXXXXX,,London,IN,Seller,Generated
a36dcf1b-7600-4b0b-bc41-6d33ef41d905,Owner 2766,+91XXXXXXXXXX,,Mumbai,IN,Seller,Generated
2a20412e-f976-495b-b01b-499e91496396,Owner 4462,+91XXXXXXXXXX,,London,IN,Seller,Generated
a4562d69-c210-4b03-91a6-07a950dca221,Owner 678,+91XXXXXXXXXX,,London,IN,Seller,Generated
9ed0bad6-1690-48fd-b366-fbfe897ef48f,Owner 7180,+91XXXXXXXXXX,,Mumbai,IN,Seller,Generated
303f0653-c2dd-47ac-b6da-03eb1bc63c66,Owner 6846,+91XXXXXXXXXX,,New York,IN,Seller,Generated
915db1ed-105b-47f2-8a2e-7bfb4e9a8ddc,Owner 1636,+91XXXXXXXXXX,,Mumbai,IN,Seller,Generated
dfba6ff1-6f61-4013-b07b-a6668a4f841e,Owner 8166,+91XXXXXXXXXX,,Mumbai,IN,Seller,Generated
14d09953-81c0-4bfe-83c1-a876f0b0edd1,Owner 9646,+91XXXXXXXXXX,,Delhi,IN,Seller,Generated
89ae5e20-550f-49c8-ad27-c03790fa398d,Owner 9,+91XXXXXXXXXX,,Mumbai,IN,Seller,Generated
fd8e610e-557a-4c79-b7b3-4cc5d1ed8c0a,Owner 7910,+91XXXXXXXXXX,,Delhi,IN,Seller,Generated
00b8cc72-bfc7-4702-b8e7-6ff861a166e1,Owner 2252,+91XXXXXXXXXX,,Delhi,IN,Seller,Generated
84f04ee4-b3d3-4be8-b988-c797404cd2f5,Owner 2665,+91XXXXXXXXXX,,New York,IN,Seller,Generated
e86acfac-1ee8-4ba5-a78d-5a0553c4d388,Owner 7257,+91XXXXXXXXXX,,Mumbai,IN,Seller,Generated
0790b1fa-64ce-4031-a522-f61b65d88291,Owner 8447,+91XXXXXXXXXX,,New York,IN,Seller,Generated
9bfbc7fc-6310-42ca-af11-bd9d1c21a378,Owner 2116,+91XXXXXXXXXX,,New York,IN,Seller,Generated
ef86f340-b07f-45c4-ab19-6a278a638208,Owner 1971,+91XXXXXXXXXX,,London,IN,Seller,Generated
39055d23-d79a-483c-8a22-ecfbc07b6462,Owner 2505,+91XXXXXXXXXX,,Mumbai,IN,Seller,Generated
fef1705e-f17f-4cec-869f-f58828a71559,Owner 822,+91XXXXXXXXXX,,Delhi,IN,Seller,Generated
f7e03564-7bca-427b-ada8-87e47ccb198c,Owner 7125,+91XXXXXXXXXX,,London,IN,Seller,Generated
36aa64dd-5685-41f6-a3e1-a7808f3c2c6f,Owner 7800,+91XXXXXXXXXX,,London,IN,Seller,Generated
699a91c4-628e-4d5f-85fc-04f9a94f35a7,Owner 8204,+91XXXXXXXXXX,,New York,IN,Seller,Generated
8801a180-80ec-46c2-96ca-b5d36f0d861a,Owner 6261,+91XXXXXXXXXX,,Mumbai,IN,Seller,Generated
493b2a10-64b4-4852-9be8-3a947a3dbadf,Owner 6762,+91XXXXXXXXXX,,Delhi,IN,Seller,Generated
8cba606a-7d7e-4005-995e-6d3bafadfa4d,Owner 1765,+91XXXXXXXXXX,,New York,IN,Seller,Generated
290bdd45-b76a-4db8-bbaa-7345e037922e,Owner 7304,+91XXXXXXXXXX,,New York,IN,Seller,Generated
9920d54f-2abc-4498-9bc5-04e37324dd8d,Owner 4759,+91XXXXXXXXXX,,London,IN,Seller,Generated
c8d8f383-3044-4d66-a280-325af01de237,Owner 3015,+91XXXXXXXXXX,,New York,IN,Seller,Generated
3a7010fb-5c9e-4b65-990e-8c98045cab8b,Owner 1196,+91XXXXXXXXXX,,New York,IN,Seller,Generated
60d03546-d793-46e3-a5f7-2135f66ce130,Owner 7094,+91XXXXXXXXXX,,Delhi,IN,Seller,Generated
5e33eb7c-08d8-41a1-96ab-1ee48192ef96,Owner 3158,+91XXXXXXXXXX,,Mumbai,IN,Seller,Generated
29484414-2b54-4e63-85f4-41f940179d31,Owner 1062,+91XXXXXXXXXX,,London,IN,Seller,Generated
0aa84281-8a09-402d-8955-687397d8fba4,Owner 1190,+91XXXXXXXXXX,,London,IN,Seller,Generated
998db52e-c1ea-4ac2-90f4-9eb604e34318,Owner 3673,+91XXXXXXXXXX,,New York,IN,Seller,Generated
cd683db1-02df-4c5e-95ae-b58c9567d76e,Owner 7017,+91XXXXXXXXXX,,Delhi,IN,Seller,Generated
8cea3e26-90fa-4027-a961-fc95266a636c,Owner 9327,+91XXXXXXXXXX,,Delhi,IN,Seller,Generated
56f13077-980b-4550-ae72-8e328df98e5a,Owner 4079,+91XXXXXXXXXX,,London,IN,Seller,Generated
5083fd18-7dc3-479e-bc24-c472ef1c6eb2,Owner 2356,+91XXXXXXXXXX,,Mumbai,IN,Seller,Generated
2211ef0c-b47d-4892-bb9e-b871448f1282,Owner 5065,+91XXXXXXXXXX,,London,IN,Seller,Generated
b249ea0b-9dfd-451c-a190-26e332cd9d5d,Owner 9044,+91XXXXXXXXXX,,New York,IN,Seller,Generated
1e13c5de-bb9a-46dd-8b47-b0f334474e4d,Owner 5720,+91XXXXXXXXXX,,London,IN,Seller,Generated
158854de-649d-43af-a788-ab30d0e1d5a2,Owner 6127,+91XXXXXXXXXX,,Delhi,IN,Seller,Generated
44c42a4c-b934-4621-a12d-7b15224d7a82,Owner 9402,+91XXXXXXXXXX,,Delhi,IN,Seller,Generated
eb5385a3-80de-49b0-8984-5e3f1d91cef6,Owner 7873,+91XXXXXXXXXX,,Delhi,IN,Seller,Generated
0793754a-ce7f-4733-9c96-fd834ebd390b,Owner 102,+91XXXXXXXXXX,,London,IN,Seller,Generated
08416e50-c8e9-4da4-98bd-22b33faa5973,Owner 4176,+91XXXXXXXXXX,,Mumbai,IN,Seller,Generated
b9c3e696-eb77-4b15-84b3-efad9bd25cf4,Owner 5023,+91XXXXXXXXXX,,New York,IN,Seller,Generated
97ceb448-85ea-4577-ad05-22f0528625b2,Owner 4014,+91XXXXXXXXXX,,Mumbai,IN,Seller,Generated
d4035158-7eb8-4e66-a0f8-72ee5c024280,Owner 6614,+91XXXXXXXXXX,,New York,IN,Seller,Generated
b43d012c-681d-49af-a4dc-7adb068a2302,Owner 2322,+91XXXXXXXXXX,,Delhi,IN,Seller,Generated
41413137-982e-49ac-b005-96f9d6d5e042,Owner 2808,+91XXXXXXXXXX,,Mumbai,IN,Seller,Generated
6d8a93a1-674c-47a0-81ff-d5bf38c804b1,Owner 91,+91XXXXXXXXXX,,Mumbai,IN,Seller,Generated
3b5f409b-dc13-4cdb-86e7-c22f64309f6a,Owner 7269,+91XXXXXXXXXX,,Delhi,IN,Seller,Generated
ecc1c516-8c60-4938-be51-67b3aff1b630,Owner 9976,+91XXXXXXXXXX,,Mumbai,IN,Seller,Generated
8c2c8278-d9ed-4f21-866c-c93da30dcd37,Owner 3953,+91XXXXXXXXXX,,New York,IN,Seller,Generated
68e41054-1871-4bf9-9fea-215fb3703527,Owner 1486,+91XXXXXXXXXX,,London,IN,Seller,Generated
e5dcabbc-72c8-4304-9a4c-03f23aff8b28,Owner 4852,+91XXXXXXXXXX,,Mumbai,IN,Seller,Generated
ebf38a4f-6630-44ec-8cb1-ea1370c38258,Owner 2789,+91XXXXXXXXXX,,London,IN,Seller,Generated
270f2425-f121-41db-9547-dcab99857605,Owner 5713,+91XXXXXXXXXX,,Mumbai,IN,Seller,Generated
5fbd9a99-6d9c-493b-8793-928eaf5320bb,Owner 6154,+91XXXXXXXXXX,,New York,IN,Seller,Generated
142a4ad3-47c5-4e2a-9c41-33a4cb4f84fb,Owner 9303,+91XXXXXXXXXX,,New York,IN,Seller,Generated
e6d7b103-da7e-4894-bc3a-15f941df99f4,Owner 3516,+91XXXXXXXXXX,,Mumbai,IN,Seller,Generated
b82cf320-f610-42cf-aa2b-2b3a6884a081,Owner 5557,+91XXXXXXXXXX,,Delhi,IN,Seller,Generated
7b100f72-f7e8-4185-95a9-2499ddf771e8,Owner 4224,+91XXXXXXXXXX,,Mumbai,IN,Seller,Generated
c07f0fc6-b30f-4b9f-908c-833391a2088c,Owner 6756,+91XXXXXXXXXX,,Delhi,IN,Seller,Generated
5a97c887-3434-435a-b55b-7489c7140e15,Owner 9329,+91XXXXXXXXXX,,Mumbai,IN,Seller,Generated
9f72f76b-2a95-4c54-8b24-167c3c499c26,Owner 9822,+91XXXXXXXXXX,,Mumbai,IN,Seller,Generated
e982fa7d-c94b-47bb-8f5b-1e5523a58bd0,Owner 9027,+91XXXXXXXXXX,,Mumbai,IN,Seller,Generated
ec6afa9c-c614-43fe-97af-8b5f7fcb8be6,Owner 4902,+91XXXXXXXXXX,,Mumbai,IN,Seller,Generated
033ce53a-56a8-4650-91cc-a0ea6a88b2cc,Owner 5684,+91XXXXXXXXXX,,New York,IN,Seller,Generated
dd652285-2c81-4e19-9238-1617c0c694ea,Owner 2263,+91XXXXXXXXXX,,Delhi,IN,Seller,Generated
821ea1ea-6496-4818-9dcd-f1879b6465b4,Owner 7519,+91XXXXXXXXXX,,New York,IN,Seller,Generated
e34353e3-a3e8-497b-8ffe-2acc0cd92387,Owner 5819,+91XXXXXXXXXX,,London,IN,Seller,Generated
df282a19-3fa6-4dc2-b7a3-e3b2e08aaaa2,Owner 6571,+91XXXXXXXXXX,,London,IN,Seller,Generated
3c786f17-327e-434b-9797-a205404bc299,Owner 3223,+91XXXXXXXXXX,,Mumbai,IN,Seller,Generated
220a76b0-8100-481f-a490-66d0ed1ef16a,Owner 350,+91XXXXXXXXXX,,Delhi,IN,Seller,Generated
c7b03b10-6f1f-4b96-8ecc-f37c2b0f45ff,Owner 7108,+91XXXXXXXXXX,,New York,IN,Seller,Generated
7c40b6ce-5146-4003-824c-9fc8d8b8b7ee,Owner 2374,+91XXXXXXXXXX,,London,IN,Seller,Generated
db962c79-cf6f-4df8-8f5f-1b0f84707897,Owner 2401,+91XXXXXXXXXX,,New York,IN,Seller,Generated
23831908-596b-427b-bf05-d459088b4700,Owner 2480,+91XXXXXXXXXX,,Mumbai,IN,Seller,Generated
3f77d012-2600-4002-85c1-9eb9ca5dfbec,Owner 676,+91XXXXXXXXXX,,Mumbai,IN,Seller,Generated
2fd9b65f-2c4e-41da-8f43-4539d7a7ab07,Owner 9129,+91XXXXXXXXXX,,London,IN,Seller,Generated
fdaf8bbe-bac0-46fd-a5b2-b3c3c123d361,Owner 7829,+91XXXXXXXXXX,,New York,IN,Seller,Generated
1e943824-202a-47de-a798-a696986f92b4,Owner 8040,+91XXXXXXXXXX,,London,IN,Seller,Generated
4b20c0b3-76eb-4e06-9a17-f1bdb7ec0d79,Owner 8902,+91XXXXXXXXXX,,Delhi,IN,Seller,Generated
739b028f-ae97-4e86-8e74-c6016a015479,Owner 5005,+91XXXXXXXXXX,,London,IN,Seller,Generated
f77e328e-06ac-460d-9dc1-14bac3a1e2d5,Owner 856,+91XXXXXXXXXX,,Delhi,IN,Seller,Generated
532d7dc5-5f76-4568-b443-897194fe6317,Owner 1739,+91XXXXXXXXXX,,Mumbai,IN,Seller,Generated
8b9dbc92-416f-4010-afbf-6d34e39243cf,Owner 670,+91XXXXXXXXXX,,Delhi,IN,Seller,Generated
af8620b4-9508-404f-b389-a23d608b8ef6,Owner 3527,+91XXXXXXXXXX,,New York,IN,Seller,Generated
e0db65f4-9da8-44c7-bc7f-a71cec2a650c,Owner 757,+91XXXXXXXXXX,,New York,IN,Seller,Generated
be125f7d-2109-4b6d-8071-11a39f55ff97,Owner 7047,+91XXXXXXXXXX,,Delhi,IN,Seller,Generated
48371f2c-4ce1-4d72-b1f9-73ceac301540,Owner 3911,+91XXXXXXXXXX,,New York,IN,Seller,Generated
f4b341bd-dda6-4659-bbec-f3d668e9edac,Owner 3951,+91XXXXXXXXXX,,London,IN,Seller,Generated
946e702b-28e3-4ae6-b571-31317fb8cec4,Owner 5414,+91XXXXXXXXXX,,Delhi,IN,Seller,Generated
25c20c67-b760-442f-9604-acc0a218831c,Owner 1196,+91XXXXXXXXXX,,Delhi,IN,Seller,Generated
1f0b00ab-b1c3-4e57-80b3-c48a6324fddd,Owner 8243,+91XXXXXXXXXX,,Delhi,IN,Seller,Generated
b8030fe6-d748-4cdf-b2cd-696c5721cce5,Owner 3670,+91XXXXXXXXXX,,New York,IN,Seller,Generated
ee151d84-94a2-4c10-9ba0-060d5f30a7ed,Owner 2180,+91XXXXXXXXXX,,London,IN,Seller,Generated
86282a45-491b-41e7-88c3-854b01f8e04c,Owner 58,+91XXXXXXXXXX,,Delhi,IN,Seller,Generated
0af1f49e-7c17-41e9-aa8e-6045fcf8cd05,Owner 2894,+91XXXXXXXXXX,,New York,IN,Seller,Generated
27862910-2586-4fc2-ab38-cd81d2b325c7,Owner 169,+91XXXXXXXXXX,,Mumbai,IN,Seller,Generated
97c1c127-19dc-41c3-a886-82db0eb248d8,Owner 3498,+91XXXXXXXXXX,,Delhi,IN,Seller,Generated
762f1bc6-b69f-497e-897a-9e173a34b0fb,Owner 3326,+91XXXXXXXXXX,,Mumbai,IN,Seller,Generated
e8322807-a908-4406-a2d7-0a6e703aec06,Owner 3555,+91XXXXXXXXXX,,Mumbai,IN,Seller,Generated
ae51de5e-f2ec-4ebf-bbed-332266457b5a,Owner 7337,+91XXXXXXXXXX,,New York,IN,Seller,Generated
b21e75be-768b-484d-b024-7accd6f3d673,Owner 8193,+91XXXXXXXXXX,,London,IN,Seller,Generated
4e41a870-8191-4ae3-887c-1134f39b6169,Owner 5097,+91XXXXXXXXXX,,Mumbai,IN,Seller,Generated
bf32c9d5-62df-4945-8a8c-c4a2bca17c2f,Owner 4241,+91XXXXXXXXXX,,Delhi,IN,Seller,Generated
6e8903ee-036b-470f-910e-16131996672e,Owner 360,+91XXXXXXXXXX,,New York,IN,Seller,Generated
cc3251a8-3661-4dd8-bae9-b2f38a7dbb15,Owner 8876,+91XXXXXXXXXX,,Delhi,IN,Seller,Generated
3a6d8711-e32c-46f3-a0b5-4e8429f98b45,Owner 7305,+91XXXXXXXXXX,,London,IN,Seller,Generated
e737c3d8-618f-4485-97e5-2e1c5d891ce0,Owner 2624,+91XXXXXXXXXX,,Delhi,IN,Seller,Generated
58dabda0-667f-48c3-bbf2-02a6db8b10f0,Owner 2342,+91XXXXXXXXXX,,New York,IN,Seller,Generated
11107b03-0d57-4380-bdb5-984501c8f2c3,Owner 6031,+91XXXXXXXXXX,,Delhi,IN,Seller,Generated
2463ce8b-af4c-43ff-9bae-bf665e990b82,Owner 9112,+91XXXXXXXXXX,,London,IN,Seller,Generated
2b70167c-9e14-4129-8f2a-0d214014887b,Owner 3006,+91XXXXXXXXXX,,London,IN,Seller,Generated
6e390673-7919-4039-9445-4acc5e0fa69c,Owner 3665,+91XXXXXXXXXX,,New York,IN,Seller,Generated
66c20c68-80c3-4986-9593-9c6ccb5cae02,Owner 7847,+91XXXXXXXXXX,,Mumbai,IN,Seller,Generated
8a9ee80e-b9b6-406a-8d24-805aec260513,Owner 735,+91XXXXXXXXXX,,New York,IN,Seller,Generated
147a6739-4b22-4b8a-bb9d-4002c43df077,Owner 5478,+91XXXXXXXXXX,,Mumbai,IN,Seller,Generated
a63e691c-c12c-488b-9d2c-9e8cb9d4a542,Owner 7275,+91XXXXXXXXXX,,Delhi,IN,Seller,Generated
4715ea79-ac2a-4a89-9d8f-4ee38df5726c,Owner 7865,+91XXXXXXXXXX,,London,IN,Seller,Generated
8575441b-1289-4801-965d-2387ceef9c59,Owner 6928,+91XXXXXXXXXX,,Delhi,IN,Seller,Generated
d502767e-e267-4b2d-8b31-f3e7537325bd,Owner 955,+91XXXXXXXXXX,,London,IN,Seller,Generated
b6310c27-516a-4a62-8e86-7be376687387,Owner 6370,+91XXXXXXXXXX,,New York,IN,Seller,Generated
67523736-244c-4b53-99ed-3a5cd96f660a,Owner 4959,+91XXXXXXXXXX,,London,IN,Seller,Generated
0c76ab4a-b558-4c64-8f85-e14740819702,Owner 1763,+91XXXXXXXXXX,,Delhi,IN,Seller,Generated
db4138f6-d17d-4d46-a0e9-7c5b072d6fa2,Owner 6857,+91XXXXXXXXXX,,Mumbai,IN,Seller,Generated
331f7e70-06ff-4f5b-ae41-65f081a8e38c,Owner 5905,+91XXXXXXXXXX,,Delhi,IN,Seller,Generated
07eac578-22e9-4312-bbc2-3119f778dab7,Owner 3113,+91XXXXXXXXXX,,Delhi,IN,Seller,Generated
c287e613-b01c-4842-81e8-88d78616c320,Owner 691,+91XXXXXXXXXX,,Delhi,IN,Seller,Generated
ebf5ca87-564c-4fa3-91dd-823e7087802b,Owner 5881,+91XXXXXXXXXX,,Delhi,IN,Seller,Generated
8ec6621c-06fe-4d6e-9f2f-58aa61546e13,Owner 9798,+91XXXXXXXXXX,,Delhi,IN,Seller,Generated
700868c8-aa9b-4c78-a4da-5d9b65e85766,Owner 4665,+91XXXXXXXXXX,,New York,IN,Seller,Generated
cce881d5-6f15-4a3e-a6d3-20aef1a78d2b,Owner 9822,+91XXXXXXXXXX,,Mumbai,IN,Seller,Generated
cd2578be-d1e9-4f10-a09b-a48c1d4490cb,Owner 7981,+91XXXXXXXXXX,,New York,IN,Seller,Generated
235bd6b5-25fb-4f8b-818a-8e602b3af339,Owner 4066,+91XXXXXXXXXX,,London,IN,Seller,Generated
71d39ca3-35f0-4e30-802c-cfe3aacebd1d,Owner 1548,+91XXXXXXXXXX,,New York,IN,Seller,Generated
ac927994-5388-429a-a323-763b57fd031e,Owner 5094,+91XXXXXXXXXX,,Mumbai,IN,Seller,Generated
2212affa-b5b0-43be-9ff4-a20013757d03,Owner 1543,+91XXXXXXXXXX,,Mumbai,IN,Seller,Generated
f2af14b4-7ef3-4524-a438-cc1d283ffcb5,Owner 4975,+91XXXXXXXXXX,,London,IN,Seller,Generated
7177d7c5-86a4-4eb3-ac68-fce320311899,Owner 5251,+91XXXXXXXXXX,,Mumbai,IN,Seller,Generated
8d00b93a-25ff-4421-a31e-83a090b9ae04,Owner 5049,+91XXXXXXXXXX,,New York,IN,Seller,Generated
d84666a4-095f-40b5-99cd-c26f9ab6d7d9,Owner 2457,+91XXXXXXXXXX,,New York,IN,Seller,Generated
2d4d21a3-b423-406c-8dfa-c37eb1b1b45a,Owner 5558,+91XXXXXXXXXX,,London,IN,Seller,Generated
7a72ff6f-44f1-45c2-ad1c-3ed12296f13b,Owner 5819,+91XXXXXXXXXX,,Mumbai,IN,Seller,Generated
4160f1c7-e0bd-4b53-b373-abb952454153,Owner 6279,+91XXXXXXXXXX,,London,IN,Seller,Generated
5a3f6806-1285-4eac-9c1d-71f27def2a05,Owner 627,+91XXXXXXXXXX,,Mumbai,IN,Seller,Generated
88a8a8af-3bf7-4023-a331-83d7a79af4bd,Owner 9305,+91XXXXXXXXXX,,New York,IN,Seller,Generated
bdb1af73-2ed2-4565-874e-b5a3455ce48c,Owner 6555,+91XXXXXXXXXX,,New York,IN,Seller,Generated
f4263767-073c-4d5e-82fb-129440af73a5,Owner 8766,+91XXXXXXXXXX,,London,IN,Seller,Generated
7b8af954-de36-4215-b331-9ceac8a226ff,Owner 8654,+91XXXXXXXXXX,,London,IN,Seller,Generated
f097bbc8-e1b9-4b95-b273-e29d1d0abbee,Owner 3424,+91XXXXXXXXXX,,New York,IN,Seller,Generated
400f68b9-466e-4a1b-abf7-688160e9c087,Owner 816,+91XXXXXXXXXX,,New York,IN,Seller,Generated
6f024dce-21df-4175-ac58-fd817e0781c4,Owner 2220,+91XXXXXXXXXX,,Delhi,IN,Seller,Generated
110fa945-ca00-4a71-9799-e2ea180bef7a,Owner 1781,+91XXXXXXXXXX,,Delhi,IN,Seller,Generated
0daee6ce-d9d9-47c8-9d84-aa5a544c66ba,Owner 7125,+91XXXXXXXXXX,,London,IN,Seller,Generated
bdbc70b5-2844-4dc4-a431-7c96be5ef075,Owner 4538,+91XXXXXXXXXX,,New York,IN,Seller,Generated
4fa23e16-eabb-459d-a902-e04abcb05b7e,Owner 7985,+91XXXXXXXXXX,,New York,IN,Seller,Generated
b6f77982-f8b0-49bf-b976-5fb92e809583,Owner 2645,+91XXXXXXXXXX,,New York,IN,Seller,Generated
fdf63b89-0393-420c-8119-bb6c1f4ecb22,Owner 7690,+91XXXXXXXXXX,,London,IN,Seller,Generated
94d54c4c-1e1b-4a27-8ac0-41342535f2b3,Owner 1842,+91XXXXXXXXXX,,Mumbai,IN,Seller,Generated
4bd8b2f9-2f2d-434a-b515-fa3873e64000,Owner 5353,+91XXXXXXXXXX,,London,IN,Seller,Generated
c8cce26f-e862-49de-8372-4c0831544b61,Owner 4614,+91XXXXXXXXXX,,New York,IN,Seller,Generated
2c38c7b5-c36e-44ca-b64e-af17d616a3da,Owner 9770,+91XXXXXXXXXX,,New York,IN,Seller,Generated
4bcac30b-3e8e-49f0-8f87-b0737a56b964,Owner 7766,+91XXXXXXXXXX,,London,IN,Seller,Generated
0558f3a7-ee18-4315-8b50-ad2aa41baa3a,Owner 4171,+91XXXXXXXXXX,,Mumbai,IN,Seller,Generated
9dbd7107-c2d4-4b96-89af-81857a54a5bd,Owner 8628,+91XXXXXXXXXX,,London,IN,Seller,Generated
e3f922f7-faf7-4374-804e-a37977d390aa,Owner 8806,+91XXXXXXXXXX,,Delhi,IN,Seller,Generated
77ebb2f1-e1ed-4235-b35b-9b2cf22e09d7,Owner 7231,+91XXXXXXXXXX,,Mumbai,IN,Seller,Generated
989e290c-05fa-4959-959e-a7806c8660f1,Owner 4326,+91XXXXXXXXXX,,Delhi,IN,Seller,Generated
8bf3d89e-731c-40ab-97ef-b03cc5ad1562,Owner 1184,+91XXXXXXXXXX,,New York,IN,Seller,Generated
fca113b4-f8f1-4f32-9237-f7b65cd3d34f,Owner 9839,+91XXXXXXXXXX,,Mumbai,IN,Seller,Generated
24c05e44-78d4-41ea-be56-93997bc13c38,Owner 7716,+91XXXXXXXXXX,,New York,IN,Seller,Generated
1f212816-d781-46eb-8ed0-58f921df502f,Owner 3703,+91XXXXXXXXXX,,London,IN,Seller,Generated
3de2406e-a7f1-47d5-a095-70017924e688,Owner 9365,+91XXXXXXXXXX,,London,IN,Seller,Generated
94f761e9-e378-4c32-9013-172f5fc9f5b0,Owner 7977,+91XXXXXXXXXX,,Delhi,IN,Seller,Generated
12ef86db-4cc3-4bee-8cec-21c76543589f,Owner 6053,+91XXXXXXXXXX,,Mumbai,IN,Seller,Generated
4be89b1a-1c03-46ec-b86a-38c1bd648c50,Owner 6282,+91XXXXXXXXXX,,New York,IN,Seller,Generated
be6b93bf-fc02-4364-acc9-33b5dd596692,Owner 1705,+91XXXXXXXXXX,,New York,IN,Seller,Generated
ba702913-c52e-4898-b675-4c2d9f951ae5,Owner 2268,+91XXXXXXXXXX,,Delhi,IN,Seller,Generated
8c3aed89-fdc2-443e-8b2e-ecd23acf2d54,Owner 7800,+91XXXXXXXXXX,,New York,IN,Seller,Generated
010d4f8e-1af6-4e2d-afba-1f51160b1ca5,Owner 7595,+91XXXXXXXXXX,,New York,IN,Seller,Generated
38637a6e-343c-4002-90c8-3e0576f52e4c,Owner 554,+91XXXXXXXXXX,,London,IN,Seller,Generated
661f6d5c-9b16-4ffd-8b3e-0c2e7241fdf2,Owner 9197,+91XXXXXXXXXX,,Delhi,IN,Seller,Generated
ac342499-1b6e-4db1-8bc9-9ab4ccb7318a,Owner 1476,+91XXXXXXXXXX,,London,IN,Seller,Generated
83f307ce-4339-45d2-be52-4871676084c5,Owner 2280,+91XXXXXXXXXX,,London,IN,Seller,Generated
97cfdc8e-221f-4fd3-bd25-4c50092a23ef,Owner 3430,+91XXXXXXXXXX,,New York,IN,Seller,Generated
1f48d336-5302-4033-90fa-5aed4398ea1d,Owner 5411,+91XXXXXXXXXX,,New York,IN,Seller,Generated
60e6b4ab-7868-4d80-a5c1-b0d7dbdf312d,Owner 7793,+91XXXXXXXXXX,,New York,IN,Seller,Generated
a4bda6ba-0289-4cb7-8357-e03e4c9a80ac,Owner 4944,+91XXXXXXXXXX,,New York,IN,Seller,Generated
aba48e96-1465-444a-a2e4-8a8f3e9df9a3,Owner 3924,+91XXXXXXXXXX,,Delhi,IN,Seller,Generated
77752a6e-f099-4df1-bb86-4e7f4ec0025b,Owner 2450,+91XXXXXXXXXX,,New York,IN,Seller,Generated
a17b3e03-6002-4e7e-b510-81dab19a7a92,Owner 3394,+91XXXXXXXXXX,,London,IN,Seller,Generated
9ce80cdb-dbf7-44f4-89a2-343f5936b27d,Owner 5009,+91XXXXXXXXXX,,Mumbai,IN,Seller,Generated
a1c15f5e-79bf-4f37-bb35-96bb623121a7,Owner 8938,+91XXXXXXXXXX,,London,IN,Seller,Generated
28a4372c-dc6b-4188-b8b2-bdd95ce411c8,Owner 2929,+91XXXXXXXXXX,,London,IN,Seller,Generated
a8499a67-7263-4152-829d-f4dbb5430dc8,Owner 3033,+91XXXXXXXXXX,,London,IN,Seller,Generated
f37279c1-f4d0-4d05-8b50-5c635e22daad,Owner 9928,+91XXXXXXXXXX,,Delhi,IN,Seller,Generated
297a6988-79c9-4d50-9cf1-f8ba879ee56c,Owner 2344,+91XXXXXXXXXX,,Delhi,IN,Seller,Generated
2bddd8ef-c4f0-45f1-a236-6eb6ba798d0f,Owner 6979,+91XXXXXXXXXX,,London,IN,Seller,Generated
96495f8b-297c-4c73-a333-d5bdfaf9d6b1,Owner 4350,+91XXXXXXXXXX,,London,IN,Seller,Generated
ad31e86e-eb46-47db-8337-bc41d28a2796,Owner 6377,+91XXXXXXXXXX,,New York,IN,Seller,Generated
2db3d6d1-95f6-4049-9790-d89a4107b291,Owner 5498,+91XXXXXXXXXX,,New York,IN,Seller,Generated
25de0b41-d072-4f2e-8e15-66fedb43f7e5,Owner 8976,+91XXXXXXXXXX,,Mumbai,IN,Seller,Generated
1828477e-d6ac-49fa-8b91-e28b74cffc14,Owner 3204,+91XXXXXXXXXX,,New York,IN,Seller,Generated
2ef9ee30-d4b5-4436-8af8-b1df1e763d0c,Owner 8935,+91XXXXXXXXXX,,Mumbai,IN,Seller,Generated
598f26a0-4a6a-4132-82ef-d7f6f97bc0a7,Owner 9120,+91XXXXXXXXXX,,London,IN,Seller,Generated
0c7dd6e4-4c5d-4139-894f-f8e4d2efbdd6,Owner 7068,+91XXXXXXXXXX,,New York,IN,Seller,Generated
8f3799f2-cffb-4830-b316-79462dfd6bef,Owner 9096,+91XXXXXXXXXX,,London,IN,Seller,Generated
638cae09-dc10-4aaa-9dcd-8fdf5be50576,Owner 7447,+91XXXXXXXXXX,,Mumbai,IN,Seller,Generated
c2b2cc17-fb17-414b-90a5-97e7b5a9e769,Owner 8203,+91XXXXXXXXXX,,New York,IN,Seller,Generated
d8a7b615-537c-4082-8fb6-fb4c9f11fc0a,Owner 2318,+91XXXXXXXXXX,,Delhi,IN,Seller,Generated
7c0fcdbd-45c0-4c0a-a558-c1998ced9b86,Owner 5108,+91XXXXXXXXXX,,London,IN,Seller,Generated
89235b13-bca9-4129-b4d9-8bd3a2b51a78,Owner 9929,+91XXXXXXXXXX,,London,IN,Seller,Generated
58036867-73f8-4eb9-9f09-7d5810cd83fa,Owner 1421,+91XXXXXXXXXX,,Delhi,IN,Seller,Generated
757af4b1-1bf6-43db-a873-496df626f5bc,Owner 175,+91XXXXXXXXXX,,London,IN,Seller,Generated
79550a9e-3123-4b8e-8226-197174843a9f,Owner 9325,+91XXXXXXXXXX,,London,IN,Seller,Generated
e74851d8-1d20-4f95-972e-e074bcde9518,Owner 4374,+91XXXXXXXXXX,,Delhi,IN,Seller,Generated
ea63dd7b-5b8b-41d2-b452-55db5181009e,Owner 2458,+91XXXXXXXXXX,,London,IN,Seller,Generated
8fabeb7c-c84a-4d0a-80fa-81b8fa794a0e,Owner 4019,+91XXXXXXXXXX,,London,IN,Seller,Generated
c532b71e-aba5-4203-baa0-385271d472f8,Owner 5587,+91XXXXXXXXXX,,New York,IN,Seller,Generated
65daead8-10b4-4e89-8fbb-e26889352bfe,Owner 7473,+91XXXXXXXXXX,,London,IN,Seller,Generated
2e6df82f-bccd-4411-9088-60fa3760ddde,Owner 6403,+91XXXXXXXXXX,,Delhi,IN,Seller,Generated
6160c96c-d320-43b2-bda1-662f36ad868c,Owner 1440,+91XXXXXXXXXX,,Delhi,IN,Seller,Generated
6c35696f-45da-4fb9-a870-9791299fabdd,Owner 9558,+91XXXXXXXXXX,,Delhi,IN,Seller,Generated
91c52a2f-f873-44f9-b076-5e07c50408b4,Owner 8475,+91XXXXXXXXXX,,Mumbai,IN,Seller,Generated
c645bad8-b03d-41cf-8aca-f7fe4a0af64f,Owner 8488,+91XXXXXXXXXX,,London,IN,Seller,Generated
12824398-2caf-4b3c-b65c-d0b30567b965,Owner 2517,+91XXXXXXXXXX,,London,IN,Seller,Generated
6d133cd7-8473-450d-88b3-76723ca5e19c,Owner 5265,+91XXXXXXXXXX,,London,IN,Seller,Generated
4eb1b3ea-e4e9-40fc-90a8-b6cda3cdff19,Owner 3204,+91XXXXXXXXXX,,Mumbai,IN,Seller,Generated
c25aec7e-8d39-45d5-84d6-66aa330434b0,Owner 4359,+91XXXXXXXXXX,,Delhi,IN,Seller,Generated
9b109a9e-094b-4274-8c6b-7c114ef51679,Owner 5260,+91XXXXXXXXXX,,Mumbai,IN,Seller,Generated
09b019fb-36be-46b2-b0f6-4c00512b64d8,Owner 3857,+91XXXXXXXXXX,,New York,IN,Seller,Generated
e0ede2ce-8fec-4170-b03e-0cde4d8edb46,Owner 6821,+91XXXXXXXXXX,,London,IN,Seller,Generated
8d46c4fc-4731-47c9-86b7-817e5b3ff2f3,Owner 7677,+91XXXXXXXXXX,,Mumbai,IN,Seller,Generated
f30abf50-41f2-4ab1-84f0-138af6affb05,Owner 6870,+91XXXXXXXXXX,,London,IN,Seller,Generated
a37bedcc-eb33-4a00-af0e-c5e3be0b76ad,Owner 2679,+91XXXXXXXXXX,,London,IN,Seller,Generated
54866e13-65a9-4ee4-bf66-71387b39f033,Owner 8882,+91XXXXXXXXXX,,Mumbai,IN,Seller,Generated
476d491b-ae60-4024-814e-e26675f65fb7,Owner 9379,+91XXXXXXXXXX,,London,IN,Seller,Generated
aa1f36e8-b81c-4fa6-b7fb-f0246b9315de,Owner 467,+91XXXXXXXXXX,,London,IN,Seller,Generated
a19b72d3-6697-4456-8933-5ae1e280f3e4,Owner 342,+91XXXXXXXXXX,,Mumbai,IN,Seller,Generated
40b05edb-77ea-412d-b8be-ae46021afaa3,Owner 2183,+91XXXXXXXXXX,,Delhi,IN,Seller,Generated
3d864097-641c-4b32-bfd8-7dbcb11b9bef,Owner 404,+91XXXXXXXXXX,,New York,IN,Seller,Generated
c8e9cd8e-d190-4c21-a0bb-a0c614858a2b,Owner 2327,+91XXXXXXXXXX,,Delhi,IN,Seller,Generated
d50545a3-f8e4-4515-b27b-ce09ecb87f3b,Owner 175,+91XXXXXXXXXX,,London,IN,Seller,Generated
e59f6c19-fb8d-4868-bca6-a9fa3319a9f4,Owner 5279,+91XXXXXXXXXX,,New York,IN,Seller,Generated
f005161c-9f2e-46a7-8ddd-641f60b78e11,Owner 4970,+91XXXXXXXXXX,,Delhi,IN,Seller,Generated
1be21601-88a5-4bcc-b8a0-ae378e0e7401,Owner 738,+91XXXXXXXXXX,,New York,IN,Seller,Generated
fa34de8d-f128-47de-8e82-ca2477eb0f37,Owner 4484,+91XXXXXXXXXX,,Delhi,IN,Seller,Generated
3ba06e78-932a-4074-822f-e0efa38b2256,Owner 1666,+91XXXXXXXXXX,,New York,IN,Seller,Generated
9803a04e-4642-4b4d-80ac-0372c30d8ca6,Owner 9701,+91XXXXXXXXXX,,Delhi,IN,Seller,Generated
1c9ef89b-3554-472b-9a36-4930bde72321,Owner 6819,+91XXXXXXXXXX,,New York,IN,Seller,Generated
f3236713-a13f-4257-92e2-e96655bf079c,Owner 7101,+91XXXXXXXXXX,,Delhi,IN,Seller,Generated
0e303c5d-23cd-4e21-8613-16a42a5ee068,Owner 2870,+91XXXXXXXXXX,,Mumbai,IN,Seller,Generated
1956f0a3-2d2a-4b03-a9f4-3588f4ad4b16,Owner 6124,+91XXXXXXXXXX,,London,IN,Seller,Generated
c062d4bd-fdd8-48fc-9032-e9f20afc7b12,Owner 6023,+91XXXXXXXXXX,,London,IN,Seller,Generated
9fe4a8e1-70d8-4729-98bc-c4854933cac1,Owner 8253,+91XXXXXXXXXX,,Delhi,IN,Seller,Generated
9c925a21-20ef-4815-b26e-045e8627a72a,Owner 910,+91XXXXXXXXXX,,Mumbai,IN,Seller,Generated
158c6f46-1d74-4a64-ae4e-63dc5296fdc5,Owner 6706,+91XXXXXXXXXX,,Mumbai,IN,Seller,Generated
393ac26b-026c-428b-92cf-aeffc37400cb,Owner 6635,+91XXXXXXXXXX,,London,IN,Seller,Generated
73205c13-a29b-4738-a0fc-966abff08168,Owner 6670,+91XXXXXXXXXX,,Mumbai,IN,Seller,Generated
07d044d6-b061-4cdf-9eaa-dffc70b74591,Owner 905,+91XXXXXXXXXX,,New York,IN,Seller,Generated
f761519f-c6c9-4a70-909f-dea9906f4cec,Owner 7588,+91XXXXXXXXXX,,Mumbai,IN,Seller,Generated
62e0ddb8-e8bf-4767-9a7b-970ad6b54456,Owner 2859,+91XXXXXXXXXX,,London,IN,Seller,Generated
bfe6d71a-8557-4584-809a-2f60988eca62,Owner 2822,+91XXXXXXXXXX,,New York,IN,Seller,Generated
c4644b55-7026-4fa0-9185-2eb458bae8c0,Owner 1140,+91XXXXXXXXXX,,London,IN,Seller,Generated
d4797c6a-9d11-4ef2-a582-7fca7c4050c6,Owner 9513,+91XXXXXXXXXX,,Delhi,IN,Seller,Generated
9c7d7cba-bc0c-4cbf-896a-5676352a22f5,Owner 3479,+91XXXXXXXXXX,,Mumbai,IN,Seller,Generated
949d6c37-2fad-4dfa-84e5-024607d2f2a7,Owner 2675,+91XXXXXXXXXX,,Mumbai,IN,Seller,Generated
e24563c2-7c56-4af7-9db3-996406dec1ed,Owner 8395,+91XXXXXXXXXX,,London,IN,Seller,Generated
cdecf11a-1c8c-4a21-8b39-a367889a3aa0,Owner 9860,+91XXXXXXXXXX,,Mumbai,IN,Seller,Generated
f1934db7-67e3-4021-9b0e-ecff6a7c3a57,Owner 8041,+91XXXXXXXXXX,,Delhi,IN,Seller,Generated
b69a9d9d-104d-4fce-8144-513682ca3db5,Owner 9605,+91XXXXXXXXXX,,New York,IN,Seller,Generated
26151b69-b480-4bcf-ad2c-ffcf6aa48c1e,Owner 1498,+91XXXXXXXXXX,,London,IN,Seller,Generated
0c79bd29-6cca-429e-b698-2de54dcbcb9d,Owner 9739,+91XXXXXXXXXX,,Mumbai,IN,Seller,Generated
44415db2-c459-4aca-99a2-4a26ae2ffe05,Owner 5798,+91XXXXXXXXXX,,Delhi,IN,Seller,Generated
d0b975b1-c004-448d-9864-616f8ed08547,Owner 2986,+91XXXXXXXXXX,,London,IN,Seller,Generated
f6d9d5a3-50d9-497b-acc2-4bcfb22406f7,Owner 9470,+91XXXXXXXXXX,,New York,IN,Seller,Generated
d8d1d145-d153-4eba-ba0f-bedf397a1637,Owner 8849,+91XXXXXXXXXX,,London,IN,Seller,Generated
17da3f37-fde8-4d87-b551-124b396f9abc,Owner 3150,+91XXXXXXXXXX,,Mumbai,IN,Seller,Generated
1d0fc32e-832f-4fa4-95ac-ab6af6774ec4,Owner 7682,+91XXXXXXXXXX,,London,IN,Seller,Generated
411de2af-c569-495e-a02b-b2dd985c4160,Owner 5890,+91XXXXXXXXXX,,Mumbai,IN,Seller,Generated
c08d98c2-6e70-4f8c-998c-0a7f3ec12371,Owner 7974,+91XXXXXXXXXX,,Mumbai,IN,Seller,Generated
c63ada4b-867c-44b5-a2e4-4f29ce72ce6a,Owner 1906,+91XXXXXXXXXX,,Delhi,IN,Seller,Generated
87c91dd4-cd08-432e-b875-3eaca3c706c3,Owner 7522,+91XXXXXXXXXX,,Mumbai,IN,Seller,Generated
65fa4328-4524-4a75-9900-103485edfc28,Owner 993,+91XXXXXXXXXX,,Delhi,IN,Seller,Generated
92e84837-4cb1-4aa1-b12c-89c6ade3eb17,Owner 3235,+91XXXXXXXXXX,,New York,IN,Seller,Generated
5e451127-ee0d-49ee-bb89-0da1e59a0eb6,Owner 2091,+91XXXXXXXXXX,,New York,IN,Seller,Generated
2629a620-2882-4a5f-b597-8885f01176a7,Owner 9645,+91XXXXXXXXXX,,New York,IN,Seller,Generated
e3cdbc98-1207-4baa-9508-2ca72a1655e6,Owner 3013,+91XXXXXXXXXX,,Delhi,IN,Seller,Generated
f646334e-2da2-44d5-8a47-558805578a9b,Owner 855,+91XXXXXXXXXX,,New York,IN,Seller,Generated
1f5f7467-56be-4150-a00f-80a65b4af283,Owner 3871,+91XXXXXXXXXX,,London,IN,Seller,Generated
8c4683c7-8117-4e76-9a1d-909f2b81c131,Owner 3245,+91XXXXXXXXXX,,Delhi,IN,Seller,Generated
4d07344c-bcc3-418e-9af9-54cf80a9f8f1,Owner 1848,+91XXXXXXXXXX,,New York,IN,Seller,Generated
dafa4d4a-ecf3-4dd1-9517-d5936868a4bc,Owner 3127,+91XXXXXXXXXX,,Mumbai,IN,Seller,Generated
983a6fa1-0162-4627-9868-ad37bf9de2a4,Owner 7503,+91XXXXXXXXXX,,London,IN,Seller,Generated
8a1e4b05-c42d-4071-8433-ad86ba6daa26,Owner 4177,+91XXXXXXXXXX,,New York,IN,Seller,Generated
fdfb2e4e-cf79-4545-ac21-7f8ed0adf4a7,Owner 6924,+91XXXXXXXXXX,,Mumbai,IN,Seller,Generated
779cf726-2118-49eb-951e-02de9a3a7a17,Owner 8822,+91XXXXXXXXXX,,London,IN,Seller,Generated
aa7f6cdf-c924-4733-a22b-620248deacf0,Owner 9687,+91XXXXXXXXXX,,London,IN,Seller,Generated
a416d099-f099-4bdc-94ff-b69aed415407,Owner 6506,+91XXXXXXXXXX,,London,IN,Seller,Generated
d1e4034d-f93a-4c77-9d80-e637a29b8857,Owner 8569,+91XXXXXXXXXX,,New York,IN,Seller,Generated
8ca35012-b490-4a70-bdc9-a23c6aaf0c69,Owner 7223,+91XXXXXXXXXX,,New York,IN,Seller,Generated
dca34e97-00b8-41e0-aa3b-ce1519d07a34,Owner 7982,+91XXXXXXXXXX,,Mumbai,IN,Seller,Generated
c316f1d6-17be-4bbe-a8f4-1b8f5729c703,Owner 6301,+91XXXXXXXXXX,,New York,IN,Seller,Generated
7c6b9d8c-9cbc-46c2-b894-ebd738ff48ab,Owner 4955,+91XXXXXXXXXX,,London,IN,Seller,Generated
2bc8c8ce-c26f-4b86-9bd5-ca58e3801599,Owner 8733,+91XXXXXXXXXX,,Mumbai,IN,Seller,Generated
7f086345-4b5a-4cda-a640-003e536855dc,Owner 3927,+91XXXXXXXXXX,,Mumbai,IN,Seller,Generated
e2f05bc2-ad9a-42c7-b5af-507b2014ba21,Owner 3341,+91XXXXXXXXXX,,Delhi,IN,Seller,Generated
15a86c87-df96-4a71-9c5c-6685d609eead,Owner 7098,+91XXXXXXXXXX,,New York,IN,Seller,Generated
c78461c1-2a08-4aaa-ba77-8786a62bcb93,Owner 2441,+91XXXXXXXXXX,,Mumbai,IN,Seller,Generated
e1081d19-702f-4401-b34f-ed4013a0113e,Owner 1607,+91XXXXXXXXXX,,New York,IN,Seller,Generated
f850147e-3201-4001-a188-86d368dab824,Owner 6275,+91XXXXXXXXXX,,Mumbai,IN,Seller,Generated
e55fdb59-aaa8-4e31-a52a-ebf4cc269628,Owner 1966,+91XXXXXXXXXX,,Mumbai,IN,Seller,Generated
415fa2eb-4a26-4ad6-b02c-455f28064c17,Owner 3149,+91XXXXXXXXXX,,New York,IN,Seller,Generated
7058c78e-2b13-4503-ae26-9d51ecb4d2e3,Owner 7331,+91XXXXXXXXXX,,Mumbai,IN,Seller,Generated
e3fa1374-6b65-4ce9-8fd8-feb14887a934,Owner 1037,+91XXXXXXXXXX,,London,IN,Seller,Generated
ee5d0419-6d5a-468a-82dd-c45c7b589de4,Owner 4544,+91XXXXXXXXXX,,New York,IN,Seller,Generated
c88d3ee1-425a-4edb-8da1-75242e09ba69,Owner 3612,+91XXXXXXXXXX,,London,IN,Seller,Generated
3dc83975-e267-48c8-acd1-7ccd9505dc36,Owner 7523,+91XXXXXXXXXX,,Mumbai,IN,Seller,Generated
09f735d1-170f-40ac-af12-653c018abc05,Owner 8561,+91XXXXXXXXXX,,Delhi,IN,Seller,Generated
2f09f7e6-868f-4b36-b69d-8366dbf0b044,Owner 567,+91XXXXXXXXXX,,New York,IN,Seller,Generated
15dfc301-fb95-486d-9574-d39326d0825a,Owner 8829,+91XXXXXXXXXX,,Delhi,IN,Seller,Generated
1f80a41f-14c7-43da-bcd6-bb9094dc8fc0,Owner 296,+91XXXXXXXXXX,,Mumbai,IN,Seller,Generated
32772747-d911-4c21-91f3-6dd1870a4a9f,Owner 875,+91XXXXXXXXXX,,Mumbai,IN,Seller,Generated
60eaa4ed-1337-40b6-a9a1-79b803d6e87e,Owner 7250,+91XXXXXXXXXX,,Mumbai,IN,Seller,Generated
665cd8c9-149b-4a61-b7e7-ba057e7d01fe,Owner 5739,+91XXXXXXXXXX,,New York,IN,Seller,Generated
59003f79-5f1d-4515-8375-fe58888e6b8a,Owner 8296,+91XXXXXXXXXX,,Mumbai,IN,Seller,Generated
45f30e73-45be-43ab-b7a4-e7bec42a1ff8,Owner 7417,+91XXXXXXXXXX,,New York,IN,Seller,Generated
0f2d8059-4576-462b-a5e1-f19fa67da58e,Owner 8231,+91XXXXXXXXXX,,Mumbai,IN,Seller,Generated
cf13d72b-25e9-4577-9f37-08f2145a25e4,Owner 5838,+91XXXXXXXXXX,,London,IN,Seller,Generated
b1a4c7aa-d4ae-4d0a-af27-9b4a8aa57d14,Owner 1151,+91XXXXXXXXXX,,London,IN,Seller,Generated
9f1d3db6-7190-40b1-9b69-d3610e905a7d,Owner 2302,+91XXXXXXXXXX,,New York,IN,Seller,Generated
803c14c8-2c8c-4237-9216-5094026492b1,Owner 8727,+91XXXXXXXXXX,,London,IN,Seller,Generated
8c6e63a2-3cc4-43df-81d0-69165bf62d8d,Owner 565,+91XXXXXXXXXX,,New York,IN,Seller,Generated
4fea8b25-4695-4f11-8124-2876947256c1,Owner 5093,+91XXXXXXXXXX,,New York,IN,Seller,Generated
9012ad10-8daa-4ce9-8a07-b4deb1d3434a,Owner 4223,+91XXXXXXXXXX,,Mumbai,IN,Seller,Generated
4569cd9d-5715-4695-be3d-abffd0f7b38b,Owner 2762,+91XXXXXXXXXX,,London,IN,Seller,Generated
a775a9d8-8ca2-4017-b9a6-792af52e7a9a,Owner 6243,+91XXXXXXXXXX,,New York,IN,Seller,Generated
ee19d6b7-ba2e-430e-a9f5-9aa7084fd5a2,Owner 6396,+91XXXXXXXXXX,,Delhi,IN,Seller,Generated
83b36262-020b-455e-bbfc-ac5b9d207bbf,Owner 306,+91XXXXXXXXXX,,Mumbai,IN,Seller,Generated
cd360adf-de8e-4e0b-9d1a-ad14cf8db76e,Owner 3582,+91XXXXXXXXXX,,Delhi,IN,Seller,Generated
213eb904-7b91-4252-93f9-932308ee3d92,Owner 5704,+91XXXXXXXXXX,,London,IN,Seller,Generated
f0f224f6-f3c4-4903-acb7-2a23f306dd49,Owner 3957,+91XXXXXXXXXX,,Mumbai,IN,Seller,Generated
d35424c2-dbcc-4878-bbc6-a3703a25f200,Owner 8746,+91XXXXXXXXXX,,London,IN,Seller,Generated
4f002779-ee89-4db9-ad86-bbfbc7996e0b,Owner 2266,+91XXXXXXXXXX,,New York,IN,Seller,Generated
e8e6ca94-920a-4527-a1e5-e957dd1e5d70,Owner 9919,+91XXXXXXXXXX,,London,IN,Seller,Generated
0a39d01f-42b6-4fac-9e62-ccddd7d75751,Owner 4352,+91XXXXXXXXXX,,London,IN,Seller,Generated
ea9226d4-0175-4751-b5f3-99d18b2721f0,Owner 6609,+91XXXXXXXXXX,,New York,IN,Seller,Generated
bbb8544e-dc90-4af4-8718-09aed1e03148,Owner 589,+91XXXXXXXXXX,,Delhi,IN,Seller,Generated
c36bf63b-aef1-4b93-b5bb-ff74d066e586,Owner 6733,+91XXXXXXXXXX,,London,IN,Seller,Generated
ea91c61d-d524-47ed-863b-385c1155712b,Owner 5532,+91XXXXXXXXXX,,Mumbai,IN,Seller,Generated
4c4f8463-6d89-4565-8eb7-1a346e5273fa,Owner 6834,+91XXXXXXXXXX,,London,IN,Seller,Generated
beba9088-c292-40ea-9b71-3f7f7e94b7fc,Owner 4663,+91XXXXXXXXXX,,London,IN,Seller,Generated
51819ecd-f6e6-41e1-b20d-776400559a9b,Owner 2833,+91XXXXXXXXXX,,Mumbai,IN,Seller,Generated
502e0203-6868-4098-a502-cac7c740bbf3,Owner 1404,+91XXXXXXXXXX,,London,IN,Seller,Generated
775a1293-4d79-4cd4-9d6b-2127bddd1c12,Owner 1569,+91XXXXXXXXXX,,London,IN,Seller,Generated
0699beca-2237-455b-b36a-ad2ca7316abd,Owner 3750,+91XXXXXXXXXX,,Delhi,IN,Seller,Generated
3a9f1ad8-d752-43bd-9c5d-acd12faf9c11,Owner 6588,+91XXXXXXXXXX,,Mumbai,IN,Seller,Generated
522d8d6e-6ab3-4d5f-b719-7f6aaca77390,Owner 7688,+91XXXXXXXXXX,,New York,IN,Seller,Generated
0db01a69-8a09-4406-91c8-7b5ea02e2bd6,Owner 7515,+91XXXXXXXXXX,,Delhi,IN,Seller,Generated
e0f3f2e2-1667-45a7-90ae-a3383edcef38,Owner 9492,+91XXXXXXXXXX,,New York,IN,Seller,Generated
a8c93b87-6601-48c8-a865-1b7a7fac4d1c,Owner 3520,+91XXXXXXXXXX,,London,IN,Seller,Generated
fdc21edc-3cce-47fb-a5da-da39cdc9de8a,Owner 9193,+91XXXXXXXXXX,,New York,IN,Seller,Generated
f2c92040-b95f-4f89-930b-34dfb0cdea27,Owner 7242,+91XXXXXXXXXX,,Delhi,IN,Seller,Generated
4f415d5d-a51f-4cc6-a5c1-8880441a9936,Owner 1665,+91XXXXXXXXXX,,Delhi,IN,Seller,Generated
d92a28c4-9c18-4367-8fba-0e14d8ca9039,Owner 8141,+91XXXXXXXXXX,,London,IN,Seller,Generated
015eacb9-6029-44b1-8032-2e04f831474a,Owner 7459,+91XXXXXXXXXX,,London,IN,Seller,Generated
bc78c842-183e-49cf-be94-6326852b93b1,Owner 7402,+91XXXXXXXXXX,,New York,IN,Seller,Generated
cf7493dd-b937-473c-bfa0-c605a254818d,Owner 9767,+91XXXXXXXXXX,,Mumbai,IN,Seller,Generated
9d96c941-b01a-4249-8e3f-493699f4c2d7,Owner 1406,+91XXXXXXXXXX,,Delhi,IN,Seller,Generated
ac663021-b1f1-439f-bde6-96e209d856e8,Owner 4632,+91XXXXXXXXXX,,Mumbai,IN,Seller,Generated
828aae25-f5a1-4105-acdf-32ee43067fb0,Owner 1012,+91XXXXXXXXXX,,Delhi,IN,Seller,Generated
f21859f8-27b2-4044-82ff-ce743c42c8aa,Owner 1978,+91XXXXXXXXXX,,New York,IN,Seller,Generated
24b6bc19-e516-441c-a8a6-1880a2c9fb39,Owner 7742,+91XXXXXXXXXX,,London,IN,Seller,Generated
adbb36be-781c-4224-9f54-67026e651cfa,Owner 6959,+91XXXXXXXXXX,,New York,IN,Seller,Generated
059bd1cf-c623-4505-9f8f-6171c553e23a,Owner 9664,+91XXXXXXXXXX,,London,IN,Seller,Generated
5cd69fa2-021a-4856-b553-36f4769b16dd,Owner 5421,+91XXXXXXXXXX,,London,IN,Seller,Generated
0c390670-274b-47c1-bc5e-6a9a9617d69b,Owner 3615,+91XXXXXXXXXX,,Delhi,IN,Seller,Generated
186b9fe2-8247-4261-b54a-8f7781816aa1,Owner 7662,+91XXXXXXXXXX,,New York,IN,Seller,Generated
5aeedace-c18e-4009-b11b-d37bbc108988,Owner 951,+91XXXXXXXXXX,,New York,IN,Seller,Generated
6f7b5bfa-57d8-49b3-8ef0-2862f28373bf,Owner 1957,+91XXXXXXXXXX,,Mumbai,IN,Seller,Generated
3685ce97-3806-42d3-8294-0e6b1f30b820,Owner 1383,+91XXXXXXXXXX,,London,IN,Seller,Generated
93a8a5d8-ccda-4adb-bd60-e09ff002a641,Owner 1356,+91XXXXXXXXXX,,New York,IN,Seller,Generated
87f53ef2-fb2c-4291-886e-d64ee52cdac7,Owner 219,+91XXXXXXXXXX,,Delhi,IN,Seller,Generated
61416e14-38c9-4790-b606-0cd6ca7734d6,Owner 8640,+91XXXXXXXXXX,,London,IN,Seller,Generated
fa062bd1-6c32-4aa6-a0f7-c8be18997680,Owner 7136,+91XXXXXXXXXX,,Delhi,IN,Seller,Generated
2b0adb48-94cb-4805-aeb1-4ae9908e37de,Owner 4295,+91XXXXXXXXXX,,New York,IN,Seller,Generated
0b005506-1931-4c7e-ab3f-6e9389d0e6f5,Owner 7512,+91XXXXXXXXXX,,Mumbai,IN,Seller,Generated
90dc7a75-353e-4cdd-aadc-8bf9ccf7f70d,Owner 9844,+91XXXXXXXXXX,,Delhi,IN,Seller,Generated
57ee353e-10a2-4fd0-944a-75bd67fc2f49,Owner 9158,+91XXXXXXXXXX,,London,IN,Seller,Generated
59859330-0d59-401d-b684-64cfe9168bdc,Owner 770,+91XXXXXXXXXX,,London,IN,Seller,Generated
34c667bd-42e4-4858-a9fb-7555762f2602,Owner 4462,+91XXXXXXXXXX,,Mumbai,IN,Seller,Generated
c9a78e6c-0f7a-4b90-9211-e6cd1a63b774,Owner 3042,+91XXXXXXXXXX,,Mumbai,IN,Seller,Generated
44a24132-9d85-490a-b006-927478271792,Owner 7755,+91XXXXXXXXXX,,Mumbai,IN,Seller,Generated
5a7c41d5-9489-415b-ae8e-1d217777adbe,Owner 717,+91XXXXXXXXXX,,Delhi,IN,Seller,Generated
e3d084a0-6e7a-445d-b6cd-995704c2e384,Owner 3217,+91XXXXXXXXXX,,Mumbai,IN,Seller,Generated
8317c5b8-6d3c-42a4-a111-5ca203945613,Owner 6750,+91XXXXXXXXXX,,Mumbai,IN,Seller,Generated
ebade0d1-4a44-47b9-806b-d4b01f97d8a7,Owner 4467,+91XXXXXXXXXX,,London,IN,Seller,Generated
78af6061-6a28-4933-a2cd-c1ed135b4cb0,Owner 1012,+91XXXXXXXXXX,,Mumbai,IN,Seller,Generated
3b282ae5-0a7b-469d-896b-1dc331e24245,Owner 8504,+91XXXXXXXXXX,,London,IN,Seller,Generated
b20d218f-0312-42ab-9a83-bc2d36be117b,Owner 9862,+91XXXXXXXXXX,,London,IN,Seller,Generated
a245c26a-06e1-426d-be2b-de23016e6ce2,Owner 4589,+91XXXXXXXXXX,,Mumbai,IN,Seller,Generated
63799293-5709-444e-be55-786c77793f06,Owner 2629,+91XXXXXXXXXX,,New York,IN,Seller,Generated
18acc421-266c-4bd0-bc52-d99eddb5ca1c,Owner 7083,+91XXXXXXXXXX,,Mumbai,IN,Seller,Generated
6dfd2dd7-d64e-4969-bf63-09b4f4ccc383,Owner 9569,+91XXXXXXXXXX,,New York,IN,Seller,Generated
fe482cdc-0096-4f54-8002-9d60ed27d9ff,Owner 8751,+91XXXXXXXXXX,,Mumbai,IN,Seller,Generated
ef650f00-a5ec-4be2-915f-e141fede7025,Owner 2840,+91XXXXXXXXXX,,Delhi,IN,Seller,Generated
5b603575-63de-4f79-bdc5-8e5041edd42f,Owner 873,+91XXXXXXXXXX,,Delhi,IN,Seller,Generated
dd242b0b-3dde-4743-91b8-7f575b67347a,Owner 7194,+91XXXXXXXXXX,,London,IN,Seller,Generated
37a1f158-a479-47fe-b2cb-45e53d10e17c,Owner 7462,+91XXXXXXXXXX,,London,IN,Seller,Generated
84ddea8e-77d1-4a06-ab07-3f4410b19905,Owner 2341,+91XXXXXXXXXX,,Mumbai,IN,Seller,Generated
7f62156c-6c87-4286-8224-57ae9182d3c2,Owner 3477,+91XXXXXXXXXX,,Mumbai,IN,Seller,Generated
38082cc7-7a20-4b9a-ba76-a313fbbba71b,Owner 164,+91XXXXXXXXXX,,London,IN,Seller,Generated
46cc88ac-9117-4567-bc7a-03ce680c24bd,Owner 9369,+91XXXXXXXXXX,,London,IN,Seller,Generated
67e9e535-605e-4846-bcf1-fe563aac3cea,Owner 671,+91XXXXXXXXXX,,London,IN,Seller,Generated
60f43912-5b26-411b-a25e-0bc35cabc84d,Owner 4455,+91XXXXXXXXXX,,Mumbai,IN,Seller,Generated
0d4f8eed-1031-4672-bac9-cd5e99ed0626,Owner 8481,+91XXXXXXXXXX,,Delhi,IN,Seller,Generated
9c1062ae-eaff-4993-88d9-6d4d559ab8ed,Owner 4173,+91XXXXXXXXXX,,Delhi,IN,Seller,Generated
bf8298f6-66fe-4448-9cfd-e5b635c166ad,Owner 5132,+91XXXXXXXXXX,,Delhi,IN,Seller,Generated
ec150755-29fe-4796-9e99-6c3da8c048c7,Owner 8042,+91XXXXXXXXXX,,London,IN,Seller,Generated
33166644-f3ae-4681-be2a-5d084bdb69cc,Owner 9739,+91XXXXXXXXXX,,London,IN,Seller,Generated
2568e504-2717-48a5-b393-1381a44e1a0a,Owner 8621,+91XXXXXXXXXX,,New York,IN,Seller,Generated
9ac0d34b-4826-407b-9623-0c44ad7b246f,Owner 698,+91XXXXXXXXXX,,London,IN,Seller,Generated
b0fb61b9-e4df-4d6b-8b0b-d77231470bff,Owner 8600,+91XXXXXXXXXX,,Delhi,IN,Seller,Generated
1127d861-706b-413f-b10f-0257eee0161d,Owner 542,+91XXXXXXXXXX,,New York,IN,Seller,Generated
c16d1cf7-fe04-4f69-a155-5c985bc9fd0e,Owner 7717,+91XXXXXXXXXX,,Delhi,IN,Seller,Generated
16131233-19b7-4d3e-9b89-69cec574af26,Owner 7334,+91XXXXXXXXXX,,New York,IN,Seller,Generated
d46afec8-bb50-424e-bd0d-2ab1a262a4e6,Owner 2235,+91XXXXXXXXXX,,Mumbai,IN,Seller,Generated
d97253ea-65af-45df-8347-aecac32b998f,Owner 4337,+91XXXXXXXXXX,,Delhi,IN,Seller,Generated
867b939f-ac6b-4311-9732-3c9bbebbe26f,Owner 5839,+91XXXXXXXXXX,,London,IN,Seller,Generated
fbb24178-3ac9-4456-b2bd-ac220b56e327,Owner 826,+91XXXXXXXXXX,,New York,IN,Seller,Generated
449cc81c-c93e-4fd0-a33f-c99c02076819,Owner 7119,+91XXXXXXXXXX,,London,IN,Seller,Generated
99965d53-e4fc-4739-b9cb-8e7b1d85e958,Owner 2434,+91XXXXXXXXXX,,Delhi,IN,Seller,Generated
fd3fda4d-ca5e-4c2e-9b5b-8d008fb4764b,Owner 5669,+91XXXXXXXXXX,,New York,IN,Seller,Generated
20a101da-8089-4e76-820c-f8d891798af1,Owner 9464,+91XXXXXXXXXX,,New York,IN,Seller,Generated
ff54aa73-7893-4cbc-9992-674ea09df3f7,Owner 8964,+91XXXXXXXXXX,,London,IN,Seller,Generated
6f4bcb1e-083a-4a4a-abfd-e7d6b28ef417,Owner 3838,+91XXXXXXXXXX,,London,IN,Seller,Generated
b616f894-f327-4592-acc6-927f60cd5987,Owner 7136,+91XXXXXXXXXX,,Mumbai,IN,Seller,Generated
c599e6e6-ce76-4bcc-aa22-ed89f0c96588,Owner 6104,+91XXXXXXXXXX,,London,IN,Seller,Generated
dd249492-4897-47fd-9834-5662ba426f4b,Owner 36,+91XXXXXXXXXX,,London,IN,Seller,Generated
3460ad15-d355-4af8-aa56-050b69d8aa32,Owner 3788,+91XXXXXXXXXX,,New York,IN,Seller,Generated
578bedb0-0db4-4102-badd-5afad84e34c9,Owner 3477,+91XXXXXXXXXX,,New York,IN,Seller,Generated
8dc5bd20-8fe0-40c9-8349-d697bb96d40a,Owner 230,+91XXXXXXXXXX,,New York,IN,Seller,Generated
e0bbcc38-3864-4ecf-93c5-49bcf2da405a,Owner 9003,+91XXXXXXXXXX,,Delhi,IN,Seller,Generated
997abc10-3838-427a-978e-d71fe277b649,Owner 3566,+91XXXXXXXXXX,,Mumbai,IN,Seller,Generated
2f4fe8c9-254a-4ce0-a03d-532eaa2c642e,Owner 5576,+91XXXXXXXXXX,,New York,IN,Seller,Generated
b15195aa-303e-4aef-90c4-367d51abedd0,Owner 546,+91XXXXXXXXXX,,New York,IN,Seller,Generated
1b335723-316a-4ade-bd15-9dcf443be3e5,Owner 5380,+91XXXXXXXXXX,,London,IN,Seller,Generated
baf74d89-150d-4955-9a9c-33ff9a4fcd00,Owner 3939,+91XXXXXXXXXX,,New York,IN,Seller,Generated
77396b12-d42e-409c-829f-8a4dd5aea5e9,Owner 9489,+91XXXXXXXXXX,,New York,IN,Seller,Generated
da1ef8f0-f50a-4304-935f-9aa492318be9,Owner 9760,+91XXXXXXXXXX,,New York,IN,Seller,Generated
e8236411-ad99-4fe6-b69d-6fa56a948480,Owner 1458,+91XXXXXXXXXX,,New York,IN,Seller,Generated
c4ce0c2c-4898-4b7c-aa90-ce249647ccdd,Owner 4751,+91XXXXXXXXXX,,New York,IN,Seller,Generated
f441a1b4-2722-47cd-ae38-daca5a72fe12,Owner 425,+91XXXXXXXXXX,,London,IN,Seller,Generated
8ed0fba2-a803-450c-9975-d58ade3d38e7,Owner 8942,+91XXXXXXXXXX,,London,IN,Seller,Generated
a8c2d4ee-d168-4ea8-b1ee-57988a595f9f,Owner 8050,+91XXXXXXXXXX,,Delhi,IN,Seller,Generated
281099bf-95f0-422f-9083-aa9e267df78d,Owner 2159,+91XXXXXXXXXX,,Mumbai,IN,Seller,Generated
cfacf4d5-a6a9-4408-9a58-6f04362d41d5,Owner 1099,+91XXXXXXXXXX,,New York,IN,Seller,Generated
055b3a4b-45f6-4e21-87dc-fef93c638e8c,Owner 6621,+91XXXXXXXXXX,,Mumbai,IN,Seller,Generated
57695ae9-8a43-42b2-8807-055bdb8c5ba9,Owner 6008,+91XXXXXXXXXX,,New York,IN,Seller,Generated
45c3e7ab-72c3-4012-956c-5b65e0348ad1,Owner 1860,+91XXXXXXXXXX,,New York,IN,Seller,Generated
b8feec7f-256a-42a8-bb5e-d1a72ffd6b79,Owner 3552,+91XXXXXXXXXX,,London,IN,Seller,Generated
6e699878-66d4-420c-bf23-244186d54187,Owner 4883,+91XXXXXXXXXX,,London,IN,Seller,Generated
4e8c6378-2b48-4b6c-a95f-358c9a9b50cf,Owner 1937,+91XXXXXXXXXX,,Delhi,IN,Seller,Generated
0e13fdcd-22f4-4dce-96ab-40f0c02a2a8d,Owner 5877,+91XXXXXXXXXX,,London,IN,Seller,Generated
8f2a3391-fb3f-4523-9294-78eecf3872d2,Owner 6763,+91XXXXXXXXXX,,London,IN,Seller,Generated
afe2a1df-4dfe-4db5-8214-a57dca0d9105,Owner 7907,+91XXXXXXXXXX,,New York,IN,Seller,Generated
6f7fffe7-964a-4559-801a-149f9ea2e3b3,Owner 4993,+91XXXXXXXXXX,,Delhi,IN,Seller,Generated
