lead_id,name,phone,email,city,country,type,notes
39a6b8d1-9034-46d6-9098-100d25ab75ca,Owner 1445,+91XXXXXXXXXX,,New York,IN,Seller,Generated
46bb21c0-2bc9-4e4e-b804-bc6607ec2025,Owner 5236,+91XXXXXXXXXX,,New York,IN,Seller,Generated
e59ae74b-dde9-4b4d-b305-dc8c7197d942,Owner 5003,+91XXXXXXXXXX,,London,IN,Seller,Generated
7c73d999-2b6e-44de-bd7a-9abfc8d6df9c,Owner 7643,+91XXXXXXXXXX,,New York,IN,Seller,Generated
c80d55df-50a9-45e0-beb3-6de5c25451f5,Owner 3195,+91XXXXXXXXXX,,New York,IN,Seller,Generated
5c01bcbb-692d-4e04-9bf3-65165dccf07c,Owner 3265,+91XXXXXXXXXX,,Mumbai,IN,Seller,Generated
f1c584a0-47b0-493a-bb56-751ca7fe5ec7,Owner 3912,+91XXXXXXXXXX,,Delhi,IN,Seller,Generated
928752ac-8bf6-42db-84d3-594f197ee203,Owner 9653,+91XXXXXXXXXX,,London,IN,Seller,Generated
0159833a-2586-48ab-80aa-ce5b6fa4d196,Owner 1764,+91XXXXXXXXXX,,London,IN,Seller,Generated
31c0d97a-a169-4ac0-8964-1c6cd2175196,Owner 5965,+91XXXXXXXXXX,,Mumbai,IN,Seller,Generated
1ce637f1-e56f-4722-a7fe-e2a2f9904cae,Owner 5597,+91XXXXXXXXXX,,London,IN,Seller,Generated
67fe0883-bcd0-441e-a333-265d33751ff8,Owner 605,+91XXXXXXXXXX,,Mumbai,IN,Seller,Generated
267bdb2b-9ff3-45ab-ba31-d3b93ca3f457,Owner 7499,+91XXXXXXXXXX,,New York,IN,Seller,Generated
93561ebe-267e-413d-a40e-4c94147ef60c,Owner 4698,+91XXXXXXXXXX,,Delhi,IN,Seller,Generated
1006833f-11f8-462d-991b-0f51cd033841,Owner 7224,+91XXXXXXXXXX,,Mumbai,IN,Seller,Generated
91b1e49c-2337-4b94-9ac4-434b0e8368a1,Owner 4124,+91XXXXXXXXXX,,New York,IN,Seller,Generated
a8a457e4-474c-4c80-92d8-9d2ffda94a71,Owner 3983,+91XXXXXXXXXX,,Mumbai,IN,Seller,Generated
b9aa9e7e-8cfe-4b75-af66-c14b11f67213,Owner 8181,+91XXXXXXXXXX,,Mumbai,IN,Seller,Generated
1f9e5046-43fe-415b-8b11-7fdaa205255c,Owner 8618,+91XXXXXXXXXX,,New York,IN,Seller,Generated
b769c5eb-3845-4feb-935d-c12658f476eb,Owner 8490,+91XXXXXXXXXX,,Mumbai,IN,Seller,Generated
579e70b1-73f6-42eb-aed2-bfc238396405,Owner 8233,+91XXXXXXXXXX,,Mumbai,IN,Seller,Generated
43670491-2ba2-4f99-8ccb-a94abaf24c23,Owner 5167,+91XXXXXXXXXX,,New York,IN,Seller,Generated
58f912b3-77aa-42af-ac63-1b947a83d854,Owner 736,+91XXXXXXXXXX,,Mumbai,IN,Seller,Generated
ea61a65d-444e-42bc-a7b5-1acd9dc9a503,Owner 7263,+91XXXXXXXXXX,,New York,IN,Seller,Generated
2e79c2c2-d680-427c-a2a8-6d1305615d76,Owner 6540,+91XXXXXXXXXX,,Mumbai,IN,Seller,Generated
8dcf3aff-3223-4258-8a96-5515e46d6f58,Owner 9805,+91XXXXXXXXXX,,Mumbai,IN,Seller,Generated
6b75f6a6-4d62-432e-aacd-35d843cd6e93,Owner 2934,+91XXXXXXXXXX,,New York,IN,Seller,Generated
fdcd71ed-660d-4f2b-abc9-0c4dd89ac303,Owner 7564,+91XXXXXXXXXX,,Mumbai,IN,Seller,Generated
50000deb-7e53-4837-b39f-e2fd113aed25,Owner 5845,+91XXXXXXXXXX,,Mumbai,IN,Seller,Generated
c1fc3527-d187-428a-9f90-37e68ad597eb,Owner 8536,+91XXXXXXXXXX,,London,IN,Seller,Generated
ba4107d9-0068-4b79-a309-5a1beabbe759,Owner 3474,+91XXXXXXXXXX,,Delhi,IN,Seller,Generated
df5d506a-21e3-4cd7-b939-ac358642bb9b,Owner 8257,+91XXXXXXXXXX,,London,IN,Seller,Generated
da32d692-8cb2-43e2-bdfe-be81186911f6,Owner 896,+91XXXXXXXXXX,,New York,IN,Seller,Generated
415ce3b8-b1c5-48e9-8e09-85239a9b5949,Owner 5427,+91XXXXXXXXXX,,Mumbai,IN,Seller,Generated
cefd8e13-f7b9-4721-92f8-a54859cc8a45,Owner 6745,+91XXXXXXXXXX,,London,IN,Seller,Generated
cf9e4989-fe33-445b-ad91-616edd75a388,Owner 6150,+91XXXXXXXXXX,,Mumbai,IN,Seller,Generated
b0f7abf2-6f11-48f3-b7a8-7595e56a2767,Owner 9359,+91XXXXXXXXXX,,London,IN,Seller,Generated
7d777a15-e8b9-4e97-b1c9-777aea1e3941,Owner 9483,+91XXXXXXXXXX,,Mumbai,IN,Seller,Generated
6e0bc4c1-ddb0-4c48-8e6f-91125d17b5a2,Owner 4791,+91XXXXXXXXXX,,Mumbai,IN,Seller,Generated
6fa31b43-eccb-43fe-9069-4c2a08816d29,Owner 9398,+91XXXXXXXXXX,,Mumbai,IN,Seller,Generated
4f06f131-5ae1-40cf-98d5-0c17119ae689,Owner 4871,+91XXXXXXXXXX,,Delhi,IN,Seller,Generated
eebfea42-a722-428b-855e-c7db9d9ae19b,Owner 2958,+91XXXXXXXXXX,,New York,IN,Seller,Generated
b99b558c-13bf-4075-bd40-28df7a3fc568,Owner 1934,+91XXXXXXXXXX,,London,IN,Seller,Generated
989d118b-6802-4baa-940d-dfe48ee638ea,Owner 8379,+91XXXXXXXXXX,,New York,IN,Seller,Generated
6c50182d-67c6-4f8d-a011-6db26a7f1f6d,Owner 8093,+91XXXXXXXXXX,,New York,IN,Seller,Generated
cd15f7cd-2c63-4591-bb53-7ee25732a7ab,Owner 5419,+91XXXXXXXXXX,,Delhi,IN,Seller,Generated
a7964347-4a26-41e4-aa29-e441732c2309,Owner 7566,+91XXXXXXXXXX,,Mumbai,IN,Seller,Generated
0be552f2-faec-49c0-9f90-d77ff22c5559,Owner 2561,+91XXXXXXXXXX,,London,IN,Seller,Generated
337ac4a0-970b-40a7-af24-6d0b3aa46ebb,Owner 3598,+91XXXXXXXXXX,,London,IN,Seller,Generated
6748b7fc-66a6-4e1d-8249-894d9433213c,Owner 6743,+91XXXXXXXXXX,,Delhi,IN,Seller,Generated
96c19b4b-e42d-4106-8a13-5b5db6c96425,Owner 6495,+91XXXXXXXXXX,,New York,IN,Seller,Generated
0792c445-5d96-484c-a46d-85a94baf531d,Owner 1271,+91XXXXXXXXXX,,London,IN,Seller,Generated
d96145e4-8d71-42c4-be14-d79039c0b0a9,Owner 9461,+91XXXXXXXXXX,,London,IN,Seller,Generated
c536f860-2234-41a0-925f-2a52e358c4be,Owner 8066,+91XXXXXXXXXX,,Mumbai,IN,Seller,Generated
bef74e9a-ab23-4e3e-be97-b042f5839b5a,Owner 8792,+91XXXXXXXXXX,,Mumbai,IN,Seller,Generated
6868bcbb-c3c7-48ca-b0a9-2c584b4ca1cf,Owner 7443,+91XXXXXXXXXX,,Delhi,IN,Seller,Generated
9b6b784a-7890-4699-ba6f-917f23d470f0,Owner 4677,+91XXXXXXXXXX,,London,IN,Seller,Generated
15a42a58-1c25-41c4-a556-14cbd6c3ee9a,Owner 56,+91XXXXXXXXXX,,Mumbai,IN,Seller,Generated
100ac5ad-ea39-442b-ab48-79b209116aa1,Owner 1118,+91XXXXXXXXXX,,New York,IN,Seller,Generated
038c1c71-2b8d-436b-9c4b-d06dd9e8a7aa,Owner 8900,+91XXXXXXXXXX,,Mumbai,IN,Seller,Generated
6013c87a-923b-4c48-9cb2-859a05887751,Owner 9556,+91XXXXXXXXXX,,Mumbai,IN,Seller,Generated
f0cde0eb-311f-4025-812f-9b3deecce6e9,Owner 6518,+91XXXXXXXXXX,,Delhi,IN,Seller,Generated
0700d046-e858-4da5-8444-d457ae332fa1,Owner 9709,+91XXXXXXXXXX,,Delhi,IN,Seller,Generated
5c16ce9a-acbb-4f44-be6d-d8a65f2e872f,Owner 7967,+91XXXXXXXXXX,,New York,IN,Seller,Generated
2d8007d0-f76f-4b55-be19-c17dd3bb68c8,Owner 6027,+91XXXXXXXXXX,,Mumbai,IN,Seller,Generated
2e6f5c02-2cc9-45f5-a1a2-33886b0601a3,Owner 5755,+91XXXXXXXXXX,,Mumbai,IN,Seller,Generated
309ade79-d02a-4b8f-bafb-234b09420d20,Owner 7480,+91XXXXXXXXXX,,London,IN,Seller,Generated
c8618d09-4452-49c4-b4d6-e7eea9e4d166,Owner 9778,+91XXXXXXXXXX,,London,IN,Seller,Generated
a009ace7-a50c-41be-9d05-abb0de383490,Owner 6804,+91XXXXXXXXXX,,New York,IN,Seller,Generated
c7251e47-6daa-419f-b8e4-79c70221a142,Owner 8125,+91XXXXXXXXXX,,New York,IN,Seller,Generated
90dac09f-5322-4c6f-92ae-004505315bf5,Owner 4069,+91XXXXXXXXXX,,New York,IN,Seller,Generated
dc484944-b993-4b93-840c-b75368a7eb08,Owner 793,+91XXXXXXXXXX,,London,IN,Seller,Generated
147a57fd-fc76-4cd5-9e30-4ae1e5f2d53a,Owner 7515,+91XXXXXXXXXX,,London,IN,Seller,Generated
309dc1d0-e7b7-4e17-be77-985fbb149290,Owner 2959,+91XXXXXXXXXX,,Delhi,IN,Seller,Generated
37dec159-535b-48aa-9d6b-9a4e46f36322,Owner 1070,+91XXXXXXXXXX,,New York,IN,Seller,Generated
3a40df06-33ad-4afb-940f-04dcfdc66b31,Owner 2716,+91XXXXXXXXXX,,Delhi,IN,Seller,Generated
f69f004c-1233-487e-8670-df2b641ef65c,Owner 4710,+91XXXXXXXXXX,,London,IN,Seller,Generated
b7492df2-2acc-4117-b030-141917497548,Owner 9286,+91XXXXXXXXXX,,Mumbai,IN,Seller,Generated
29b87d7c-3bae-4c9f-bff2-d14abd262c57,Owner 6809,+91XXXXXXXXXX,,New York,IN,Seller,Generated
dacb5ed6-fcc6-4917-b334-42085d05b496,Owner 5183,+91XXXXXXXXXX,,Delhi,IN,Seller,Generated
bc2d1bf7-570d-412a-9f60-5dbc44325fa2,Owner 3504,+91XXXXXXXXXX,,London,IN,Seller,Generated
c336ac86-4b2e-44da-8e99-c9bcd63906e3,Owner 4708,+91XXXXXXXXXX,,Delhi,IN,Seller,Generated
19abc13a-cf6d-47ea-aaf5-3d7960e35203,Owner 9402,+91XXXXXXXXXX,,Delhi,IN,Seller,Generated
562a2a60-a8f7-48e8-8394-2880a1b3bf1e,Owner 4480,+91XXXXXXXXXX,,London,IN,Seller,Generated
55055f5b-89ad-4732-8050-310b8084e260,Owner 3169,+91XXXXXXXXXX,,New York,IN,Seller,Generated
badd4c5a-1555-4329-bf49-a235ddf0e9de,Owner 1282,+91XXXXXXXXXX,,Delhi,IN,Seller,Generated
fcdb6d84-a15b-4d74-abc5-387f3f4c991a,Owner 4220,+91XXXXXXXXXX,,New York,IN,Seller,Generated
e75aa096-7963-4d70-8a50-7c5bd5b74914,Owner 9840,+91XXXXXXXXXX,,Delhi,IN,Seller,Generated
5e851910-984b-4aff-a148-e65e7a5136eb,Owner 1732,+91XXXXXXXXXX,,Delhi,IN,Seller,Generated
c8c4d83d-b269-4e9e-860d-63531b412e5c,Owner 3831,+91XXXXXXXXXX,,Mumbai,IN,Seller,Generated
69ffeb67-347e-4730-b7a8-85522725d888,Owner 8435,+91XXXXXXXXXX,,New York,IN,Seller,Generated
3c704263-f0ee-4373-b314-4be448c7cd1a,Owner 1374,+91XXXXXXXXXX,,Mumbai,IN,Seller,Generated
6e5aa15e-6625-430f-8c58-76c683843255,Owner 7982,+91XXXXXXXXXX,,Mumbai,IN,Seller,Generated
a2414573-adb8-43ec-af61-3e984ec7bfa3,Owner 4174,+91XXXXXXXXXX,,London,IN,Seller,Generated
3cd08843-7c82-4e3c-922b-1159bf34cb61,Owner 8940,+91XXXXXXXXXX,,New York,IN,Seller,Generated
8e974fad-88ab-44d5-9772-507f752fcc19,Owner 1925,+91XXXXXXXXXX,,London,IN,Seller,Generated
d961edc9-857a-49ef-b8de-4b96e7237429,Owner 2927,+91XXXXXXXXXX,,London,IN,Seller,Generated
0ea0f85d-40f9-4620-bcad-70c9b70aa1e8,Owner 2101,+91XXXXXXXXXX,,Mumbai,IN,Seller,Generated
1db64302-9646-4d98-b57f-69efbeec960d,Owner 2350,+91XXXXXXXXXX,,Mumbai,IN,Seller,Generated
93272a2a-6df3-4989-9f4c-fa9dd72dab59,Owner 6715,+91XXXXXXXXXX,,Mumbai,IN,Seller,Generated
d7d93d53-d870-4a3a-bcdb-45d96b7a46b7,Owner 6582,+91XXXXXXXXXX,,London,IN,Seller,Generated
72c00f1c-dc30-4305-9d6a-463fa41a8257,Owner 5870,+91XXXXXXXXXX,,London,IN,Seller,Generated
05400300-1409-428d-89c5-2a5483b0039b,Owner 2682,+91XXXXXXXXXX,,Delhi,IN,Seller,Generated
4e87a7e8-6505-4621-ac6e-a0d06165040a,Owner 3685,+91XXXXXXXXXX,,Delhi,IN,Seller,Generated
006505fe-445d-4a25-9e5b-a264c7a69968,Owner 7656,+91XXXXXXXXXX,,London,IN,Seller,Generated
0c7eb05e-9559-42d9-94a2-8c524f300742,Owner 7315,+91XXXXXXXXXX,,Delhi,IN,Seller,Generated
af4090de-5a91-4fb7-aa40-dcbb5316ee0d,Owner 7991,+91XXXXXXXXXX,,London,IN,Seller,Generated
74442d48-c8d9-4950-a701-c59cdaa4132f,Owner 3027,+91XXXXXXXXXX,,Delhi,IN,Seller,Generated
9d032644-9f7a-4499-a5c5-d48b01bd8466,Owner 4157,+91XXXXXXXXXX,,London,IN,Seller,Generated
f4910f89-37ca-45e6-8c6f-f38746eedd4a,Owner 9672,+91XXXXXXXXXX,,Mumbai,IN,Seller,Generated
bdb836ac-d34f-404b-adb9-4712ef10f969,Owner 5347,+91XXXXXXXXXX,,Mumbai,IN,Seller,Generated
c978f751-0b51-47a1-97c3-03edd6c8290b,Owner 5529,+91XXXXXXXXXX,,Mumbai,IN,Seller,Generated
1b4bc0db-4f3e-45ea-898b-9ea450802a06,Owner 821,+91XXXXXXXXXX,,Mumbai,IN,Seller,Generated
5aab05df-4620-4c96-a861-d5a34822a270,Owner 8540,+91XXXXXXXXXX,,Delhi,IN,Seller,Generated
aded8b02-7329-485f-b7e9-875b3de72181,Owner 3553,+91XXXXXXXXXX,,London,IN,Seller,Generated
397bfb46-287a-462f-9858-83b4f66b0d37,Owner 2120,+91XXXXXXXXXX,,New York,IN,Seller,Generated
108f35b9-8f98-4a6c-a1b1-a714e5c4643b,Owner 4984,+91XXXXXXXXXX,,Mumbai,IN,Seller,Generated
72fd38ba-5adb-407a-a92a-b692898d8a3a,Owner 3176,+91XXXXXXXXXX,,Delhi,IN,Seller,Generated
d1748aaf-bd58-4995-b262-6a99481e9536,Owner 5895,+91XXXXXXXXXX,,London,IN,Seller,Generated
3189f709-d961-4bd2-9814-52dc518109b9,Owner 4621,+91XXXXXXXXXX,,New York,IN,Seller,Generated
c3c3a602-ba80-4d42-9434-7264cd5c8546,Owner 3781,+91XXXXXXXXXX,,Delhi,IN,Seller,Generated
76f7bdd8-e725-4305-aa0a-9c037d9507a3,Owner 2288,+91XXXXXXXXXX,,New York,IN,Seller,Generated
5bf93c00-a62e-4482-83f9-054c369dac62,Owner 7685,+91XXXXXXXXXX,,Delhi,IN,Seller,Generated
a46271b3-e6dc-4b40-837a-66856681fcf7,Owner 5557,+91XXXXXXXXXX,,Delhi,IN,Seller,Generated
e490d22f-4545-41dd-b07c-d9d75cc66913,Owner 8049,+91XXXXXXXXXX,,Delhi,IN,Seller,Generated
1770191f-17ca-4767-ab3e-8233eac0281e,Owner 5512,+91XXXXXXXXXX,,Delhi,IN,Seller,Generated
38fdeed7-5ef0-4d38-8c8c-f4adb9ece70f,Owner 6885,+91XXXXXXXXXX,,London,IN,Seller,Generated
c4b1a9e2-6c6f-48d6-a7f4-cdf7a7c6a137,Owner 5813,+91XXXXXXXXXX,,New York,IN,Seller,Generated
bceef66a-7d4d-4e62-b592-48967ecd06e8,Owner 940,+91XXXXXXXXXX,,New York,IN,Seller,Generated
1198008c-a7e2-42f6-9efa-a134512c6f37,Owner 7903,+91XXXXXXXXXX,,Delhi,IN,Seller,Generated
9a6b538d-ec76-423c-837b-551160332244,Owner 9736,+91XXXXXXXXXX,,Mumbai,IN,Seller,Generated
90b077c1-b3c4-475a-aa07-b34ff482d825,Owner 4698,+91XXXXXXXXXX,,London,IN,Seller,Generated
77ef55a2-8684-4cc0-be85-eceee2232cd7,Owner 3942,+91XXXXXXXXXX,,London,IN,Seller,Generated
d17a8e72-4ace-4c48-b83b-a63834a3a9bd,Owner 9090,+91XXXXXXXXXX,,Delhi,IN,Seller,Generated
32ced61a-6324-4738-b1e3-326c87aac957,Owner 8658,+91XXXXXXXXXX,,New York,IN,Seller,Generated
d8952703-8d24-4c0f-b96d-ee80f7401c5c,Owner 7747,+91XXXXXXXXXX,,Delhi,IN,Seller,Generated
e58e46cb-34d0-4ed7-bcf1-8c7f758461f2,Owner 759,+91XXXXXXXXXX,,Delhi,IN,Seller,Generated
99308e9a-5c3a-4863-b108-281615000f3f,Owner 5621,+91XXXXXXXXXX,,London,IN,Seller,Generated
a9821d4f-7122-4ee9-ab80-d8f89bdabc9e,Owner 2174,+91XXXXXXXXXX,,Delhi,IN,Seller,Generated
42410b4d-abee-4d30-ac8b-86a7edc61172,Owner 9547,+91XXXXXXXXXX,,Mumbai,IN,Seller,Generated
ebab4273-9725-4335-af3a-94bb5ad879ae,Owner 6249,+91XXXXXXXXXX,,London,IN,Seller,Generated
a9dbdd89-823e-4b53-bb11-78d5617f17d1,Owner 9302,+91XXXXXXXXXX,,Mumbai,IN,Seller,Generated
21b4e726-53d2-4d89-823c-9ee00a6ad3e7,Owner 9883,+91XXXXXXXXXX,,London,IN,Seller,Generated
4fe37f68-0f66-4b97-9c97-6d9723a76caf,Owner 5719,+91XXXXXXXXXX,,Mumbai,IN,Seller,Generated
84cdfbcc-46bd-4f97-bcd0-c9cc2e32130e,Owner 4533,+91XXXXXXXXXX,,New York,IN,Seller,Generated
4e0f7d79-8b9e-4aaa-ac99-7845e8a0373e,Owner 670,+91XXXXXXXXXX,,London,IN,Seller,Generated
f6b69efd-f92b-47e1-9cf2-9f7d6e9713f2,Owner 9448,+91XXXXXXXXXX,,Delhi,IN,Seller,Generated
93abe14a-495b-46e0-82a2-a8775b556548,Owner 8014,+91XXXXXXXXXX,,Mumbai,IN,Seller,Generated
822fc0bd-1502-4a03-9487-56d783852e90,Owner 954,+91XXXXXXXXXX,,New York,IN,Seller,Generated
882fdcdf-ad5a-4311-b095-1989f3eda384,Owner 5152,+91XXXXXXXXXX,,London,IN,Seller,Generated
5fcbf69d-f18d-4ef7-a84b-1404753003aa,Owner 852,+91XXXXXXXXXX,,London,IN,Seller,Generated
090f8853-e5b8-4bef-b308-2eff5b34c0d9,Owner 3319,+91XXXXXXXXXX,,Delhi,IN,Seller,Generated
61371870-a204-4ed5-8ef8-3930d4618e68,Owner 5828,+91XXXXXXXXXX,,New York,IN,Seller,Generated
0ab90f62-44c0-4061-a9ca-80bd2934c28d,Owner 184,+91XXXXXXXXXX,,New York,IN,Seller,Generated
699249c1-c989-48bf-a72d-f704b90fefb0,Owner 8450,+91XXXXXXXXXX,,New York,IN,Seller,Generated
2a13cec0-0ad6-457c-b417-d77c4887ee92,Owner 8178,+91XXXXXXXXXX,,London,IN,Seller,Generated
5eeccf60-dedd-43d4-b2dc-7279614c11ed,Owner 2276,+91XXXXXXXXXX,,Delhi,IN,Seller,Generated
647120fb-5327-45da-9ba3-d13e49e8204e,Owner 8378,+91XXXXXXXXXX,,Delhi,IN,Seller,Generated
0d3ded43-e8c5-421a-8fae-a1ec1af91d2a,Owner 9455,+91XXXXXXXXXX,,New York,IN,Seller,Generated
721684b1-fe24-4deb-9695-50fb3d322b47,Owner 5898,+91XXXXXXXXXX,,Mumbai,IN,Seller,Generated
9e13eb44-ead1-411e-adbf-babeca763eea,Owner 3840,+91XXXXXXXXXX,,New York,IN,Seller,Generated
be9377ca-9475-44c4-8459-3543ebb34dd4,Owner 7946,+91XXXXXXXXXX,,Delhi,IN,Seller,Generated
3518be7a-7da5-4db7-bcdb-86caaaf3cb0e,Owner 2236,+91XXXXXXXXXX,,Delhi,IN,Seller,Generated
16f59013-84fd-452b-8b9c-6ab31679d7e4,Owner 9472,+91XXXXXXXXXX,,Mumbai,IN,Seller,Generated
bd9ccef5-056b-49b8-b481-bd21bffa157c,Owner 3522,+91XXXXXXXXXX,,New York,IN,Seller,Generated
535c5745-285d-46c8-8e8f-0873bbb29817,Owner 3167,+91XXXXXXXXXX,,Delhi,IN,Seller,Generated
7f783d9c-5795-48e0-8a19-9eb703beb9cf,Owner 6149,+91XXXXXXXXXX,,Mumbai,IN,Seller,Generated
19a54dfb-8b2a-4895-92f6-6d6c569c8eaa,Owner 8389,+91XXXXXXXXXX,,Delhi,IN,Seller,Generated
edbe3b1d-1b7c-4a07-91a3-62689c5179de,Owner 5082,+91XXXXXXXXXX,,New York,IN,Seller,Generated
09ed4992-ee9d-4497-821c-0d6c5f6774c6,Owner 1976,+91XXXXXXXXXX,,New York,IN,Seller,Generated
995058fb-cb25-47a3-8177-432fc2aa528c,Owner 246,+91XXXXXXXXXX,,New York,IN,Seller,Generated
12340962-cd62-42af-a979-21bb97194a18,Owner 3387,+91XXXXXXXXXX,,New York,IN,Seller,Generated
7431ca2e-c027-4439-9084-3039f80192e1,Owner 1532,+91XXXXXXXXXX,,London,IN,Seller,Generated
9a2d8367-1589-4674-ba95-b38fe3b40184,Owner 3204,+91XXXXXXXXXX,,Mumbai,IN,Seller,Generated
fabfd0ce-57cc-4f42-84eb-81da70d1f5a1,Owner 6566,+91XXXXXXXXXX,,New York,IN,Seller,Generated
c02d2f4d-bfba-477f-be1d-180ce86d593f,Owner 4852,+91XXXXXXXXXX,,Mumbai,IN,Seller,Generated
9697d759-501e-422a-8d4b-968056ff6c79,Owner 180,+91XXXXXXXXXX,,New York,IN,Seller,Generated
75943956-0e12-4ada-b654-dae490d9d577,Owner 1988,+91XXXXXXXXXX,,Delhi,IN,Seller,Generated
4edbd4d5-67b2-4621-8074-edeeefad5188,Owner 637,+91XXXXXXXXXX,,London,IN,Seller,Generated
ea2223ae-756e-465c-9838-b9ba690c6d27,Owner 1238,+91XXXXXXXXXX,,New York,IN,Seller,Generated
ef15cd0f-bbfc-4597-98eb-d76c9692dc39,Owner 7574,+91XXXXXXXXXX,,London,IN,Seller,Generated
2145dfce-b516-41e0-b141-96e181c266a3,Owner 1228,+91XXXXXXXXXX,,Mumbai,IN,Seller,Generated
494ea66e-3ab6-4b89-8b77-3cf586719747,Owner 2747,+91XXXXXXXXXX,,Mumbai,IN,Seller,Generated
273c8727-e186-488e-9def-fbc025ff06e4,Owner 5694,+91XXXXXXXXXX,,Delhi,IN,Seller,Generated
75cb8247-9058-43c5-9512-fe85de35151f,Owner 7984,+91XXXXXXXXXX,,London,IN,Seller,Generated
6d7f9db2-7914-48dc-ae81-eb74b22b382f,Owner 8992,+91XXXXXXXXXX,,New York,IN,Seller,Generated
919fedcc-d08e-4758-861b-2355f78f68a3,Owner 3183,+91XXXXXXXXXX,,New York,IN,Seller,Generated
3ddbb598-e104-482d-a429-72275233014b,Owner 9786,+91XXXXXXXXXX,,New York,IN,Seller,Generated
afad44ce-ea22-41aa-b238-d52347efe713,Owner 8957,+91XXXXXXXXXX,,New York,IN,Seller,Generated
bcdd735c-2a3d-45a4-9764-ab93fa81fff2,Owner 9038,+91XXXXXXXXXX,,Delhi,IN,Seller,Generated
4b513315-735c-4836-85b4-c696beff699e,Owner 2736,+91XXXXXXXXXX,,Mumbai,IN,Seller,Generated
ad0394bf-599c-4cf1-9f47-79ebef8a0e4e,Owner 9361,+91XXXXXXXXXX,,London,IN,Seller,Generated
9779a170-e95a-4f41-9a6d-6c66aa658db3,Owner 7747,+91XXXXXXXXXX,,Mumbai,IN,Seller,Generated
2b2c38fb-92e0-49f3-a4bc-39829c97e8f5,Owner 2637,+91XXXXXXXXXX,,Mumbai,IN,Seller,Generated
204da861-1ee7-4ed2-9e9e-052438db121f,Owner 7264,+91XXXXXXXXXX,,Mumbai,IN,Seller,Generated
1436b36d-0348-4fbd-8af1-03b20e833fed,Owner 5562,+91XXXXXXXXXX,,London,IN,Seller,Generated
66fafdbd-66d5-471c-835b-3a47f2eaa278,Owner 7732,+91XXXXXXXXXX,,London,IN,Seller,Generated
a4ab00a8-7d0d-46ff-9ab4-7b46d7a28b8e,Owner 7129,+91XXXXXXXXXX,,London,IN,Seller,Generated
d735464c-4cd7-4c35-bad0-527aee305b4c,Owner 7253,+91XXXXXXXXXX,,Delhi,IN,Seller,Generated
75292e83-ca92-4d7e-9427-0089ba3f05c4,Owner 6895,+91XXXXXXXXXX,,New York,IN,Seller,Generated
a5c95e14-a714-435b-8e7b-d15c22ad70ee,Owner 5807,+91XXXXXXXXXX,,Mumbai,IN,Seller,Generated
a6dc8cc6-0ae7-4a89-b8d0-f91af6dc117d,Owner 2285,+91XXXXXXXXXX,,Mumbai,IN,Seller,Generated
2c8dbd4b-183c-4bbe-a851-c3bcf953f456,Owner 9924,+91XXXXXXXXXX,,Delhi,IN,Seller,Generated
ec0f9d57-4c97-44b2-84d2-dd3c1a413d63,Owner 8428,+91XXXXXXXXXX,,Mumbai,IN,Seller,Generated
88a81d3a-8cd5-4ba1-9062-a950c005eda0,Owner 370,+91XXXXXXXXXX,,Delhi,IN,Seller,Generated
45dba06f-a577-4d00-81e2-60e9c4764ac8,Owner 4020,+91XXXXXXXXXX,,London,IN,Seller,Generated
d21cc767-3935-4b37-9b57-dc9cbffb0d6b,Owner 1667,+91XXXXXXXXXX,,Delhi,IN,Seller,Generated
6b80b65c-9dc3-4622-a550-9512f6bc3b00,Owner 1812,+91XXXXXXXXXX,,Delhi,IN,Seller,Generated
74ed9702-1006-46c1-950c-003e5ac39b4c,Owner 9481,+91XXXXXXXXXX,,Delhi,IN,Seller,Generated
f46b2659-8f0a-4e2b-bdeb-abace1746bc9,Owner 346,+91XXXXXXXXXX,,Mumbai,IN,Seller,Generated
891e9af7-eed2-4e52-9560-79bc2e928967,Owner 196,+91XXXXXXXXXX,,Mumbai,IN,Seller,Generated
8e9a70a1-c93a-493c-93d6-bad7d2bf6e60,Owner 9209,+91XXXXXXXXXX,,Delhi,IN,Seller,Generated
f13fa6fd-16c3-4304-a4fc-c9d1f3bd0ac6,Owner 3851,+91XXXXXXXXXX,,Mumbai,IN,Seller,Generated
eac3837c-b395-4109-be7f-3a8af07829d6,Owner 7350,+91XXXXXXXXXX,,Delhi,IN,Seller,Generated
72638e4f-2c5c-46e9-b64a-df49163cefd7,Owner 5853,+91XXXXXXXXXX,,New York,IN,Seller,Generated
a4fa1178-4e67-46f6-8fac-7f53be49b572,Owner 9399,+91XXXXXXXXXX,,Mumbai,IN,Seller,Generated
2e49cadf-48c7-4fc8-9790-6b0cbfce501c,Owner 2273,+91XXXXXXXXXX,,New York,IN,Seller,Generated
fbe73234-aff7-475a-ae90-755a09218cbc,Owner 5257,+91XXXXXXXXXX,,New York,IN,Seller,Generated
cfb7922d-7382-453d-b740-f9c4698854e3,Owner 2915,+91XXXXXXXXXX,,Mumbai,IN,Seller,Generated
d166e256-a379-44b0-a321-396e3fc6ad16,Owner 9383,+91XXXXXXXXXX,,London,IN,Seller,Generated
7aedf0f7-50a3-44ab-a70d-574b62b8ee8f,Owner 1500,+91XXXXXXXXXX,,Mumbai,IN,Seller,Generated
09c61ae2-3e29-4926-b061-7eded764c955,Owner 3807,+91XXXXXXXXXX,,London,IN,Seller,Generated
5d5ebd2f-92b7-4a90-ab14-922f76574a2d,Owner 4595,+91XXXXXXXXXX,,Mumbai,IN,Seller,Generated
0061e6d2-f8e3-4e06-96bc-c0e8cdaa4e79,Owner 7439,+91XXXXXXXXXX,,Delhi,IN,Seller,Generated
fb1baa5d-e4d9-4dcf-b589-7e8a1c5daa3a,Owner 7048,+91XXXXXXXXXX,,Mumbai,IN,Seller,Generated
f7194e93-6456-4504-81ff-02dbdcc69d23,Owner 9983,+91XXXXXXXXXX,,Mumbai,IN,Seller,Generated
54cddaad-620d-4885-b9ad-c6a467b9ca2b,Owner 8863,+91XXXXXXXXXX,,London,IN,Seller,Generated
d8d0690b-111d-4865-8b56-9dfb851bd3c0,Owner 4742,+91XXXXXXXXXX,,London,IN,Seller,Generated
0a1cbae4-0734-4c7e-9b82-1daf04e2a09e,Owner 4021,+91XXXXXXXXXX,,Delhi,IN,Seller,Generated
f5d0036a-2ef2-4092-a7cd-dabb05f77f47,Owner 2008,+91XXXXXXXXXX,,Mumbai,IN,Seller,Generated
c4c46832-afd0-4188-9d2e-710df43c6fbb,Owner 5814,+91XXXXXXXXXX,,London,IN,Seller,Generated
6416ffb8-4477-4ab1-9f7c-42f15a4900fd,Owner 6221,+91XXXXXXXXXX,,New York,IN,Seller,Generated
4d927e70-58d7-49f8-9bdd-51d75da3d252,Owner 9614,+91XXXXXXXXXX,,Mumbai,IN,Seller,Generated
d23750b9-c91d-4d0f-931d-993d81e05da3,Owner 4303,+91XXXXXXXXXX,,Mumbai,IN,Seller,Generated
89a27cfd-a78a-4bce-b381-2daf55a8701c,Owner 961,+91XXXXXXXXXX,,Delhi,IN,Seller,Generated
3f64e534-6191-4289-af92-2d5c0f78a371,Owner 1358,+91XXXXXXXXXX,,London,IN,Seller,Generated
0e299cda-610a-47a4-86cc-8536f815fd20,Owner 5437,+91XXXXXXXXXX,,Mumbai,IN,Seller,Generated
92aeb77d-4f7d-4eeb-a926-41f5689127d9,Owner 7106,+91XXXXXXXXXX,,London,IN,Seller,Generated
5c85314a-d2e3-4366-a6f6-39643df26a22,Owner 6903,+91XXXXXXXXXX,,New York,IN,Seller,Generated
7e038e85-b50d-4fb6-8fe9-f23ca8d398ac,Owner 4851,+91XXXXXXXXXX,,Delhi,IN,Seller,Generated
268f878e-b860-436a-bcdf-209b6ddb9514,Owner 1828,+91XXXXXXXXXX,,Mumbai,IN,Seller,Generated
ef95b055-3fcf-4426-a8a3-64cbc3b208e6,Owner 9358,+91XXXXXXXXXX,,New York,IN,Seller,Generated
1a86b46b-2dee-4ceb-8f22-d65c151009bd,Owner 3516,+91XXXXXXXXXX,,New York,IN,Seller,Generated
6900949d-7642-4121-b78b-c7d35934c78e,Owner 6793,+91XXXXXXXXXX,,London,IN,Seller,Generated
b12d1970-db04-47c2-bf55-69baf8e916a0,Owner 567,+91XXXXXXXXXX,,London,IN,Seller,Generated
a4cdb851-5802-4876-8468-02b3e687efb0,Owner 2543,+91XXXXXXXXXX,,New York,IN,Seller,Generated
b1123f66-0c5d-4816-bf4d-089fb5e3ed23,Owner 6369,+91XXXXXXXXXX,,London,IN,Seller,Generated
becc5ae4-75a8-4d14-9046-18af3263db37,Owner 539,+91XXXXXXXXXX,,London,IN,Seller,Generated
98581c0f-8ab0-4849-b079-8d2d45262eda,Owner 3621,+91XXXXXXXXXX,,Mumbai,IN,Seller,Generated
d6f07629-7f6c-4b13-bdc0-b37f16f18e38,Owner 2632,+91XXXXXXXXXX,,Delhi,IN,Seller,Generated
b935cff7-5555-4852-ac2b-3c43a5b615ea,Owner 3486,+91XXXXXXXXXX,,Delhi,IN,Seller,Generated
1b6f2c72-3732-453c-92ac-c0db8925be39,Owner 4482,+91XXXXXXXXXX,,Mumbai,IN,Seller,Generated
0d6f7c11-521d-4e1e-9c05-7062e51a03e6,Owner 683,+91XXXXXXXXXX,,London,IN,Seller,Generated
5835a661-09c0-43bd-a2f8-6e113cadc1cb,Owner 2191,+91XXXXXXXXXX,,Mumbai,IN,Seller,Generated
c2f16fa4-ac08-46f2-bda7-e77a7d4a66ea,Owner 1207,+91XXXXXXXXXX,,New York,IN,Seller,Generated
ae1a162b-17ec-4cc3-a9e6-9caea1552d5c,Owner 8999,+91XXXXXXXXXX,,Delhi,IN,Seller,Generated
a2417330-ddd8-4231-992e-5e6f727ec207,Owner 8775,+91XXXXXXXXXX,,Mumbai,IN,Seller,Generated
dfdfca70-33ae-471d-bf17-4a70616448a7,Owner 7610,+91XXXXXXXXXX,,New York,IN,Seller,Generated
a8e98ed9-e3c4-40fe-a1c4-bfd61d77e2f5,Owner 3417,+91XXXXXXXXXX,,Mumbai,IN,Seller,Generated
a7b5c1e8-90b9-404c-9dec-c2c3d1e6af53,Owner 8877,+91XXXXXXXXXX,,New York,IN,Seller,Generated
6b3e8c8c-3bd4-410d-8ab3-e4d5cee92cb5,Owner 9947,+91XXXXXXXXXX,,New York,IN,Seller,Generated
7baff5ce-3060-4e1b-a1ce-a6137baebbd1,Owner 174,+91XXXXXXXXXX,,London,IN,Seller,Generated
9d9cd325-b485-4aee-b3f1-4dfdc12695df,Owner 1163,+91XXXXXXXXXX,,London,IN,Seller,Generated
5d39f140-f3a6-4f4d-a9d2-910257243813,Owner 4317,+91XXXXXXXXXX,,New York,IN,Seller,Generated
b0ce0eba-c5c9-4faa-8e14-6ad166d61076,Owner 6716,+91XXXXXXXXXX,,Delhi,IN,Seller,Generated
2cb61f67-b8e4-4145-ba65-1cf8b2862c13,Owner 2671,+91XXXXXXXXXX,,Delhi,IN,Seller,Generated
78d6d929-0b7a-4c8b-8a36-9f4bcc4fb057,Owner 2321,+91XXXXXXXXXX,,New York,IN,Seller,Generated
0cd5c506-1656-4d4d-aa58-6b705547add5,Owner 4095,+91XXXXXXXXXX,,New York,IN,Seller,Generated
f6fba9bf-fd40-4b17-9ffc-af7f0f664c5b,Owner 3911,+91XXXXXXXXXX,,New York,IN,Seller,Generated
87e455d0-3221-43d3-aa68-acb414459979,Owner 842,+91XXXXXXXXXX,,Delhi,IN,Seller,Generated
8af42493-2782-4ec6-a3b5-0cc4eed85835,Owner 1608,+91XXXXXXXXXX,,London,IN,Seller,Generated
eac90c22-19eb-4cd7-b9ea-0fc1ba8049c1,Owner 688,+91XXXXXXXXXX,,Delhi,IN,Seller,Generated
d164316b-5928-4828-b871-8f9a8d3b8727,Owner 6718,+91XXXXXXXXXX,,Delhi,IN,Seller,Generated
7e64e280-0438-4ca1-8a52-d38ec6a426fd,Owner 7874,+91XXXXXXXXXX,,Delhi,IN,Seller,Generated
3aa7eae5-2bed-4dff-bcf2-abed58387486,Owner 7156,+91XXXXXXXXXX,,Mumbai,IN,Seller,Generated
9553dd0e-0eaf-4562-866f-b82ab3402154,Owner 5536,+91XXXXXXXXXX,,London,IN,Seller,Generated
b46f4df7-b6f6-44bb-86ba-c59c14c1ef10,Owner 2155,+91XXXXXXXXXX,,Mumbai,IN,Seller,Generated
49f4e0dd-f747-483e-9330-8ecac7848fca,Owner 1277,+91XXXXXXXXXX,,London,IN,Seller,Generated
fd58e0d1-dffc-4afa-bbe1-637bae2540e9,Owner 2029,+91XXXXXXXXXX,,London,IN,Seller,Generated
34625a17-fe34-4901-b270-1fe5b55563ee,Owner 2078,+91XXXXXXXXXX,,Delhi,IN,Seller,Generated
d66f0095-1358-4d16-a55f-c7a8b2078526,Owner 9143,+91XXXXXXXXXX,,Delhi,IN,Seller,Generated
dccb3541-88c6-4cdb-bf18-452302774b0b,Owner 9035,+91XXXXXXXXXX,,London,IN,Seller,Generated
5ac93240-90bc-4944-80a5-214d917551ac,Owner 4335,+91XXXXXXXXXX,,Mumbai,IN,Seller,Generated
c3ce5080-00c7-4cff-9bab-83b0b1236506,Owner 1217,+91XXXXXXXXXX,,Delhi,IN,Seller,Generated
2034b3ad-767f-4854-a39a-d699fe613ba7,Owner 570,+91XXXXXXXXXX,,New York,IN,Seller,Generated
48b673a4-8b0b-4184-acf5-363256c3380a,Owner 9727,+91XXXXXXXXXX,,New York,IN,Seller,Generated
d75f9075-ae29-4970-ba02-01fab427392f,Owner 5006,+91XXXXXXXXXX,,Delhi,IN,Seller,Generated
313e134e-acb5-4a34-92f8-a9b615629a4c,Owner 3959,+91XXXXXXXXXX,,New York,IN,Seller,Generated
9f351bd0-39cb-43fe-a01a-3a2dad498a36,Owner 6618,+91XXXXXXXXXX,,New York,IN,Seller,Generated
d5725ac8-b6c9-4d63-8cfe-7cc3cc35a9e7,Owner 4776,+91XXXXXXXXXX,,London,IN,Seller,Generated
9576774e-ae3c-4ec8-9b5b-5c44837cc30f,Owner 2091,+91XXXXXXXXXX,,Delhi,IN,Seller,Generated
bfca3ee8-05d5-4cf0-bf5c-a81eec979a4e,Owner 3055,+91XXXXXXXXXX,,Delhi,IN,Seller,Generated
e2002f30-0ea0-4e7b-96a8-b84448033eaa,Owner 2081,+91XXXXXXXXXX,,New York,IN,Seller,Generated
9198bafb-6fe1-4503-9f96-dee298e1caa2,Owner 8647,+91XXXXXXXXXX,,Mumbai,IN,Seller,Generated
9be6adb0-02d0-4c38-94f6-fe72a633a5fc,Owner 912,+91XXXXXXXXXX,,New York,IN,Seller,Generated
b4bf8ece-1f81-49d8-b0b4-7e98900b6d1c,Owner 4575,+91XXXXXXXXXX,,New York,IN,Seller,Generated
843bd6b6-9552-48bd-a723-2c10b06edb88,Owner 757,+91XXXXXXXXXX,,New York,IN,Seller,Generated
e82a8f9e-ca21-4996-bd17-411a8029fa4e,Owner 7081,+91XXXXXXXXXX,,Delhi,IN,Seller,Generated
fbdcbf6c-a1ad-4bc1-80e5-3fcc80cc1595,Owner 8235,+91XXXXXXXXXX,,New York,IN,Seller,Generated
164e4658-d561-4b61-b896-5522691fda51,Owner 8366,+91XXXXXXXXXX,,Delhi,IN,Seller,Generated
534adf26-20b9-4520-993f-7350fff8ee3a,Owner 2372,+91XXXXXXXXXX,,Mumbai,IN,Seller,Generated
fdb7ee6c-af90-4a3b-a445-1ad38befb99a,Owner 9484,+91XXXXXXXXXX,,Mumbai,IN,Seller,Generated
eca568ac-405d-4373-b99d-ee9b5c6dd2ca,Owner 4180,+91XXXXXXXXXX,,New York,IN,Seller,Generated
05e0c30e-e45c-45cd-857f-9faf89a2590c,Owner 6948,+91XXXXXXXXXX,,New York,IN,Seller,Generated
ab9702e4-a8e5-4867-b66a-a50ae397e680,Owner 2732,+91XXXXXXXXXX,,Delhi,IN,Seller,Generated
14793b41-d4d1-4b74-802c-4e9c02eb45f2,Owner 2112,+91XXXXXXXXXX,,Delhi,IN,Seller,Generated
84214704-df23-4874-b236-5be8bd8e2634,Owner 4559,+91XXXXXXXXXX,,Delhi,IN,Seller,Generated
82a05579-be02-452e-9ddd-a15c6cdee925,Owner 1633,+91XXXXXXXXXX,,Delhi,IN,Seller,Generated
fc6cda6e-812e-4d38-be6b-5b5300dbfcd6,Owner 5130,+91XXXXXXXXXX,,London,IN,Seller,Generated
5590fcaf-4d3f-4d2e-8015-db72e5a2d261,Owner 4456,+91XXXXXXXXXX,,New York,IN,Seller,Generated
197914eb-ae46-4b0c-b4e9-a0327d3b505b,Owner 2807,+91XXXXXXXXXX,,London,IN,Seller,Generated
700096da-20a6-414c-b816-0aa9ba0641be,Owner 1767,+91XXXXXXXXXX,,London,IN,Seller,Generated
6f660d3b-c88a-4c47-b674-e625af6d1f57,Owner 7377,+91XXXXXXXXXX,,Delhi,IN,Seller,Generated
9dcc6c31-2af0-40cc-a4d8-6fb8d38c25f1,Owner 5883,+91XXXXXXXXXX,,London,IN,Seller,Generated
5d180ccc-18ab-468d-bc20-b6d3ad77af76,Owner 8612,+91XXXXXXXXXX,,London,IN,Seller,Generated
f16e609e-f933-4e1f-9b15-dbc9fdf947b4,Owner 840,+91XXXXXXXXXX,,Delhi,IN,Seller,Generated
4904f353-9072-4a40-8221-1ce33dfc6886,Owner 9833,+91XXXXXXXXXX,,New York,IN,Seller,Generated
750e766c-6c66-4145-ae82-80cd83538311,Owner 3768,+91XXXXXXXXXX,,Delhi,IN,Seller,Generated
addb633e-7f7d-407b-9ccd-d6fc75558fa4,Owner 9352,+91XXXXXXXXXX,,Mumbai,IN,Seller,Generated
8fa2d25a-ea4e-4ed5-a44c-1192b0b76420,Owner 1480,+91XXXXXXXXXX,,Delhi,IN,Seller,Generated
522728f9-aaa5-4c82-bd81-0bdc865ea514,Owner 1440,+91XXXXXXXXXX,,Mumbai,IN,Seller,Generated
5a7d9802-1745-4fde-a99c-00ca99cfb403,Owner 7423,+91XXXXXXXXXX,,New York,IN,Seller,Generated
fca8753a-9559-4cb0-9f1b-9dfc5869bb3e,Owner 3859,+91XXXXXXXXXX,,London,IN,Seller,Generated
fe8e453d-f230-41e3-b69f-b8c111f8cd20,Owner 7551,+91XXXXXXXXXX,,London,IN,Seller,Generated
39448aee-e76d-4f44-91d4-e60347d7ad81,Owner 5181,+91XXXXXXXXXX,,London,IN,Seller,Generated
c199cfa4-f563-41d6-b0b6-0bc6842def92,Owner 7306,+91XXXXXXXXXX,,New York,IN,Seller,Generated
fc81e5de-6672-4673-b0d4-c62e2c4e30c4,Owner 6157,+91XXXXXXXXXX,,Delhi,IN,Seller,Generated
a7a0d11a-2740-4fcc-b6a3-ba52d1a9d6b1,Owner 9370,+91XXXXXXXXXX,,Delhi,IN,Seller,Generated
4e1c50d7-881e-4724-8afb-370331361980,Owner 5238,+91XXXXXXXXXX,,Mumbai,IN,Seller,Generated
172230fc-8653-493a-82d0-129907962bba,Owner 9389,+91XXXXXXXXXX,,New York,IN,Seller,Generated
90b75081-120e-4f6e-b1fa-e380200f0cd4,Owner 2358,+91XXXXXXXXXX,,Delhi,IN,Seller,Generated
21ec8693-b90c-48e3-b95e-3cc18f050c30,Owner 1836,+91XXXXXXXXXX,,Delhi,IN,Seller,Generated
048c1914-6f38-4663-b3ab-8afb9f50b90a,Owner 4139,+91XXXXXXXXXX,,London,IN,Seller,Generated
e3cff5bf-ebbb-4498-b84d-f5aef0700119,Owner 4634,+91XXXXXXXXXX,,Mumbai,IN,Seller,Generated
9ee3df5f-2f5b-42e4-995e-c430c64e5474,Owner 1011,+91XXXXXXXXXX,,Mumbai,IN,Seller,Generated
0b7aebbe-6f8a-4672-a113-691f7db5c59e,Owner 2006,+91XXXXXXXXXX,,Delhi,IN,Seller,Generated
138da410-e505-43a7-ab8d-156f22928974,Owner 3903,+91XXXXXXXXXX,,New York,IN,Seller,Generated
e4df9a94-e701-4396-bcf0-5ee66b73fd45,Owner 3167,+91XXXXXXXXXX,,London,IN,Seller,Generated
a5e6fae1-e67b-4051-8e44-e97c4107b402,Owner 1147,+91XXXXXXXXXX,,London,IN,Seller,Generated
2664d448-7507-4f8e-bbaa-2efefee3868a,Owner 5605,+91XXXXXXXXXX,,Mumbai,IN,Seller,Generated
4bf30811-4e07-4882-9fb3-3ca756ae8f81,Owner 2526,+91XXXXXXXXXX,,Delhi,IN,Seller,Generated
743914b2-6877-4578-a5cd-68afd978b63a,Owner 8568,+91XXXXXXXXXX,,London,IN,Seller,Generated
5cb773fe-cf7c-4a03-aa44-a90c93b51253,Owner 3021,+91XXXXXXXXXX,,Delhi,IN,Seller,Generated
64149ceb-1ed9-4dc0-bd99-ab58ce6b3151,Owner 8255,+91XXXXXXXXXX,,New York,IN,Seller,Generated
9b0ba26b-0da1-4004-9ec2-f5aac51cf30c,Owner 2870,+91XXXXXXXXXX,,Mumbai,IN,Seller,Generated
e238a30d-08da-4e28-a999-efbb0d3c414a,Owner 7538,+91XXXXXXXXXX,,Mumbai,IN,Seller,Generated
89ca8dde-cea5-41b1-bde6-7a99531a2a83,Owner 4303,+91XXXXXXXXXX,,London,IN,Seller,Generated
b20e9018-305a-454e-86a0-5d9f73795bf0,Owner 2115,+91XXXXXXXXXX,,Delhi,IN,Seller,Generated
245f9c1a-6362-43b7-9c20-3063788b02de,Owner 946,+91XXXXXXXXXX,,New York,IN,Seller,Generated
69369ba3-fc4a-478c-aa27-e5b797ad90c6,Owner 6436,+91XXXXXXXXXX,,Delhi,IN,Seller,Generated
5bb278a7-24c1-4828-a928-c6fdf2ff8db7,Owner 9912,+91XXXXXXXXXX,,Mumbai,IN,Seller,Generated
c2adf038-7a80-4388-829f-b4f59e4b5563,Owner 8325,+91XXXXXXXXXX,,Delhi,IN,Seller,Generated
53fe75ba-e2ac-4eb1-9e31-062987a26493,Owner 5871,+91XXXXXXXXXX,,Delhi,IN,Seller,Generated
81bbe868-85b7-42e8-9d18-afd4c86b52e7,Owner 8411,+91XXXXXXXXXX,,Delhi,IN,Seller,Generated
c1caf8ed-fc5f-4ca8-b157-8b6bbb739aac,Owner 7084,+91XXXXXXXXXX,,New York,IN,Seller,Generated
a24a056f-ee70-4a0e-832c-f16022a9929f,Owner 658,+91XXXXXXXXXX,,New York,IN,Seller,Generated
5353f194-862b-488e-995e-6b51e9a01048,Owner 9989,+91XXXXXXXXXX,,Mumbai,IN,Seller,Generated
899f67f5-0a4c-4cf4-ad60-8617738d244d,Owner 5270,+91XXXXXXXXXX,,Mumbai,IN,Seller,Generated
99fb58f3-0684-40dd-99bc-95c24201e427,Owner 2914,+91XXXXXXXXXX,,Delhi,IN,Seller,Generated
1b1973fd-601a-4a5b-bb01-cd366ac74322,Owner 877,+91XXXXXXXXXX,,Mumbai,IN,Seller,Generated
75ea15af-8c3c-4439-a1b5-55caed34f1aa,Owner 8174,+91XXXXXXXXXX,,Delhi,IN,Seller,Generated
c7a6c7cd-4865-4d03-8e04-3a49de3abc76,Owner 1279,+91XXXXXXXXXX,,New York,IN,Seller,Generated
56d6754f-5acb-4f06-a170-3a0f95b4c581,Owner 4675,+91XXXXXXXXXX,,New York,IN,Seller,Generated
b6babd88-5cb7-470f-b032-718e621f0d85,Owner 2967,+91XXXXXXXXXX,,New York,IN,Seller,Generated
7175b217-79ff-44c9-b7f8-17c93e91cc50,Owner 6038,+91XXXXXXXXXX,,Mumbai,IN,Seller,Generated
1110bdb2-30e5-4fb4-bc64-41ac6a12b10f,Owner 9690,+91XXXXXXXXXX,,London,IN,Seller,Generated
ca131b65-e0e4-4357-8ebb-a7dd811f7dc7,Owner 8183,+91XXXXXXXXXX,,London,IN,Seller,Generated
035555c0-5d2c-4d04-ab30-de4da879c14d,Owner 885,+91XXXXXXXXXX,,New York,IN,Seller,Generated
6c5d28da-3ae2-4e21-aa1a-bab9595e95a2,Owner 2173,+91XXXXXXXXXX,,Delhi,IN,Seller,Generated
5db94703-d6cd-4876-bb67-78559401a4a4,Owner 6406,+91XXXXXXXXXX,,Mumbai,IN,Seller,Generated
bc3c5a6f-f4c9-4dc1-b4fc-dcb4ce8b18f8,Owner 1072,+91XXXXXXXXXX,,New York,IN,Seller,Generated
f0eba559-97da-4bf8-bd53-1febd18b2b21,Owner 892,+91XXXXXXXXXX,,Delhi,IN,Seller,Generated
3498aa98-d2ba-4538-9d43-ed6f094ad4ce,Owner 8998,+91XXXXXXXXXX,,Delhi,IN,Seller,Generated
4ae406e3-4946-4f0a-b906-2ab90d1918e8,Owner 9165,+91XXXXXXXXXX,,New York,IN,Seller,Generated
c794c56a-ce3f-43c9-bff9-f173b7e7a994,Owner 6156,+91XXXXXXXXXX,,New York,IN,Seller,Generated
3386b79d-0165-42a0-90e2-19b8344a9e29,Owner 9643,+91XXXXXXXXXX,,Mumbai,IN,Seller,Generated
2ba2f005-df90-4b96-8ea3-3adca27b74b9,Owner 2590,+91XXXXXXXXXX,,Delhi,IN,Seller,Generated
1cfc71f8-c048-4659-9cc6-27e66500fc91,Owner 9505,+91XXXXXXXXXX,,Delhi,IN,Seller,Generated
dcd8969b-8579-49db-a802-cbe727afb297,Owner 4615,+91XXXXXXXXXX,,Mumbai,IN,Seller,Generated
fc4e626e-9495-4d5a-8c8f-224be76f2713,Owner 936,+91XXXXXXXXXX,,Delhi,IN,Seller,Generated
c59b714b-70a4-41ce-9653-c36973010333,Owner 2382,+91XXXXXXXXXX,,London,IN,Seller,Generated
48b6198f-7b43-458b-990a-94ff1bbf06ec,Owner 1087,+91XXXXXXXXXX,,Mumbai,IN,Seller,Generated
34636e3e-c9b5-4247-b60d-e68243d5ffb1,Owner 6772,+91XXXXXXXXXX,,New York,IN,Seller,Generated
7a9ce830-be18-4ca9-b0a4-cd5b7bff44c5,Owner 731,+91XXXXXXXXXX,,New York,IN,Seller,Generated
af2dbb18-ac05-4d98-8a5f-fc7e02131cce,Owner 5886,+91XXXXXXXXXX,,London,IN,Seller,Generated
6c28eff9-fcbe-4289-bb50-82e1cdbb2b17,Owner 5934,+91XXXXXXXXXX,,Delhi,IN,Seller,Generated
d32886c4-7041-4bf9-8d02-3ec12f54440c,Owner 9744,+91XXXXXXXXXX,,London,IN,Seller,Generated
101cfbd5-420b-475c-b125-a01e38d11cb1,Owner 172,+91XXXXXXXXXX,,New York,IN,Seller,Generated
d038c1e5-8e4e-4a8e-9571-94614374e950,Owner 6530,+91XXXXXXXXXX,,Delhi,IN,Seller,Generated
bd99a4bc-8705-4da9-8d3a-721ca53e13c9,Owner 6017,+91XXXXXXXXXX,,Mumbai,IN,Seller,Generated
3e7349a0-93aa-4f11-bfc4-ff797bc571f4,Owner 5083,+91XXXXXXXXXX,,New York,IN,Seller,Generated
1758cd36-925d-4122-aad1-a490f69df983,Owner 3932,+91XXXXXXXXXX,,New York,IN,Seller,Generated
5c70e3af-f980-4b22-9a90-cbbdbac29e2d,Owner 2606,+91XXXXXXXXXX,,Mumbai,IN,Seller,Generated
1082f0ca-af95-4530-a71e-bc5aa2107b82,Owner 6962,+91XXXXXXXXXX,,New York,IN,Seller,Generated
c6be420c-befd-4a1b-ad86-c7589d352567,Owner 8017,+91XXXXXXXXXX,,New York,IN,Seller,Generated
83a925ae-70a2-44ca-82d4-34f7fe6d3c35,Owner 3609,+91XXXXXXXXXX,,Delhi,IN,Seller,Generated
6b15cb8c-05d0-4c22-892d-483a39003658,Owner 1325,+91XXXXXXXXXX,,Delhi,IN,Seller,Generated
1b6efb61-61c4-4530-b61c-363d1afb5c16,Owner 5740,+91XXXXXXXXXX,,Mumbai,IN,Seller,Generated
62c4a059-03fa-4f7f-ba9b-db2b9ea13b5b,Owner 2542,+91XXXXXXXXXX,,Delhi,IN,Seller,Generated
07ae4914-b704-4811-a743-43275e00b9f8,Owner 3361,+91XXXXXXXXXX,,London,IN,Seller,Generated
b9ca712d-6ee1-46cb-889d-070f45147adf,Owner 3209,+91XXXXXXXXXX,,London,IN,Seller,Generated
741fe9ef-8298-4b2c-aaf0-5a9d9fb58e0b,Owner 5495,+91XXXXXXXXXX,,Mumbai,IN,Seller,Generated
201c3aca-db60-48a3-b11d-aae73cdee3db,Owner 7108,+91XXXXXXXXXX,,London,IN,Seller,Generated
1440490f-6761-45cc-8fe1-5d2d19465d0a,Owner 8075,+91XXXXXXXXXX,,Delhi,IN,Seller,Generated
49dc0646-1bcc-44d8-a032-9bff1f413635,Owner 1471,+91XXXXXXXXXX,,New York,IN,Seller,Generated
ea54a767-7511-4bdf-93f4-e2b4272c54d2,Owner 4261,+91XXXXXXXXXX,,New York,IN,Seller,Generated
153eef41-51b0-4d7a-9d67-f545803d776a,Owner 1999,+91XXXXXXXXXX,,Delhi,IN,Seller,Generated
65123290-c889-4006-be89-0b339e23202b,Owner 2997,+91XXXXXXXXXX,,Delhi,IN,Seller,Generated
bb43fba6-5156-49f4-a48c-2d37ed4dff87,Owner 6972,+91XXXXXXXXXX,,Delhi,IN,Seller,Generated
fcb3ffa6-f1d8-4f71-9d1b-26c2f4cbe799,Owner 1047,+91XXXXXXXXXX,,Delhi,IN,Seller,Generated
64a3218b-cf93-4331-b1cc-3b167e0a6b78,Owner 537,+91XXXXXXXXXX,,Delhi,IN,Seller,Generated
36f4709e-36af-4de8-bb83-efc6d28f2030,Owner 7944,+91XXXXXXXXXX,,New York,IN,Seller,Generated
bf41b044-6f3d-4b78-a0eb-01196b68e756,Owner 7206,+91XXXXXXXXXX,,Delhi,IN,Seller,Generated
a41c19f7-405a-4f60-96c1-6fc4e4f02a9b,Owner 4304,+91XXXXXXXXXX,,New York,IN,Seller,Generated
b407da46-328a-499a-bc15-aff4d797b45b,Owner 2109,+91XXXXXXXXXX,,New York,IN,Seller,Generated
23774797-936b-4a1c-90c5-a8bbfbff29f6,Owner 8534,+91XXXXXXXXXX,,New York,IN,Seller,Generated
30da4524-af25-483a-94e2-b84f0534d3f9,Owner 5765,+91XXXXXXXXXX,,New York,IN,Seller,Generated
9ddcf889-310c-404b-848a-5fd4c9810351,Owner 1498,+91XXXXXXXXXX,,New York,IN,Seller,Generated
4b73dd66-49d1-464f-a9c6-2883db415f50,Owner 2457,+91XXXXXXXXXX,,New York,IN,Seller,Generated
943e7de4-27f8-471f-a2ad-305fe61b540b,Owner 5607,+91XXXXXXXXXX,,Mumbai,IN,Seller,Generated
fa897565-4f71-4410-a706-06a834f13a4c,Owner 8745,+91XXXXXXXXXX,,Mumbai,IN,Seller,Generated
d44f7335-5655-409f-8cef-d322884e8073,Owner 1235,+91XXXXXXXXXX,,New York,IN,Seller,Generated
8fc559f9-4d99-4fd7-99b8-aec4c3af6877,Owner 7392,+91XXXXXXXXXX,,Delhi,IN,Seller,Generated
dcda8295-7853-41f6-834c-b554dace3179,Owner 48,+91XXXXXXXXXX,,Mumbai,IN,Seller,Generated
9aca9d44-5036-4bb3-abc5-ac0c7f1990eb,Owner 9695,+91XXXXXXXXXX,,London,IN,Seller,Generated
c4022f68-b04f-4416-91c2-0b603c255654,Owner 5351,+91XXXXXXXXXX,,Delhi,IN,Seller,Generated
f44cc97c-4cff-4761-9563-765530bf22e7,Owner 2688,+91XXXXXXXXXX,,New York,IN,Seller,Generated
697afe28-a6c8-4d85-8886-01fd94e21163,Owner 345,+91XXXXXXXXXX,,London,IN,Seller,Generated
dfe75bfc-f73c-48a8-bbd1-806ada2daae7,Owner 7723,+91XXXXXXXXXX,,Delhi,IN,Seller,Generated
2b7f677e-dc76-4370-ad44-c78c5f359b45,Owner 5541,+91XXXXXXXXXX,,New York,IN,Seller,Generated
1f8ba90a-d0bc-4e34-9319-4ce6ff691022,Owner 8556,+91XXXXXXXXXX,,Delhi,IN,Seller,Generated
bbeaece2-4bd3-4e80-9dc1-5b61a8cb5188,Owner 1537,+91XXXXXXXXXX,,Delhi,IN,Seller,Generated
a7f23746-4061-4f25-925d-6e67b3db68c8,Owner 5662,+91XXXXXXXXXX,,Mumbai,IN,Seller,Generated
e4770c1a-d1d2-4e24-9511-bdb224d3cf8f,Owner 4297,+91XXXXXXXXXX,,London,IN,Seller,Generated
fb9ff6d0-aab3-4360-afcb-e9d45d517884,Owner 6006,+91XXXXXXXXXX,,London,IN,Seller,Generated
fa747eab-65fd-4649-b148-c5b4b5edb242,Owner 89,+91XXXXXXXXXX,,New York,IN,Seller,Generated
33d8806f-c14c-402d-b76b-3a9e8cc5a0f9,Owner 2867,+91XXXXXXXXXX,,New York,IN,Seller,Generated
a85da7a6-5d89-4ada-99d8-9d214423bd47,Owner 3684,+91XXXXXXXXXX,,London,IN,Seller,Generated
277db692-0e8d-4d40-b55e-41b1edbe7392,Owner 3753,+91XXXXXXXXXX,,London,IN,Seller,Generated
0f69969e-2548-4f3d-a9e5-df89b56a1b8b,Owner 1059,+91XXXXXXXXXX,,New York,IN,Seller,Generated
1664688c-a47e-44ad-a358-d2de4b93c4bf,Owner 2031,+91XXXXXXXXXX,,New York,IN,Seller,Generated
033dd1ad-3497-455e-bed6-053be54c23ec,Owner 5603,+91XXXXXXXXXX,,London,IN,Seller,Generated
70f7f991-c3cd-428b-ad19-575a10ab3d75,Owner 9287,+91XXXXXXXXXX,,New York,IN,Seller,Generated
35a0d775-0445-40dc-abde-aa3fc8005559,Owner 7708,+91XXXXXXXXXX,,London,IN,Seller,Generated
bd928c53-a32f-4885-a3fd-f3ef563c25d8,Owner 7669,+91XXXXXXXXXX,,Delhi,IN,Seller,Generated
6181a221-0fd7-49a2-9684-f54b69c218c5,Owner 8565,+91XXXXXXXXXX,,Delhi,IN,Seller,Generated
065b2c9d-19fc-4006-bc3a-5e352cc364fe,Owner 6515,+91XXXXXXXXXX,,Mumbai,IN,Seller,Generated
bf3e2799-f351-4189-8922-2a287559ed54,Owner 4011,+91XXXXXXXXXX,,Delhi,IN,Seller,Generated
5e1deaa3-c2a4-4439-8e40-beb1fa9975eb,Owner 6836,+91XXXXXXXXXX,,Mumbai,IN,Seller,Generated
0dd4210f-5036-482e-a568-b3b5c5b0ae02,Owner 196,+91XXXXXXXXXX,,Mumbai,IN,Seller,Generated
1c2d6529-58e7-465c-91bb-c0c9787d56ad,Owner 7287,+91XXXXXXXXXX,,Mumbai,IN,Seller,Generated
7867e221-a169-405d-86d3-f32e88c5a755,Owner 4282,+91XXXXXXXXXX,,Delhi,IN,Seller,Generated
882f9fd8-02bf-4b14-a8c0-fe4657a3d5c7,Owner 4421,+91XXXXXXXXXX,,Delhi,IN,Seller,Generated
c12c583f-91ed-4fb2-acbd-95aba8ad12ce,Owner 4692,+91XXXXXXXXXX,,New York,IN,Seller,Generated
37258bcf-5f60-43b9-afb2-889bef124e05,Owner 7314,+91XXXXXXXXXX,,Mumbai,IN,Seller,Generated
b07b49d5-4847-4b6d-ac9e-6ae749ba2e00,Owner 6200,+91XXXXXXXXXX,,Delhi,IN,Seller,Generated
9bfba354-17a7-4677-b91a-fb8fc8631cfb,Owner 7814,+91XXXXXXXXXX,,London,IN,Seller,Generated
afb69e48-447a-4336-aefa-33b0e28bf870,Owner 5651,+91XXXXXXXXXX,,New York,IN,Seller,Generated
542560e0-fe6f-4b52-a8cb-506ea545a7d1,Owner 4958,+91XXXXXXXXXX,,Delhi,IN,Seller,Generated
3ff150d4-0080-4d8d-b881-9e49d43fa957,Owner 4549,+91XXXXXXXXXX,,London,IN,Seller,Generated
350abaf9-c494-4ae6-ac97-d1483cd16e8b,Owner 3259,+91XXXXXXXXXX,,London,IN,Seller,Generated
4b46042d-0659-4428-9582-e4916da08d80,Owner 9646,+91XXXXXXXXXX,,Delhi,IN,Seller,Generated
f12a0ea7-2b76-4cb4-a638-a27c20381a6f,Owner 2161,+91XXXXXXXXXX,,London,IN,Seller,Generated
c763793a-2e07-4a18-aaa9-da128ff2f1b8,Owner 5180,+91XXXXXXXXXX,,Delhi,IN,Seller,Generated
749c4c4d-c32d-45fd-bc8c-5acfbe05c705,Owner 2718,+91XXXXXXXXXX,,London,IN,Seller,Generated
d465b535-279e-432c-a671-e30bc570b4a9,Owner 5469,+91XXXXXXXXXX,,Mumbai,IN,Seller,Generated
bf3fc277-e689-46b1-ba57-d372d27c7887,Owner 16,+91XXXXXXXXXX,,New York,IN,Seller,Generated
1aba3b19-5c71-4d86-90a5-124637bc4c13,Owner 3375,+91XXXXXXXXXX,,London,IN,Seller,Generated
1916f111-b55c-4387-bd19-4d81fd0b0dfb,Owner 6994,+91XXXXXXXXXX,,London,IN,Seller,Generated
ced72da3-2cc9-4078-bf2d-bf0b7571ae68,Owner 5512,+91XXXXXXXXXX,,Mumbai,IN,Seller,Generated
95236256-23d3-4e6b-8930-2f7162bfd517,Owner 5805,+91XXXXXXXXXX,,New York,IN,Seller,Generated
fad16c3f-8cbe-434b-8975-27ad59cba1ac,Owner 7949,+91XXXXXXXXXX,,New York,IN,Seller,Generated
71d43b65-c294-4cc0-beda-e95e6354e302,Owner 1432,+91XXXXXXXXXX,,New York,IN,Seller,Generated
59bfd2ac-208f-4863-bdc8-19b4227a7445,Owner 9646,+91XXXXXXXXXX,,London,IN,Seller,Generated
6d2ce410-211c-415c-a4c8-56dd06d3a25b,Owner 5515,+91XXXXXXXXXX,,Delhi,IN,Seller,Generated
40397dae-a91f-4c78-8890-2355f09003f0,Owner 7335,+91XXXXXXXXXX,,London,IN,Seller,Generated
8e62be0d-d912-46b7-a71e-b03d252c8f4c,Owner 4860,+91XXXXXXXXXX,,Delhi,IN,Seller,Generated
f8f23890-91d5-44da-9ddc-ccc937f69dab,Owner 1725,+91XXXXXXXXXX,,Mumbai,IN,Seller,Generated
70c27ef0-e9aa-4300-bdc9-b415670cb87e,Owner 588,+91XXXXXXXXXX,,New York,IN,Seller,Generated
6f164d1d-903e-4505-98d0-5a700547b1a9,Owner 2913,+91XXXXXXXXXX,,New York,IN,Seller,Generated
48283a7c-60e5-462d-b25f-7aa30c9f5ed6,Owner 4553,+91XXXXXXXXXX,,Delhi,IN,Seller,Generated
d8192eb8-8a36-4000-aa09-314350d6ac09,Owner 7464,+91XXXXXXXXXX,,London,IN,Seller,Generated
fa854d63-7f93-4b36-a8fe-fcd1c8343a01,Owner 9723,+91XXXXXXXXXX,,Delhi,IN,Seller,Generated
4e5235d8-42ec-4e71-a43b-ec6c53dce10a,Owner 5857,+91XXXXXXXXXX,,London,IN,Seller,Generated
a00ec4cf-b15f-4bcf-a5ce-09905b7114f0,Owner 9762,+91XXXXXXXXXX,,Mumbai,IN,Seller,Generated
c4ca5254-d6e5-42d3-8cc0-6bdda7912927,Owner 9813,+91XXXXXXXXXX,,London,IN,Seller,Generated
c6ccc3a0-fba1-4c35-be2a-e62a79cf4ac9,Owner 5545,+91XXXXXXXXXX,,New York,IN,Seller,Generated
88344314-c612-4e3f-96df-653dc53c1193,Owner 955,+91XXXXXXXXXX,,Delhi,IN,Seller,Generated
9d3b044f-edd5-4a56-b9ce-6a5e1fcfc4eb,Owner 1758,+91XXXXXXXXXX,,New York,IN,Seller,Generated
12d3148b-7431-4f37-bcd5-f0d931972fe7,Owner 6322,+91XXXXXXXXXX,,New York,IN,Seller,Generated
3182d994-e5c9-48d1-bef4-cd448d3b143d,Owner 1355,+91XXXXXXXXXX,,Delhi,IN,Seller,Generated
da6986c5-c039-4904-88ad-210c85bcee64,Owner 2551,+91XXXXXXXXXX,,London,IN,Seller,Generated
a52a9ba1-60a7-4e63-af62-ad222b22eb50,Owner 563,+91XXXXXXXXXX,,New York,IN,Seller,Generated
1d43d9af-a2e0-4782-8bd0-2ac17dab544a,Owner 9356,+91XXXXXXXXXX,,Delhi,IN,Seller,Generated
c1a14adc-e300-413c-9854-5b8f0272c82c,Owner 898,+91XXXXXXXXXX,,London,IN,Seller,Generated
36779e60-e332-43e1-a8e4-dd4237ec596f,Owner 8576,+91XXXXXXXXXX,,Delhi,IN,Seller,Generated
6ae37a9a-8d67-41f3-a003-b7736004ef4e,Owner 2467,+91XXXXXXXXXX,,New York,IN,Seller,Generated
dbb53933-7550-4e0a-b4d9-6816a5cfdf8f,Owner 1452,+91XXXXXXXXXX,,Mumbai,IN,Seller,Generated
f26009f9-afa0-45f9-8961-52a938d7964f,Owner 5991,+91XXXXXXXXXX,,London,IN,Seller,Generated
48520784-9cc0-458b-b887-90545e3723ce,Owner 9705,+91XXXXXXXXXX,,New York,IN,Seller,Generated
