lead_id,name,phone,email,city,country,type,notes
0debf344-b26b-424b-88e6-fe7caf2adff8,Owner 4580,+91XXXXXXXXXX,,Mumbai,IN,Seller,Generated
c48a7561-5235-443e-b75f-a83d9ecf97fb,Owner 5284,+91XXXXXXXXXX,,Delhi,IN,Seller,Generated
290ba000-2660-4e2e-9321-0c963c967cdc,Owner 7418,+91XXXXXXXXXX,,London,IN,Seller,Generated
b399d8ac-cdd0-4661-8fd9-72fcd23d5870,Owner 8903,+91XXXXXXXXXX,,London,IN,Seller,Generated
3d1d097b-93ae-477b-947a-45cce3c1f2ce,Owner 4979,+91XXXXXXXXXX,,Delhi,IN,Seller,Generated
b41423e2-e811-4f81-a1d9-dd787eb3d603,Owner 5132,+91XXXXXXXXXX,,New York,IN,Seller,Generated
726b756d-6fe7-4390-b5d2-be31a4111b59,Owner 6917,+91XXXXXXXXXX,,Delhi,IN,Seller,Generated
7a3c153d-101d-422f-baa3-f60149abb320,Owner 1202,+91XXXXXXXXXX,,Mumbai,IN,Seller,Generated
02fb75b2-027a-42a4-9c26-fdb0e66c469e,Owner 3035,+91XXXXXXXXXX,,London,IN,Seller,Generated
114dfd2a-5511-4a5a-a2c7-028e07927e95,Owner 7887,+91XXXXXXXXXX,,Mumbai,IN,Seller,Generated
7d18771c-ab0a-4336-8113-8223e7ef8f73,Owner 331,+91XXXXXXXXXX,,Mumbai,IN,Seller,Generated
fcca77c7-fc3e-46e4-b6e5-437bce92502d,Owner 1586,+91XXXXXXXXXX,,London,IN,Seller,Generated
f6ad7549-fddb-49ff-a081-834f1b9ec981,Owner 6657,+91XXXXXXXXXX,,New York,IN,Seller,Generated
5e8e678a-7a90-475a-ba70-56085e851d2f,Owner 321,+91XXXXXXXXXX,,London,IN,Seller,Generated
a904dcbd-31af-4ac7-9e1f-d44c28dac50c,Owner 4895,+91XXXXXXXXXX,,New York,IN,Seller,Generated
9b747914-fd22-4129-b517-4c26f91326f2,Owner 5116,+91XXXXXXXXXX,,Mumbai,IN,Seller,Generated
d569194a-3149-4a75-968a-3a092bb47de9,Owner 6737,+91XXXXXXXXXX,,Delhi,IN,Seller,Generated
d28a9722-97f6-4954-be31-75f17e3d9f10,Owner 3852,+91XXXXXXXXXX,,London,IN,Seller,Generated
c8dd2bf7-dbd3-46c2-b1f8-5d79c1bf7ebb,Owner 4150,+91XXXXXXXXXX,,New York,IN,Seller,Generated
850da072-d821-4f7f-aa59-1adf31120ed4,Owner 3119,+91XXXXXXXXXX,,Mumbai,IN,Seller,Generated
8c594673-0fc8-4bc0-b355-ad38c228cd0c,Owner 5739,+91XXXXXXXXXX,,Mumbai,IN,Seller,Generated
c1f4ffe7-3fab-4d46-b5a3-68caf1ccdd7f,Owner 2720,+91XXXXXXXXXX,,London,IN,Seller,Generated
a2512e19-f3aa-4755-8348-75e108b575f3,Owner 3594,+91XXXXXXXXXX,,London,IN,Seller,Generated
13c16894-f30b-43a1-91c7-7044f007f619,Owner 109,+91XXXXXXXXXX,,Delhi,IN,Seller,Generated
c79c3dfb-97f6-4fb8-8585-08dbe00a3df2,Owner 3942,+91XXXXXXXXXX,,Delhi,IN,Seller,Generated
7a8d8c1e-ada0-431d-994a-1d01db8b3327,Owner 4388,+91XXXXXXXXXX,,London,IN,Seller,Generated
4da9eb91-9f92-4c31-a2d6-4818e0d722b3,Owner 2643,+91XXXXXXXXXX,,London,IN,Seller,Generated
dfed1f67-c5fc-40eb-af92-a461062ee6a7,Owner 5984,+91XXXXXXXXXX,,Delhi,IN,Seller,Generated
ea4d7c1d-67ee-4cfc-ac4f-08a80930cd2b,Owner 8191,+91XXXXXXXXXX,,Delhi,IN,Seller,Generated
ec91cbc4-d1c5-4db7-8a06-b533f29b559f,Owner 7867,+91XXXXXXXXXX,,New York,IN,Seller,Generated
94e60262-58f9-49d2-8818-bd8381b479a4,Owner 7261,+91XXXXXXXXXX,,New York,IN,Seller,Generated
3acdf6bd-10bb-4d34-b87b-2490c9c33850,Owner 5206,+91XXXXXXXXXX,,Mumbai,IN,Seller,Generated
30e06a56-52ee-4300-9db2-5768dfa19200,Owner 710,+91XXXXXXXXXX,,New York,IN,Seller,Generated
1447634d-5871-40c6-b17d-14846466acd9,Owner 5289,+91XXXXXXXXXX,,New York,IN,Seller,Generated
c60a488d-237e-4e31-a70a-b879c49aba8a,Owner 4447,+91XXXXXXXXXX,,Mumbai,IN,Seller,Generated
22fa8efd-ea56-42a3-9eb9-2b45a89da06b,Owner 3486,+91XXXXXXXXXX,,London,IN,Seller,Generated
7f6ee6db-a7d3-47c8-99ab-c31d495a3179,Owner 6023,+91XXXXXXXXXX,,London,IN,Seller,Generated
55822c7d-f0cd-40e4-a77c-d6b046329e1a,Owner 4417,+91XXXXXXXXXX,,New York,IN,Seller,Generated
e587311b-981b-4aaf-8e4c-3c25b6724456,Owner 506,+91XXXXXXXXXX,,London,IN,Seller,Generated
74d6c385-5de8-411a-a3f4-e099546db6ee,Owner 9575,+91XXXXXXXXXX,,Delhi,IN,Seller,Generated
1e4e943c-3b15-4606-ae6d-e9c7e8ffb7ba,Owner 6908,+91XXXXXXXXXX,,Mumbai,IN,Seller,Generated
671d2eda-6e9b-4ebd-b6ad-0ffe085ecebf,Owner 773,+91XXXXXXXXXX,,New York,IN,Seller,Generated
13e3cde5-57c4-454d-affc-e9817b4401c2,Owner 9116,+91XXXXXXXXXX,,Mumbai,IN,Seller,Generated
d09f3461-5ede-48c5-ad19-57701c6d9f26,Owner 8892,+91XXXXXXXXXX,,New York,IN,Seller,Generated
a9983025-01d5-42a3-a2f5-20f1500ff849,Owner 873,+91XXXXXXXXXX,,Delhi,IN,Seller,Generated
b7e43bdc-237b-4f46-974d-6f875e09c41e,Owner 8913,+91XXXXXXXXXX,,Mumbai,IN,Seller,Generated
8afccb6f-469b-4c51-af2e-6edb4a39f05c,Owner 1105,+91XXXXXXXXXX,,Mumbai,IN,Seller,Generated
f4c6e4bc-117c-422a-a273-e4cd268e74f1,Owner 6535,+91XXXXXXXXXX,,New York,IN,Seller,Generated
f68971c3-3527-4c37-8ed9-f2fd8d8b4ba2,Owner 6651,+91XXXXXXXXXX,,New York,IN,Seller,Generated
a771d334-92a5-4a24-bbd4-f7df04a5dc76,Owner 8507,+91XXXXXXXXXX,,New York,IN,Seller,Generated
958477c2-e49e-40cc-86a1-34aa2d92ef7c,Owner 6761,+91XXXXXXXXXX,,London,IN,Seller,Generated
259a6df7-e4be-4ce0-a9de-5d5121e4af57,Owner 7971,+91XXXXXXXXXX,,London,IN,Seller,Generated
437dcb76-da6d-4945-b661-4e714e2b1054,Owner 7791,+91XXXXXXXXXX,,London,IN,Seller,Generated
925e9bd5-da87-42fc-9461-3470ae04882f,Owner 5044,+91XXXXXXXXXX,,New York,IN,Seller,Generated
d209e0a2-d950-46e9-81d2-48a6296a8583,Owner 5785,+91XXXXXXXXXX,,Mumbai,IN,Seller,Generated
7000358f-3b2b-4e7b-8dcc-025015735314,Owner 3035,+91XXXXXXXXXX,,Delhi,IN,Seller,Generated
daee4396-cf9e-44f2-85f5-fabd6909a03e,Owner 3703,+91XXXXXXXXXX,,New York,IN,Seller,Generated
ad2aeeae-f39f-46e9-8cc8-1688bb06c813,Owner 7705,+91XXXXXXXXXX,,New York,IN,Seller,Generated
dff4e038-cdda-4ba8-be1c-81b918730efc,Owner 1687,+91XXXXXXXXXX,,London,IN,Seller,Generated
94b37863-f5b8-4bf6-b4ab-27703ebf0b28,Owner 4010,+91XXXXXXXXXX,,New York,IN,Seller,Generated
4b51dc23-a843-4b80-9a51-9b91c45eb06b,Owner 7465,+91XXXXXXXXXX,,Delhi,IN,Seller,Generated
4eb35b5b-b5f0-4d9f-98a4-4ee0f3ebb6fd,Owner 5316,+91XXXXXXXXXX,,London,IN,Seller,Generated
50ef5361-90d1-44de-95dd-0c86343be9b8,Owner 2558,+91XXXXXXXXXX,,New York,IN,Seller,Generated
3433249b-e096-4275-b87e-d875a36dbb51,Owner 9501,+91XXXXXXXXXX,,New York,IN,Seller,Generated
367a85c2-a375-46d1-983d-a172aa367dac,Owner 7782,+91XXXXXXXXXX,,Delhi,IN,Seller,Generated
5b1c375a-4a87-403c-a7f7-c187450c4122,Owner 7804,+91XXXXXXXXXX,,Delhi,IN,Seller,Generated
9c5dbb1d-43c2-4065-a37b-51b0b3f27b3e,Owner 3811,+91XXXXXXXXXX,,Delhi,IN,Seller,Generated
9e49dcc0-af36-4888-b1f8-2a9bde0cddd7,Owner 2581,+91XXXXXXXXXX,,Mumbai,IN,Seller,Generated
4b466d57-d6d2-4786-9e43-aececf4e554b,Owner 7229,+91XXXXXXXXXX,,New York,IN,Seller,Generated
ef4b582a-b47e-4139-b1ec-a9a296d9460a,Owner 8631,+91XXXXXXXXXX,,Delhi,IN,Seller,Generated
b2cec7ba-9075-4ff7-bdd2-423bde95e429,Owner 1917,+91XXXXXXXXXX,,London,IN,Seller,Generated
1aa26732-9433-4579-8812-6fb73879f125,Owner 3629,+91XXXXXXXXXX,,London,IN,Seller,Generated
530143f5-85e1-4c8d-bcdb-f488eb2fd496,Owner 9131,+91XXXXXXXXXX,,London,IN,Seller,Generated
f2f5ebbd-01b4-4d9f-b734-c01e14735484,Owner 844,+91XXXXXXXXXX,,Delhi,IN,Seller,Generated
d48fec13-bb42-4979-81a9-ebe24e76421b,Owner 5079,+91XXXXXXXXXX,,Delhi,IN,Seller,Generated
a4e63447-ceb2-4af7-9eae-f22b1715db94,Owner 7160,+91XXXXXXXXXX,,New York,IN,Seller,Generated
53eb556b-5f26-48d9-9f5f-b67763cead18,Owner 7688,+91XXXXXXXXXX,,New York,IN,Seller,Generated
970f1012-96c0-427b-bf9d-7b26394b1f2c,Owner 111,+91XXXXXXXXXX,,New York,IN,Seller,Generated
96105d1d-8267-4c04-8667-3bcf71c5ac2d,Owner 12,+91XXXXXXXXXX,,London,IN,Seller,Generated
c5a8db5d-b7e9-4352-bb95-56d212c5e75a,Owner 2375,+91XXXXXXXXXX,,Delhi,IN,Seller,Generated
41a26c63-d0d4-429a-9ae9-a77a90cbbc65,Owner 145,+91XXXXXXXXXX,,New York,IN,Seller,Generated
3104aa20-379a-46d4-9ae5-2f7cfd71e0e3,Owner 1176,+91XXXXXXXXXX,,London,IN,Seller,Generated
3daead32-b434-4bbc-af4e-7e46a8641430,Owner 553,+91XXXXXXXXXX,,Mumbai,IN,Seller,Generated
b56801ac-4b21-4d04-8463-db14fbb7afbf,Owner 3492,+91XXXXXXXXXX,,Mumbai,IN,Seller,Generated
b351160e-c10c-49f0-93a3-9dc4c8824d64,Owner 8267,+91XXXXXXXXXX,,London,IN,Seller,Generated
40fca24d-5c74-4965-8977-2bd31b3c1dfb,Owner 2098,+91XXXXXXXXXX,,Delhi,IN,Seller,Generated
9ffa2973-6043-4a9e-b268-9db8417a225c,Owner 5026,+91XXXXXXXXXX,,London,IN,Seller,Generated
e0fd948f-fc11-4ee0-880c-9807942672ae,Owner 539,+91XXXXXXXXXX,,London,IN,Seller,Generated
2da0f8a2-90f6-4eac-bd7d-22581644e160,Owner 3136,+91XXXXXXXXXX,,London,IN,Seller,Generated
e2777833-c894-4d0e-8336-d06138cb34ab,Owner 5938,+91XXXXXXXXXX,,New York,IN,Seller,Generated
7facb7f3-d70f-4357-acb4-0e5eadcc39d9,Owner 9,+91XXXXXXXXXX,,Delhi,IN,Seller,Generated
811a92a1-5e25-45fb-8c96-055c93ce6be7,Owner 4342,+91XXXXXXXXXX,,Delhi,IN,Seller,Generated
abf4261d-248d-4904-b252-125b7b183344,Owner 3876,+91XXXXXXXXXX,,New York,IN,Seller,Generated
a2744db1-6a23-4c6d-816a-1047bdaf87d8,Owner 2052,+91XXXXXXXXXX,,Mumbai,IN,Seller,Generated
a561009b-d8de-414c-aec0-80af666e5d77,Owner 4263,+91XXXXXXXXXX,,Mumbai,IN,Seller,Generated
04475e2a-fff4-4270-b4eb-1965fe0b2ee1,Owner 2060,+91XXXXXXXXXX,,Mumbai,IN,Seller,Generated
716b830f-7825-4d2b-8f6b-9975c9890d00,Owner 3226,+91XXXXXXXXXX,,London,IN,Seller,Generated
9a90fa0c-fa3d-42ea-982f-4bb01fc62d77,Owner 3143,+91XXXXXXXXXX,,Mumbai,IN,Seller,Generated
a9b87f04-560a-4bfc-9c2b-626a5054576c,Owner 2768,+91XXXXXXXXXX,,London,IN,Seller,Generated
eb4cc818-f41b-4e62-bd00-b8cb6707f31f,Owner 5544,+91XXXXXXXXXX,,Delhi,IN,Seller,Generated
995a6569-d847-4553-8a89-d05775d8990c,Owner 8812,+91XXXXXXXXXX,,London,IN,Seller,Generated
074d774b-5300-425f-a82b-1f9aff6347a6,Owner 9249,+91XXXXXXXXXX,,London,IN,Seller,Generated
cf95a504-8e12-413f-a5a7-6324829a30df,Owner 6473,+91XXXXXXXXXX,,London,IN,Seller,Generated
dabe40e7-c0d4-4e03-b758-ea9be4065780,Owner 5785,+91XXXXXXXXXX,,Mumbai,IN,Seller,Generated
d34349c3-e3ac-4cf1-b826-7ec1f0ae765e,Owner 9465,+91XXXXXXXXXX,,Delhi,IN,Seller,Generated
273fab8e-6dea-43da-adba-a4d28fc6a8e9,Owner 9669,+91XXXXXXXXXX,,London,IN,Seller,Generated
f3ed42b5-2c98-45a4-9d3c-fa16a9bd3588,Owner 5717,+91XXXXXXXXXX,,Mumbai,IN,Seller,Generated
40bd37ea-0ee3-44c7-adae-6512e90a2334,Owner 7206,+91XXXXXXXXXX,,London,IN,Seller,Generated
344f37a8-2b12-45bc-ac54-8fe8594e9d43,Owner 8414,+91XXXXXXXXXX,,Delhi,IN,Seller,Generated
0f353ae3-d362-4bbb-85ec-72e01be18c17,Owner 8450,+91XXXXXXXXXX,,Delhi,IN,Seller,Generated
d4a50dfa-00aa-45ca-b368-3aaf2e90d51a,Owner 8984,+91XXXXXXXXXX,,London,IN,Seller,Generated
8bd28261-94ed-43a5-bcde-76c8652a72d9,Owner 536,+91XXXXXXXXXX,,Mumbai,IN,Seller,Generated
25c845a3-f717-4428-945c-3494a68681d2,Owner 4056,+91XXXXXXXXXX,,New York,IN,Seller,Generated
716e0e47-0a54-4ddf-9142-2be3aa042ed1,Owner 5325,+91XXXXXXXXXX,,Mumbai,IN,Seller,Generated
fd174434-d88b-44be-9637-a73534e95770,Owner 1419,+91XXXXXXXXXX,,London,IN,Seller,Generated
00949417-be0c-4f94-854a-5f7511989f68,Owner 3727,+91XXXXXXXXXX,,London,IN,Seller,Generated
4d2195fe-31de-4ee5-8eed-f8799829078c,Owner 1263,+91XXXXXXXXXX,,Delhi,IN,Seller,Generated
c7b1dee6-9ba9-42b9-ae0d-0605c45c7119,Owner 206,+91XXXXXXXXXX,,London,IN,Seller,Generated
0699fbac-4e60-4132-a93f-f9b2b1344561,Owner 2642,+91XXXXXXXXXX,,New York,IN,Seller,Generated
03f44491-8f4b-406d-8ea6-dcdeddcf8279,Owner 5748,+91XXXXXXXXXX,,London,IN,Seller,Generated
1b153d15-62cb-4b83-aaf8-3a97e53348b8,Owner 4442,+91XXXXXXXXXX,,New York,IN,Seller,Generated
45405813-cf12-4d30-8340-c8d17e9f2e3f,Owner 4704,+91XXXXXXXXXX,,New York,IN,Seller,Generated
e0826f7d-0ce4-4e08-ac17-53044bdc912f,Owner 9540,+91XXXXXXXXXX,,London,IN,Seller,Generated
6f66f2eb-4635-4d57-9ab7-e9ee70af74d4,Owner 9371,+91XXXXXXXXXX,,London,IN,Seller,Generated
b3455248-4cac-4e0f-92e2-1bb3b5320271,Owner 8390,+91XXXXXXXXXX,,London,IN,Seller,Generated
c09d8dd5-91ec-4724-a6a9-e9506b69541d,Owner 5866,+91XXXXXXXXXX,,Mumbai,IN,Seller,Generated
bb819359-b852-492f-ba41-2ce573efe06b,Owner 8939,+91XXXXXXXXXX,,New York,IN,Seller,Generated
503237b7-bede-4d2b-bce5-904b921e9287,Owner 7161,+91XXXXXXXXXX,,Delhi,IN,Seller,Generated
a61198b0-1eb4-4987-a329-b20cfbd9a3b3,Owner 2774,+91XXXXXXXXXX,,London,IN,Seller,Generated
20f5e655-cfb6-4406-8487-b63440ae0114,Owner 5394,+91XXXXXXXXXX,,Mumbai,IN,Seller,Generated
b522134f-c106-41bd-a13b-448cb08f1aa2,Owner 8737,+91XXXXXXXXXX,,New York,IN,Seller,Generated
d611ece0-5c5e-4bfe-8516-df5550c293b2,Owner 9504,+91XXXXXXXXXX,,Delhi,IN,Seller,Generated
e5906139-0f7a-44e7-a749-7c2df3ad7fe4,Owner 2990,+91XXXXXXXXXX,,Delhi,IN,Seller,Generated
11ac89e5-d954-4da7-b811-8451c3faaa93,Owner 3119,+91XXXXXXXXXX,,Delhi,IN,Seller,Generated
0a4ee60d-d489-4e4d-895e-cbfcd22e99e1,Owner 3851,+91XXXXXXXXXX,,Delhi,IN,Seller,Generated
c6e8bb0e-889f-483f-8b13-243c61e4ecec,Owner 4237,+91XXXXXXXXXX,,London,IN,Seller,Generated
64de7734-8230-41a0-a283-aabe6ee60719,Owner 103,+91XXXXXXXXXX,,New York,IN,Seller,Generated
204b5689-7649-4970-94e2-67d576f274da,Owner 6632,+91XXXXXXXXXX,,London,IN,Seller,Generated
9d1a9f86-8100-43c3-a985-3fd8ec1d5ba0,Owner 2775,+91XXXXXXXXXX,,Delhi,IN,Seller,Generated
1ad2c0e2-33b4-47e5-b947-3224ef958f2a,Owner 5644,+91XXXXXXXXXX,,London,IN,Seller,Generated
4b05942c-0a14-40c0-8ceb-5679ad2a7c73,Owner 1931,+91XXXXXXXXXX,,New York,IN,Seller,Generated
4ed991dc-6a71-49ca-85ea-9a12d1c297c2,Owner 5513,+91XXXXXXXXXX,,London,IN,Seller,Generated
a51e0fc6-4ed7-4186-847a-2d0039d82997,Owner 3006,+91XXXXXXXXXX,,Mumbai,IN,Seller,Generated
e7d5d16f-f09e-4720-9b21-aa3fa20734b5,Owner 9269,+91XXXXXXXXXX,,Mumbai,IN,Seller,Generated
9e70579f-4a00-417f-9eb7-153d85de341f,Owner 2460,+91XXXXXXXXXX,,Mumbai,IN,Seller,Generated
e65a4cf8-5c2a-43f2-8697-6faca52fb41e,Owner 409,+91XXXXXXXXXX,,Delhi,IN,Seller,Generated
af356935-658c-4aca-baec-2ecf778becba,Owner 4548,+91XXXXXXXXXX,,New York,IN,Seller,Generated
5d38906c-ab0c-4ebf-b5fb-42def2cbc370,Owner 2261,+91XXXXXXXXXX,,London,IN,Seller,Generated
7a77d7f3-fc24-47ac-af62-48cb33a298cb,Owner 1376,+91XXXXXXXXXX,,Delhi,IN,Seller,Generated
047730db-cf94-46c3-aa05-6906d1f26a5f,Owner 7268,+91XXXXXXXXXX,,London,IN,Seller,Generated
c302d371-899a-495e-8f25-f10be2b34663,Owner 1158,+91XXXXXXXXXX,,Mumbai,IN,Seller,Generated
a0549f70-93e3-4548-8a2f-2607d2abdb04,Owner 1161,+91XXXXXXXXXX,,Mumbai,IN,Seller,Generated
003fbdf0-730b-4be3-bf3f-3e46a7edc8a0,Owner 1524,+91XXXXXXXXXX,,Mumbai,IN,Seller,Generated
4a0af544-2cb3-43b9-a1bf-289d6b576872,Owner 5774,+91XXXXXXXXXX,,Mumbai,IN,Seller,Generated
124036c9-29db-4b28-a748-8be44cca91af,Owner 4270,+91XXXXXXXXXX,,London,IN,Seller,Generated
0f304b3f-30b6-426f-b8ed-c72eccc64d1d,Owner 9869,+91XXXXXXXXXX,,London,IN,Seller,Generated
4c189809-92de-49f8-8ac5-a0a1730f4c04,Owner 5991,+91XXXXXXXXXX,,New York,IN,Seller,Generated
2c1aab73-9cda-4f29-8bfe-150dc7bfe021,Owner 8869,+91XXXXXXXXXX,,London,IN,Seller,Generated
f6ae0f76-6dba-4515-8f36-25198babb7c9,Owner 3282,+91XXXXXXXXXX,,New York,IN,Seller,Generated
fce2eaae-47a7-4d41-b671-9cff3120c65d,Owner 1387,+91XXXXXXXXXX,,London,IN,Seller,Generated
75529b97-9d18-42c4-8d7e-5062156a5511,Owner 3506,+91XXXXXXXXXX,,New York,IN,Seller,Generated
83c4fb03-d4ac-4852-a65d-3edd3ff29355,Owner 6533,+91XXXXXXXXXX,,Delhi,IN,Seller,Generated
c28d86d6-690d-4037-8e34-eba4b753fd92,Owner 9671,+91XXXXXXXXXX,,Mumbai,IN,Seller,Generated
9c5b7a18-b0db-4a8e-a391-dd4f3ff57155,Owner 1439,+91XXXXXXXXXX,,Mumbai,IN,Seller,Generated
15011834-830a-4fea-9648-c0b6f6095e90,Owner 1483,+91XXXXXXXXXX,,London,IN,Seller,Generated
3c2d757d-2033-47fc-9339-60b66f9ab18d,Owner 4222,+91XXXXXXXXXX,,Mumbai,IN,Seller,Generated
3918eeec-341a-4384-a869-79665e7a9031,Owner 105,+91XXXXXXXXXX,,Delhi,IN,Seller,Generated
737168a7-ff7a-49e5-9621-0ac9cddba3a9,Owner 1435,+91XXXXXXXXXX,,Delhi,IN,Seller,Generated
f0f30571-35cd-44e9-a4bc-47dca933369f,Owner 3344,+91XXXXXXXXXX,,Delhi,IN,Seller,Generated
6ea2f6bb-feaf-4015-8242-3508028efdd5,Owner 4846,+91XXXXXXXXXX,,New York,IN,Seller,Generated
1f74eb9a-eb55-4c30-a836-78eaf016b5a9,Owner 9977,+91XXXXXXXXXX,,Delhi,IN,Seller,Generated
b0763941-4cb9-4ac2-99ea-0a8727ae32bd,Owner 4937,+91XXXXXXXXXX,,Delhi,IN,Seller,Generated
611c58fc-11ab-45d6-80e1-95e639a05e4a,Owner 7831,+91XXXXXXXXXX,,London,IN,Seller,Generated
2eff4b78-f135-47ee-ad25-96b68982add8,Owner 7328,+91XXXXXXXXXX,,London,IN,Seller,Generated
b1f16206-35f5-4a27-8b0d-d18c68776286,Owner 358,+91XXXXXXXXXX,,London,IN,Seller,Generated
8d92eb53-e6f1-4313-b124-8d9e881e22b4,Owner 4113,+91XXXXXXXXXX,,New York,IN,Seller,Generated
3a063393-8969-4c6a-8cf1-8f094ae851e6,Owner 9645,+91XXXXXXXXXX,,Delhi,IN,Seller,Generated
282b3f50-0ea9-4f62-ba36-50acae852e53,Owner 9268,+91XXXXXXXXXX,,Mumbai,IN,Seller,Generated
2c07bca4-2175-4852-b2f7-419798f2ee77,Owner 5088,+91XXXXXXXXXX,,London,IN,Seller,Generated
dd9c8a55-87a1-4577-9352-2424e0767ac6,Owner 7437,+91XXXXXXXXXX,,Mumbai,IN,Seller,Generated
df11ee25-4de1-400f-b3e2-d52796985947,Owner 4840,+91XXXXXXXXXX,,London,IN,Seller,Generated
c7bb61da-f54f-4d32-81f2-66e8353f8138,Owner 6630,+91XXXXXXXXXX,,London,IN,Seller,Generated
bec73dc0-0f35-4d38-af6d-665453878f28,Owner 3816,+91XXXXXXXXXX,,London,IN,Seller,Generated
fada193f-138f-4909-afc1-66842e60fc03,Owner 1332,+91XXXXXXXXXX,,Mumbai,IN,Seller,Generated
fa0bebca-a91f-4222-940f-db6f48948039,Owner 9613,+91XXXXXXXXXX,,London,IN,Seller,Generated
426d98ae-b3cd-4451-8670-ff90725d38ae,Owner 3387,+91XXXXXXXXXX,,New York,IN,Seller,Generated
63a128e4-4dce-4ce4-a8aa-c71e11a1ee59,Owner 5496,+91XXXXXXXXXX,,Delhi,IN,Seller,Generated
59802380-2e04-4ef3-aedf-33f062a6bf1c,Owner 1132,+91XXXXXXXXXX,,Delhi,IN,Seller,Generated
0a5ef236-27c3-44e1-a1a1-b42d3501df05,Owner 9361,+91XXXXXXXXXX,,Delhi,IN,Seller,Generated
4bb7f478-9038-4e73-8551-b825876aed2a,Owner 9244,+91XXXXXXXXXX,,London,IN,Seller,Generated
3d677f99-dbf4-4ca2-9506-fed3d5545604,Owner 762,+91XXXXXXXXXX,,New York,IN,Seller,Generated
e272769a-462f-42a3-bcdf-d38864654662,Owner 7515,+91XXXXXXXXXX,,Delhi,IN,Seller,Generated
b786de1c-8cc6-435a-a364-3c88f3301231,Owner 5657,+91XXXXXXXXXX,,Delhi,IN,Seller,Generated
559977fb-cf04-499e-a715-9c7ae697513b,Owner 7425,+91XXXXXXXXXX,,London,IN,Seller,Generated
36cf3b0e-0eed-4272-b478-9cc8667ce2d7,Owner 8350,+91XXXXXXXXXX,,Delhi,IN,Seller,Generated
0848e99c-90fe-46c7-a1bc-839b275ba970,Owner 6295,+91XXXXXXXXXX,,Mumbai,IN,Seller,Generated
5e38ba11-1fc6-4a2a-b599-40f1fa27a116,Owner 6450,+91XXXXXXXXXX,,New York,IN,Seller,Generated
38ee0649-efba-41c6-950e-179b40c7adc4,Owner 6514,+91XXXXXXXXXX,,Delhi,IN,Seller,Generated
10830a3f-d5b0-4795-9f21-6900b08351e4,Owner 2648,+91XXXXXXXXXX,,Delhi,IN,Seller,Generated
79c86350-f7b4-4810-939d-b59600f747c7,Owner 5745,+91XXXXXXXXXX,,Mumbai,IN,Seller,Generated
a62bb777-0628-4863-be5b-b4ce91c82e32,Owner 9377,+91XXXXXXXXXX,,London,IN,Seller,Generated
392e9a23-56e0-4381-aff1-24d6c787068c,Owner 2046,+91XXXXXXXXXX,,Delhi,IN,Seller,Generated
0e26d90f-ccfb-474e-bad3-d77f3ab1a415,Owner 9845,+91XXXXXXXXXX,,London,IN,Seller,Generated
dbaec6a8-a10b-4b4f-8006-cadcd824f9ce,Owner 5027,+91XXXXXXXXXX,,Delhi,IN,Seller,Generated
70b8fbcb-68c1-4243-bb2b-dd843de8454b,Owner 9517,+91XXXXXXXXXX,,London,IN,Seller,Generated
343c5755-ae9c-4ed5-a5e1-4b337ee233cd,Owner 3490,+91XXXXXXXXXX,,Mumbai,IN,Seller,Generated
cc9639a2-c675-406d-8d75-bf6404f7e305,Owner 3693,+91XXXXXXXXXX,,Mumbai,IN,Seller,Generated
fb81d78e-875f-40d4-a5aa-24612c7401d6,Owner 2265,+91XXXXXXXXXX,,London,IN,Seller,Generated
277a815d-417a-43d6-b984-1b4ea7be1b61,Owner 3877,+91XXXXXXXXXX,,Mumbai,IN,Seller,Generated
6963b922-e433-4add-aa2b-1cb72efac70b,Owner 5215,+91XXXXXXXXXX,,New York,IN,Seller,Generated
f44cb206-8b69-4fe4-a061-ecb2f776eb06,Owner 818,+91XXXXXXXXXX,,London,IN,Seller,Generated
f66163c3-9239-4c13-93ec-a3d6d3382273,Owner 6773,+91XXXXXXXXXX,,New York,IN,Seller,Generated
e7494984-816b-47f4-9b81-c5b220247260,Owner 8859,+91XXXXXXXXXX,,Delhi,IN,Seller,Generated
f102a362-47ef-496b-a5ab-c4d423fe8ab6,Owner 66,+91XXXXXXXXXX,,Mumbai,IN,Seller,Generated
7706f9d9-946b-4ae4-9800-a116a3155ced,Owner 5963,+91XXXXXXXXXX,,Delhi,IN,Seller,Generated
b68ffde1-75ca-4556-a7ba-531720e839c4,Owner 4225,+91XXXXXXXXXX,,Delhi,IN,Seller,Generated
b4973cbf-90be-4eaf-8d48-940b2cd0fafe,Owner 9396,+91XXXXXXXXXX,,London,IN,Seller,Generated
95e145ca-ce48-409e-a249-8130361999b8,Owner 9005,+91XXXXXXXXXX,,New York,IN,Seller,Generated
3ab89711-3a9a-4191-8148-f777b1cb2c51,Owner 4835,+91XXXXXXXXXX,,London,IN,Seller,Generated
eeee5518-6f8b-4f26-8d06-fa1f3af41402,Owner 5156,+91XXXXXXXXXX,,New York,IN,Seller,Generated
25ceffa5-a220-4fe5-a74d-0c6e34e7e944,Owner 3837,+91XXXXXXXXXX,,New York,IN,Seller,Generated
23c606bf-7821-408c-a999-e6ab795b8833,Owner 5915,+91XXXXXXXXXX,,New York,IN,Seller,Generated
d1af9dc4-5f4c-40ef-8d78-13287ea47ff5,Owner 4501,+91XXXXXXXXXX,,Delhi,IN,Seller,Generated
a8052398-ac2c-4df7-a044-c9fabc84a9c9,Owner 9623,+91XXXXXXXXXX,,Delhi,IN,Seller,Generated
f093fd66-5881-4fde-a483-3f639ab098b9,Owner 5111,+91XXXXXXXXXX,,Delhi,IN,Seller,Generated
06c33753-d42a-433c-a2af-cf1ec673b43e,Owner 1875,+91XXXXXXXXXX,,Mumbai,IN,Seller,Generated
54213bd9-7fcc-47fc-8395-ba2f7c45a411,Owner 7592,+91XXXXXXXXXX,,Delhi,IN,Seller,Generated
db5e4c73-f342-4480-b744-64ca0d11f0fa,Owner 8651,+91XXXXXXXXXX,,Delhi,IN,Seller,Generated
ca0b7251-06af-4aec-b27f-c1fb09438d70,Owner 7470,+91XXXXXXXXXX,,London,IN,Seller,Generated
9698eedb-4f93-4cce-a1d9-b786359089d0,Owner 4141,+91XXXXXXXXXX,,London,IN,Seller,Generated
81018444-e306-48c6-922a-cf056806b609,Owner 5274,+91XXXXXXXXXX,,London,IN,Seller,Generated
9098a5e1-43f0-4e1d-bc72-5c5c644d7d61,Owner 4399,+91XXXXXXXXXX,,New York,IN,Seller,Generated
96a1f816-6bdb-4717-8f59-0f9c96706702,Owner 3795,+91XXXXXXXXXX,,Delhi,IN,Seller,Generated
b94c62d5-8cab-41da-be04-762f2ae45ce2,Owner 3368,+91XXXXXXXXXX,,Mumbai,IN,Seller,Generated
88ad791f-9df7-46e1-8855-742c9026827b,Owner 443,+91XXXXXXXXXX,,Mumbai,IN,Seller,Generated
1e8e7cc6-0a0b-44e8-8707-5ef411b8c9fc,Owner 9675,+91XXXXXXXXXX,,Mumbai,IN,Seller,Generated
1bf12a39-f6c5-48b6-8775-86aa23eb5a73,Owner 784,+91XXXXXXXXXX,,London,IN,Seller,Generated
be913706-2344-47a4-992c-4a6c108090a0,Owner 6577,+91XXXXXXXXXX,,Mumbai,IN,Seller,Generated
af6ab10a-c7bc-4896-b8f1-caaede25cd68,Owner 6995,+91XXXXXXXXXX,,London,IN,Seller,Generated
d1caae8d-a42c-4c41-86c4-d8276771012f,Owner 6615,+91XXXXXXXXXX,,Mumbai,IN,Seller,Generated
1b44909f-82e6-452f-a135-063bc923f5f4,Owner 3844,+91XXXXXXXXXX,,New York,IN,Seller,Generated
f2a3cce0-a94d-4a01-aa68-e7a0d31992b0,Owner 1767,+91XXXXXXXXXX,,London,IN,Seller,Generated
27a69416-9734-43d5-9385-a4419f796fab,Owner 975,+91XXXXXXXXXX,,London,IN,Seller,Generated
46990cc6-f122-4e9a-bb1f-05bd5c4e5894,Owner 6988,+91XXXXXXXXXX,,New York,IN,Seller,Generated
c144e120-da6a-4a2b-99e8-9a3bbef1bd88,Owner 8613,+91XXXXXXXXXX,,Delhi,IN,Seller,Generated
62c513d6-d380-41d7-a373-cb4ac2de2674,Owner 8210,+91XXXXXXXXXX,,Delhi,IN,Seller,Generated
9cfa67ef-9a57-4f5e-bc69-e7e3525d9996,Owner 5837,+91XXXXXXXXXX,,Delhi,IN,Seller,Generated
4d3003b5-e41a-4fec-aeb9-3a87c0e715f5,Owner 247,+91XXXXXXXXXX,,New York,IN,Seller,Generated
088e6087-b52a-4c78-88a1-4294e64202c6,Owner 3534,+91XXXXXXXXXX,,London,IN,Seller,Generated
097689cb-1e2c-4792-a55b-180ede9e3eb3,Owner 3279,+91XXXXXXXXXX,,New York,IN,Seller,Generated
b3eb2981-3d92-4ea3-8453-d72a65e9fe0f,Owner 8846,+91XXXXXXXXXX,,London,IN,Seller,Generated
cdd9c699-20a7-4c30-963d-acce90d56a81,Owner 568,+91XXXXXXXXXX,,London,IN,Seller,Generated
2167a77a-8813-42d9-aa88-a1c4be8925c5,Owner 8243,+91XXXXXXXXXX,,Delhi,IN,Seller,Generated
9c4a58d1-b711-4599-9f54-c01299143fc5,Owner 8208,+91XXXXXXXXXX,,Mumbai,IN,Seller,Generated
42a8f329-7d70-4c09-b778-a7c57fd68a21,Owner 6348,+91XXXXXXXXXX,,Delhi,IN,Seller,Generated
49d38305-1d40-4564-9199-ea9b6ed0964a,Owner 3871,+91XXXXXXXXXX,,London,IN,Seller,Generated
e69a1887-89cc-4bac-9615-2b06adc6dbbf,Owner 9604,+91XXXXXXXXXX,,Mumbai,IN,Seller,Generated
a773294f-3f3d-4e11-8098-3e273dfcfc78,Owner 7662,+91XXXXXXXXXX,,London,IN,Seller,Generated
c6634877-5b82-45ce-84a7-4e22097e6f2c,Owner 2914,+91XXXXXXXXXX,,New York,IN,Seller,Generated
3a89f800-2d4f-4055-a616-3d2e1f064792,Owner 3445,+91XXXXXXXXXX,,Delhi,IN,Seller,Generated
a4be137c-5b13-4a53-8b30-629b764dfb65,Owner 2811,+91XXXXXXXXXX,,London,IN,Seller,Generated
ba89ce72-c295-47a3-b388-e6d92f7cf8e5,Owner 1875,+91XXXXXXXXXX,,Mumbai,IN,Seller,Generated
3179100a-aa45-40c1-94fe-389be2933164,Owner 8225,+91XXXXXXXXXX,,New York,IN,Seller,Generated
4ff4b315-2561-4263-a4db-698e3117fda8,Owner 1115,+91XXXXXXXXXX,,Delhi,IN,Seller,Generated
3282edf4-513f-4bd0-b4b3-7cefd58efa65,Owner 4152,+91XXXXXXXXXX,,New York,IN,Seller,Generated
ec3490fa-d847-4292-9efc-ffd79bc9bf94,Owner 9846,+91XXXXXXXXXX,,Mumbai,IN,Seller,Generated
d6797588-95ad-46e9-ab17-875fb7e9f856,Owner 7669,+91XXXXXXXXXX,,Mumbai,IN,Seller,Generated
564124ad-fc3d-4ceb-8bc5-8588b5481a3b,Owner 5219,+91XXXXXXXXXX,,New York,IN,Seller,Generated
bb03e3ac-ded6-411f-a2c9-97f3cc3272ad,Owner 93,+91XXXXXXXXXX,,London,IN,Seller,Generated
f2494c9f-c65e-4a21-82d3-5d8a9a9aaa8b,Owner 6976,+91XXXXXXXXXX,,New York,IN,Seller,Generated
1e069aac-00a7-4704-ae0f-9dcf33a193f2,Owner 5713,+91XXXXXXXXXX,,London,IN,Seller,Generated
e0833788-d1e3-4267-96b0-0f687c1cb351,Owner 4682,+91XXXXXXXXXX,,New York,IN,Seller,Generated
65a3e99b-661f-4399-a8a8-b789b7804207,Owner 2920,+91XXXXXXXXXX,,Mumbai,IN,Seller,Generated
d327afd0-9d7e-4dbc-8ca1-d89fd54d79d1,Owner 5683,+91XXXXXXXXXX,,Mumbai,IN,Seller,Generated
4d246a94-5f06-42eb-bbbf-3ab37d4ee0cb,Owner 9099,+91XXXXXXXXXX,,New York,IN,Seller,Generated
e28fd4d8-8102-40b0-bf99-51a1ef314bde,Owner 2874,+91XXXXXXXXXX,,Delhi,IN,Seller,Generated
11e99ced-1c16-48ba-b834-30db3e086668,Owner 7506,+91XXXXXXXXXX,,London,IN,Seller,Generated
989770c2-5fcb-4fce-9663-8eab2635afee,Owner 4683,+91XXXXXXXXXX,,Mumbai,IN,Seller,Generated
4cf97b49-e974-4ec5-8965-c6e9a03a3fe6,Owner 7742,+91XXXXXXXXXX,,London,IN,Seller,Generated
d9402826-058a-4147-b770-05e7b553c151,Owner 9436,+91XXXXXXXXXX,,London,IN,Seller,Generated
c050b87a-f9b6-409e-bbb3-9905d96212ee,Owner 5549,+91XXXXXXXXXX,,Mumbai,IN,Seller,Generated
068b93e7-0794-4446-87e2-ae066c9efb5e,Owner 8976,+91XXXXXXXXXX,,London,IN,Seller,Generated
25c2e18a-6db4-4d53-b655-ef5fe9a5e684,Owner 1465,+91XXXXXXXXXX,,New York,IN,Seller,Generated
f366f725-1401-48d0-8533-e3fc4320e9b4,Owner 6831,+91XXXXXXXXXX,,Mumbai,IN,Seller,Generated
e7a45d31-0f7c-4a63-9c35-f5917dfbbdbb,Owner 9731,+91XXXXXXXXXX,,Mumbai,IN,Seller,Generated
77e878e9-ca42-43f7-95af-3bd9e0fd54e4,Owner 8283,+91XXXXXXXXXX,,Delhi,IN,Seller,Generated
6b15cf58-866c-4640-bda2-90c596b1e741,Owner 1148,+91XXXXXXXXXX,,London,IN,Seller,Generated
d8975564-e125-41c0-8dd8-63ad66316280,Owner 2910,+91XXXXXXXXXX,,Mumbai,IN,Seller,Generated
3093ffd2-5e0f-4c26-9195-6d92ebdaa619,Owner 6905,+91XXXXXXXXXX,,Delhi,IN,Seller,Generated
0c7a5517-7fa2-40a5-ae4f-5bdb39ffc50f,Owner 6292,+91XXXXXXXXXX,,New York,IN,Seller,Generated
3e133b6f-fb97-423b-bea8-e5151f5ab3d7,Owner 588,+91XXXXXXXXXX,,Mumbai,IN,Seller,Generated
fa7987f4-ba22-423e-9135-a5b3d59e360f,Owner 5825,+91XXXXXXXXXX,,Mumbai,IN,Seller,Generated
c9967994-5333-416e-a077-655b766dac02,Owner 8979,+91XXXXXXXXXX,,Delhi,IN,Seller,Generated
3edc6d19-b280-4e7f-8186-25b974d631d8,Owner 7259,+91XXXXXXXXXX,,London,IN,Seller,Generated
13c01d40-d30d-4b3f-a4cc-35ab30e420c3,Owner 2402,+91XXXXXXXXXX,,London,IN,Seller,Generated
c2c052ae-0ecc-4654-b77f-6c783b9566ca,Owner 9425,+91XXXXXXXXXX,,New York,IN,Seller,Generated
6740f860-b528-45f3-b94c-ae08cb52144c,Owner 8723,+91XXXXXXXXXX,,London,IN,Seller,Generated
366e0db1-d3a6-4c52-8fcf-bd049494e4eb,Owner 2292,+91XXXXXXXXXX,,Mumbai,IN,Seller,Generated
140355e0-1455-4193-9eb3-7381613c01dd,Owner 2948,+91XXXXXXXXXX,,London,IN,Seller,Generated
b8a8336f-1988-4291-b953-49a8685e9172,Owner 95,+91XXXXXXXXXX,,London,IN,Seller,Generated
d1f76bb9-7d9b-417a-ac13-9ab312b60237,Owner 5666,+91XXXXXXXXXX,,Delhi,IN,Seller,Generated
42992e36-4f2c-4fa4-a1af-a6c040e7d34e,Owner 4216,+91XXXXXXXXXX,,Delhi,IN,Seller,Generated
d5e94ee4-5bd6-4903-b6c2-e7f9b904be64,Owner 7669,+91XXXXXXXXXX,,New York,IN,Seller,Generated
b374254f-64f6-439d-af93-2b540131864b,Owner 6386,+91XXXXXXXXXX,,Delhi,IN,Seller,Generated
a8727adf-119b-4095-9d4f-cc9e86bc99ef,Owner 8795,+91XXXXXXXXXX,,Delhi,IN,Seller,Generated
b21b003c-9382-418d-85fb-2b5051e24f27,Owner 6679,+91XXXXXXXXXX,,New York,IN,Seller,Generated
77c73462-37ef-41f0-948f-b6d83d167e01,Owner 9060,+91XXXXXXXXXX,,New York,IN,Seller,Generated
fd595649-3e3b-43ac-925e-4852434bf869,Owner 9258,+91XXXXXXXXXX,,New York,IN,Seller,Generated
2e488bd2-bc6d-4ab8-9d9b-64720e497e85,Owner 2219,+91XXXXXXXXXX,,New York,IN,Seller,Generated
2e2db29f-b9e3-4eeb-a009-e167b36096ef,Owner 9213,+91XXXXXXXXXX,,New York,IN,Seller,Generated
b2509f5c-dcba-4673-bf06-fe9ae7d13316,Owner 3739,+91XXXXXXXXXX,,Delhi,IN,Seller,Generated
8092ffd4-7f3c-4de6-a2da-8b15596752ae,Owner 4479,+91XXXXXXXXXX,,Delhi,IN,Seller,Generated
55647f97-92e0-4fed-a62b-49a50c5a7a7e,Owner 950,+91XXXXXXXXXX,,London,IN,Seller,Generated
81548cd2-5100-4679-a466-836859fd9bd7,Owner 2375,+91XXXXXXXXXX,,London,IN,Seller,Generated
1340e4bc-d621-4cce-b232-383134ff38b6,Owner 4811,+91XXXXXXXXXX,,Mumbai,IN,Seller,Generated
6e01a162-c98c-4d84-9d86-de0004a996ee,Owner 5825,+91XXXXXXXXXX,,Delhi,IN,Seller,Generated
3ae692a1-a90a-438d-8ec1-da453c480c3d,Owner 8118,+91XXXXXXXXXX,,Delhi,IN,Seller,Generated
46a69fd2-f884-439f-a4f8-395aba7cfa99,Owner 5309,+91XXXXXXXXXX,,London,IN,Seller,Generated
6596bd9b-7c69-422e-8607-ab30961da96a,Owner 4602,+91XXXXXXXXXX,,London,IN,Seller,Generated
a35ef31e-3ed0-4adf-a12a-e044d73cf972,Owner 1110,+91XXXXXXXXXX,,London,IN,Seller,Generated
22019ff8-d490-4061-a3e1-7f502ae4e88f,Owner 8587,+91XXXXXXXXXX,,Delhi,IN,Seller,Generated
db19becb-fa7d-4951-9151-1b3c6c92d7d8,Owner 5241,+91XXXXXXXXXX,,London,IN,Seller,Generated
3c31e560-fd8c-490d-b690-f2f018fdb5aa,Owner 1575,+91XXXXXXXXXX,,New York,IN,Seller,Generated
8babde63-4886-4bec-8d96-776471051527,Owner 1315,+91XXXXXXXXXX,,Mumbai,IN,Seller,Generated
c98ab2b4-22e8-4b90-bde5-f432467a95aa,Owner 559,+91XXXXXXXXXX,,London,IN,Seller,Generated
1dffe270-3524-40f2-ac0a-9b6c12e6d37c,Owner 5327,+91XXXXXXXXXX,,Delhi,IN,Seller,Generated
30b26093-5a58-43ee-a862-0519374b5c6e,Owner 7363,+91XXXXXXXXXX,,London,IN,Seller,Generated
28bf0793-b16f-42b0-b09e-30ddd5b7d7be,Owner 9223,+91XXXXXXXXXX,,New York,IN,Seller,Generated
096fcff0-7d98-404f-a356-caeb227d7fae,Owner 2857,+91XXXXXXXXXX,,London,IN,Seller,Generated
570cef43-f449-42f7-878e-f5d3dd007856,Owner 930,+91XXXXXXXXXX,,Mumbai,IN,Seller,Generated
c70e4386-8161-4d94-aac8-1aae34f196c9,Owner 2109,+91XXXXXXXXXX,,New York,IN,Seller,Generated
1e034373-3879-4e7a-aadd-0b1ac1e22e5f,Owner 2584,+91XXXXXXXXXX,,Mumbai,IN,Seller,Generated
bd6f40ac-8412-43e0-9869-29811abfe448,Owner 5479,+91XXXXXXXXXX,,Mumbai,IN,Seller,Generated
65734733-223f-44cb-af7a-4fd615bc0e02,Owner 3429,+91XXXXXXXXXX,,New York,IN,Seller,Generated
aa8f3a7f-9b99-468b-82cb-d4483328ccec,Owner 9910,+91XXXXXXXXXX,,London,IN,Seller,Generated
71151167-b6fb-443e-8b13-f6e8c382f653,Owner 1111,+91XXXXXXXXXX,,Delhi,IN,Seller,Generated
a55feecf-b61c-4410-ac01-3bfa3a7a8543,Owner 8280,+91XXXXXXXXXX,,Mumbai,IN,Seller,Generated
6b66f9a8-8372-449b-b37b-80b03b470ede,Owner 5842,+91XXXXXXXXXX,,New York,IN,Seller,Generated
66975c0d-ac84-4b25-bdc7-9ae885d9180f,Owner 9664,+91XXXXXXXXXX,,New York,IN,Seller,Generated
0045ff16-1a07-46b8-b155-6102a0bae92b,Owner 2575,+91XXXXXXXXXX,,Delhi,IN,Seller,Generated
011c8e73-5910-441d-8e40-804d8ed90ed8,Owner 9293,+91XXXXXXXXXX,,London,IN,Seller,Generated
c151428b-d27f-4c48-a56a-7b46051d89dd,Owner 8498,+91XXXXXXXXXX,,Mumbai,IN,Seller,Generated
f951baa8-fe11-4975-adad-7d4dde12cec5,Owner 8407,+91XXXXXXXXXX,,New York,IN,Seller,Generated
0f758574-d884-40d1-a322-72b6e57b61ab,Owner 7730,+91XXXXXXXXXX,,Mumbai,IN,Seller,Generated
06edf127-eae5-4e43-8767-6b17160e5121,Owner 3793,+91XXXXXXXXXX,,London,IN,Seller,Generated
7d9a1674-3cd2-4516-8639-120fc96bdb9f,Owner 6509,+91XXXXXXXXXX,,Mumbai,IN,Seller,Generated
2c600af1-9d4f-4b32-b8cf-43874ab1a5d6,Owner 2871,+91XXXXXXXXXX,,Mumbai,IN,Seller,Generated
f8bee34b-5444-4ebc-a0d5-43ee132787b5,Owner 4503,+91XXXXXXXXXX,,Delhi,IN,Seller,Generated
a27e6347-aaac-4562-b7ea-b84bc4a97075,Owner 1424,+91XXXXXXXXXX,,New York,IN,Seller,Generated
7590b26b-7672-4822-9f06-65c3190d7b26,Owner 9102,+91XXXXXXXXXX,,New York,IN,Seller,Generated
88be71c5-0d1b-4fc6-87da-f4927c2e7308,Owner 4368,+91XXXXXXXXXX,,Mumbai,IN,Seller,Generated
fc5c8871-cd6e-4438-b23c-cd20b4a7ea17,Owner 4518,+91XXXXXXXXXX,,Delhi,IN,Seller,Generated
3ec4f7c8-e0cf-4f68-a6ba-329826ac5603,Owner 565,+91XXXXXXXXXX,,London,IN,Seller,Generated
dd7d0ca5-b08a-4fdc-bfed-7f87ce29f5e9,Owner 6825,+91XXXXXXXXXX,,New York,IN,Seller,Generated
3c46633e-cbb5-4a00-8bc6-26e859c693d0,Owner 5265,+91XXXXXXXXXX,,London,IN,Seller,Generated
8f26a02d-4c8d-4c16-bf95-06ff213c21e0,Owner 3075,+91XXXXXXXXXX,,Mumbai,IN,Seller,Generated
0d57e92e-6a23-4d00-bf51-3c5184f6c909,Owner 4230,+91XXXXXXXXXX,,Delhi,IN,Seller,Generated
0cd039a8-eb5c-4248-9e7f-6d3c6fcd1855,Owner 6165,+91XXXXXXXXXX,,Mumbai,IN,Seller,Generated
cf375b1c-76c5-448f-9f61-db8699d4c1fd,Owner 3395,+91XXXXXXXXXX,,London,IN,Seller,Generated
022523fa-3053-41c8-a9db-750fa4193600,Owner 1711,+91XXXXXXXXXX,,Mumbai,IN,Seller,Generated
7af370ef-bed2-46e3-8096-c255787647e7,Owner 7642,+91XXXXXXXXXX,,Delhi,IN,Seller,Generated
cad7913d-4dbd-4169-ad6f-db941139a36f,Owner 6320,+91XXXXXXXXXX,,New York,IN,Seller,Generated
c0b7e360-0ef6-4a70-9c1e-557a52d237da,Owner 2985,+91XXXXXXXXXX,,Delhi,IN,Seller,Generated
87acbaac-b7ef-45d8-b5fd-986649ddb6dd,Owner 4138,+91XXXXXXXXXX,,Mumbai,IN,Seller,Generated
25d27f12-bd92-4706-a5c6-2259f26b563b,Owner 1991,+91XXXXXXXXXX,,Mumbai,IN,Seller,Generated
6fcea55e-7c0f-4f97-88b6-41581368719c,Owner 7617,+91XXXXXXXXXX,,Delhi,IN,Seller,Generated
d66753bb-6cb6-4ebc-bb7d-eec8db3abeec,Owner 9170,+91XXXXXXXXXX,,Delhi,IN,Seller,Generated
fa62c197-4b9e-4c05-be58-b76a2691275a,Owner 2147,+91XXXXXXXXXX,,London,IN,Seller,Generated
26326307-c8a4-4aaa-a458-96d1a1fdd516,Owner 3618,+91XXXXXXXXXX,,Delhi,IN,Seller,Generated
62532e09-d3f1-46a8-85db-b6ec2f445728,Owner 8406,+91XXXXXXXXXX,,Delhi,IN,Seller,Generated
44bda34c-0af5-4758-ad0f-647db9e134e7,Owner 9184,+91XXXXXXXXXX,,London,IN,Seller,Generated
237801d1-21ae-49e9-8b80-723c95c7e672,Owner 8713,+91XXXXXXXXXX,,Mumbai,IN,Seller,Generated
21666b7a-d905-45b6-b677-16438627b141,Owner 6486,+91XXXXXXXXXX,,London,IN,Seller,Generated
8f567f5a-039d-4b3c-bdad-76c9b0237799,Owner 4169,+91XXXXXXXXXX,,London,IN,Seller,Generated
1a07dd4a-042a-4b59-bc60-64fa37782a06,Owner 3767,+91XXXXXXXXXX,,Delhi,IN,Seller,Generated
ca81258b-6b80-431b-8a2c-8a0fbe97452a,Owner 5928,+91XXXXXXXXXX,,Delhi,IN,Seller,Generated
7d340500-4db7-4541-a5da-5ee5907c2ab3,Owner 7701,+91XXXXXXXXXX,,New York,IN,Seller,Generated
69649ae2-2ec9-4ffd-a99b-8325b3e08ced,Owner 4200,+91XXXXXXXXXX,,New York,IN,Seller,Generated
8bd53191-f948-4a43-8715-16444bf1e497,Owner 6360,+91XXXXXXXXXX,,London,IN,Seller,Generated
88dc738f-d054-4ca8-bb4d-f329365e9440,Owner 2118,+91XXXXXXXXXX,,London,IN,Seller,Generated
d470f77e-cc5e-4961-b537-823b3ff61327,Owner 3205,+91XXXXXXXXXX,,New York,IN,Seller,Generated
2fc0979f-4f66-4c91-a052-bc9af2dbe019,Owner 1278,+91XXXXXXXXXX,,New York,IN,Seller,Generated
8197e3cb-6627-4e3c-9af0-b1b916bf28c0,Owner 6233,+91XXXXXXXXXX,,Mumbai,IN,Seller,Generated
19365674-3d55-4d35-b3a9-be0212d68c9a,Owner 519,+91XXXXXXXXXX,,New York,IN,Seller,Generated
48348ff2-7f5e-4f68-8e41-abefa1d926f0,Owner 8909,+91XXXXXXXXXX,,Mumbai,IN,Seller,Generated
234e51ec-dfaa-4b82-a366-1c832a283e92,Owner 6290,+91XXXXXXXXXX,,Delhi,IN,Seller,Generated
8920b192-f4c6-4630-865a-c2c52733d188,Owner 8082,+91XXXXXXXXXX,,London,IN,Seller,Generated
95fba495-0bb9-4793-984c-dce6a38cdbb9,Owner 7115,+91XXXXXXXXXX,,Delhi,IN,Seller,Generated
b66694c7-16e7-4aa4-937f-0c4d5ffacf51,Owner 8328,+91XXXXXXXXXX,,Mumbai,IN,Seller,Generated
c16b739a-df2a-44fe-b637-f6824e11ad90,Owner 1344,+91XXXXXXXXXX,,New York,IN,Seller,Generated
54763b32-96b8-4f23-99d7-f7a7864c19a3,Owner 786,+91XXXXXXXXXX,,Delhi,IN,Seller,Generated
57488620-4bad-45d6-a683-80ed93c3f24f,Owner 175,+91XXXXXXXXXX,,Delhi,IN,Seller,Generated
38be78b8-1ed6-49db-af70-8b05e629c1d1,Owner 4254,+91XXXXXXXXXX,,London,IN,Seller,Generated
469e0ace-7e40-4833-b650-80aaf9fb5ad7,Owner 4576,+91XXXXXXXXXX,,London,IN,Seller,Generated
f65ce0b1-1cbe-4d3c-beaa-42d86e950397,Owner 2197,+91XXXXXXXXXX,,Mumbai,IN,Seller,Generated
48a3836d-8ce9-42d3-a147-26d07b5c48f6,Owner 6689,+91XXXXXXXXXX,,London,IN,Seller,Generated
7f8a0972-1a34-4a66-89b1-7ec547353f90,Owner 6734,+91XXXXXXXXXX,,Delhi,IN,Seller,Generated
88956042-5f54-4be4-aa92-dd173c19c8f5,Owner 9871,+91XXXXXXXXXX,,New York,IN,Seller,Generated
519fd62e-f050-492b-aece-96353a9a70ca,Owner 6111,+91XXXXXXXXXX,,London,IN,Seller,Generated
714d724c-6b59-46cc-9c0b-9a0462a8700c,Owner 7224,+91XXXXXXXXXX,,New York,IN,Seller,Generated
4dab299e-cd5e-4e37-bbd3-e943a2536bd9,Owner 6534,+91XXXXXXXXXX,,London,IN,Seller,Generated
c23b5afe-f371-4170-942a-d9d004437518,Owner 5693,+91XXXXXXXXXX,,London,IN,Seller,Generated
2e26530b-4138-4d41-8951-fbcf0d0dbaed,Owner 8739,+91XXXXXXXXXX,,Delhi,IN,Seller,Generated
da5777bb-86d9-4bcb-83c5-1958fcc665cc,Owner 8982,+91XXXXXXXXXX,,London,IN,Seller,Generated
5f68ad96-3797-41e2-82e8-5e41eac9d8cd,Owner 2463,+91XXXXXXXXXX,,New York,IN,Seller,Generated
a007fba5-73ef-48bc-a389-3c17e966e3ca,Owner 247,+91XXXXXXXXXX,,New York,IN,Seller,Generated
ed69e31c-f09d-4da8-9cdd-7847df5d19ae,Owner 8167,+91XXXXXXXXXX,,London,IN,Seller,Generated
de6521a5-568a-436f-9057-f31ac36d4d9a,Owner 4804,+91XXXXXXXXXX,,New York,IN,Seller,Generated
48d0e470-88bd-4a7a-b58f-128fc0e4ad28,Owner 1798,+91XXXXXXXXXX,,New York,IN,Seller,Generated
70d73170-c1bf-4316-bc6f-5260a34fe67b,Owner 4032,+91XXXXXXXXXX,,Delhi,IN,Seller,Generated
9eead38d-ed5e-46da-b2ed-dc9894629781,Owner 987,+91XXXXXXXXXX,,London,IN,Seller,Generated
a9289569-4573-48bb-9fe8-12df27200e7f,Owner 6418,+91XXXXXXXXXX,,Delhi,IN,Seller,Generated
103a2636-9daf-4439-b357-5a1f72515a88,Owner 346,+91XXXXXXXXXX,,New York,IN,Seller,Generated
ecbfaea3-df17-4904-905b-f4693201ad56,Owner 7015,+91XXXXXXXXXX,,Mumbai,IN,Seller,Generated
cd7201ec-35eb-4279-a1a8-8bd6f7606b95,Owner 3686,+91XXXXXXXXXX,,New York,IN,Seller,Generated
64449153-3fe3-498e-8f65-a9c92bd0c959,Owner 4934,+91XXXXXXXXXX,,New York,IN,Seller,Generated
60578585-db45-4c92-be0d-06d372c5c7ff,Owner 2586,+91XXXXXXXXXX,,Delhi,IN,Seller,Generated
9be86f49-3236-4c5e-a728-2a957ec83f54,Owner 8048,+91XXXXXXXXXX,,New York,IN,Seller,Generated
ecca2287-59e9-48c2-8c5b-aa168a3e48bd,Owner 4013,+91XXXXXXXXXX,,Delhi,IN,Seller,Generated
8506a58c-c7c9-46e3-88cb-d97214cb7ca6,Owner 7893,+91XXXXXXXXXX,,London,IN,Seller,Generated
d9403fdd-f558-4e2d-a77e-dd7e86dfae0b,Owner 6684,+91XXXXXXXXXX,,London,IN,Seller,Generated
249fe416-00ba-4864-9820-816cfaf8718e,Owner 8553,+91XXXXXXXXXX,,Delhi,IN,Seller,Generated
e2e1308a-5650-43c0-aaf6-ad5c89884b68,Owner 1256,+91XXXXXXXXXX,,London,IN,Seller,Generated
83a20506-be98-4b01-a2be-7a7aba56d036,Owner 33,+91XXXXXXXXXX,,Mumbai,IN,Seller,Generated
44827196-fb76-4223-b4c1-97ecb360d4c9,Owner 4239,+91XXXXXXXXXX,,Delhi,IN,Seller,Generated
152bf86a-9a30-417a-bfce-b3b4fd53fc63,Owner 8524,+91XXXXXXXXXX,,Delhi,IN,Seller,Generated
85aefbfd-e206-4626-b4f1-9c13d8cc96a7,Owner 4383,+91XXXXXXXXXX,,Mumbai,IN,Seller,Generated
e79e0bdf-d506-4d9d-b068-847712d55874,Owner 3222,+91XXXXXXXXXX,,Delhi,IN,Seller,Generated
12a989df-3df8-4341-9fe6-b50f046396f3,Owner 3383,+91XXXXXXXXXX,,Delhi,IN,Seller,Generated
2c2645e5-11b0-4338-96cb-293675e3c933,Owner 8538,+91XXXXXXXXXX,,Mumbai,IN,Seller,Generated
7e75b5ca-ec71-4c22-8541-ceaef72d6c1e,Owner 2375,+91XXXXXXXXXX,,New York,IN,Seller,Generated
de91ce82-d651-462f-943f-f49fe278318d,Owner 2645,+91XXXXXXXXXX,,New York,IN,Seller,Generated
0e53361c-5238-4497-a572-d397b95a92e9,Owner 4755,+91XXXXXXXXXX,,New York,IN,Seller,Generated
f4196abf-4294-4954-9cf8-c4f14776bc65,Owner 4805,+91XXXXXXXXXX,,Delhi,IN,Seller,Generated
9aefec0b-d9fc-41d0-8285-426a78ff1678,Owner 1228,+91XXXXXXXXXX,,London,IN,Seller,Generated
58819166-d081-47f8-bc09-ceea46fa55e5,Owner 7219,+91XXXXXXXXXX,,Delhi,IN,Seller,Generated
e1eddb78-fa0f-43bf-9f06-5b14299a0206,Owner 189,+91XXXXXXXXXX,,New York,IN,Seller,Generated
3aaa0092-6f5d-4fd3-9de5-bb28978dc5a7,Owner 4832,+91XXXXXXXXXX,,London,IN,Seller,Generated
eabb8516-4c34-43fe-89ac-f9dd74e801dd,Owner 3109,+91XXXXXXXXXX,,Delhi,IN,Seller,Generated
fba4461f-fc21-46a5-a0e2-88d0db27360e,Owner 7496,+91XXXXXXXXXX,,Delhi,IN,Seller,Generated
9b102f60-c8ec-4b98-96a3-8e52ccf0200e,Owner 5951,+91XXXXXXXXXX,,New York,IN,Seller,Generated
96eb3f2d-d6ae-49ad-a5c1-f1569d0487be,Owner 7301,+91XXXXXXXXXX,,London,IN,Seller,Generated
8bf3706b-d7fe-4b00-a8ab-e156b1de5615,Owner 1773,+91XXXXXXXXXX,,Mumbai,IN,Seller,Generated
c1bb9b58-0b01-4c65-81d6-51f4a214b9eb,Owner 3470,+91XXXXXXXXXX,,New York,IN,Seller,Generated
56138f6a-f17b-4d51-815d-655a7d293955,Owner 2477,+91XXXXXXXXXX,,London,IN,Seller,Generated
863feb95-e40d-4ecb-9857-90e81d6b1f98,Owner 2642,+91XXXXXXXXXX,,New York,IN,Seller,Generated
92926194-a0b2-4c6f-99e0-8ca3632212bd,Owner 3572,+91XXXXXXXXXX,,London,IN,Seller,Generated
f56e02e6-16f6-4787-87c5-ee14d9e755bf,Owner 9258,+91XXXXXXXXXX,,New York,IN,Seller,Generated
95450119-95ab-4f7b-8e19-96ccf33c1980,Owner 2577,+91XXXXXXXXXX,,Delhi,IN,Seller,Generated
69613597-86ed-40a1-9f0f-825757ef6175,Owner 9721,+91XXXXXXXXXX,,London,IN,Seller,Generated
a4686e71-f613-4265-a230-b97670212758,Owner 9271,+91XXXXXXXXXX,,Mumbai,IN,Seller,Generated
b5a23508-1db5-4c54-be10-72610aa2d301,Owner 5597,+91XXXXXXXXXX,,London,IN,Seller,Generated
96705255-68ca-41b8-9642-216384b2ec89,Owner 5822,+91XXXXXXXXXX,,New York,IN,Seller,Generated
c30d604c-ee5d-45ae-9ec0-281222b715c7,Owner 4801,+91XXXXXXXXXX,,Delhi,IN,Seller,Generated
7f4e3854-8098-44ba-8079-06f931e03b2c,Owner 8211,+91XXXXXXXXXX,,Delhi,IN,Seller,Generated
2dfcf88d-86ec-4d06-85f4-1a055f93e74b,Owner 4799,+91XXXXXXXXXX,,Delhi,IN,Seller,Generated
3433a265-1e44-41e8-8057-b2e6f10d444f,Owner 8484,+91XXXXXXXXXX,,Delhi,IN,Seller,Generated
e91c45fc-a149-4f8d-95e3-181c2641dee1,Owner 8142,+91XXXXXXXXXX,,Delhi,IN,Seller,Generated
6f644c5a-a108-4b57-834f-981531990d2c,Owner 6130,+91XXXXXXXXXX,,Delhi,IN,Seller,Generated
f01be85a-fd01-4dde-b02b-1abf137b70fc,Owner 4818,+91XXXXXXXXXX,,London,IN,Seller,Generated
b2166d57-e5b5-477d-bc78-c96a9bd22c0c,Owner 2072,+91XXXXXXXXXX,,Mumbai,IN,Seller,Generated
1c873462-791a-425d-aeaa-d1289e4f6255,Owner 1189,+91XXXXXXXXXX,,Mumbai,IN,Seller,Generated
75e9d9c7-5773-4757-8830-0c127e13071c,Owner 7743,+91XXXXXXXXXX,,Mumbai,IN,Seller,Generated
6b392817-4897-47be-b2f2-29a89d9bf6e8,Owner 7488,+91XXXXXXXXXX,,New York,IN,Seller,Generated
618fc5b9-0890-4eaa-8fac-6f25697e607a,Owner 8923,+91XXXXXXXXXX,,New York,IN,Seller,Generated
2a6a5e28-10e9-45b9-a8a4-01b8b5c89c3f,Owner 314,+91XXXXXXXXXX,,Delhi,IN,Seller,Generated
6c8683ca-d94c-4313-9f5b-67caeebe0eca,Owner 1610,+91XXXXXXXXXX,,New York,IN,Seller,Generated
9c8dccba-0a6d-45be-bbb6-4162c5a0838d,Owner 234,+91XXXXXXXXXX,,New York,IN,Seller,Generated
c788baa9-859d-42cf-a33c-890e0d510664,Owner 248,+91XXXXXXXXXX,,Mumbai,IN,Seller,Generated
44ef7620-9b3b-4cab-83ee-d91765a27cc1,Owner 5311,+91XXXXXXXXXX,,Delhi,IN,Seller,Generated
fe820b5c-7d89-404a-8758-e64dafdac086,Owner 5781,+91XXXXXXXXXX,,London,IN,Seller,Generated
9bd9682c-f576-4973-bd9c-69f6201bb88d,Owner 1265,+91XXXXXXXXXX,,New York,IN,Seller,Generated
31f4e2a1-52be-4201-803d-2f5c777882bd,Owner 8184,+91XXXXXXXXXX,,New York,IN,Seller,Generated
2b5ae08f-ce51-4a6f-99ae-e56991cd92c3,Owner 2925,+91XXXXXXXXXX,,New York,IN,Seller,Generated
08867604-b358-40a8-b0d8-486f7ff18e31,Owner 6751,+91XXXXXXXXXX,,London,IN,Seller,Generated
6cbeffcf-6c71-4234-ac80-e0b671464c35,Owner 3483,+91XXXXXXXXXX,,Mumbai,IN,Seller,Generated
8ca5c95e-a8da-43a5-ae57-dd97fec33ec3,Owner 538,+91XXXXXXXXXX,,Delhi,IN,Seller,Generated
c612608a-a63f-4537-918e-53edaec4b2f1,Owner 6508,+91XXXXXXXXXX,,Mumbai,IN,Seller,Generated
03c105b5-6a57-4b3a-b46f-4882839e2c39,Owner 6417,+91XXXXXXXXXX,,Mumbai,IN,Seller,Generated
4bc420f2-5d06-4f39-8edc-6065b66fadaa,Owner 9471,+91XXXXXXXXXX,,New York,IN,Seller,Generated
a115be02-1a69-4e3e-aebb-80eab639b59f,Owner 6117,+91XXXXXXXXXX,,Delhi,IN,Seller,Generated
8108df2b-0b75-4c0b-b46b-44a8297f5c29,Owner 383,+91XXXXXXXXXX,,New York,IN,Seller,Generated
2fe51da4-bf96-45d3-a497-243839793b50,Owner 8048,+91XXXXXXXXXX,,London,IN,Seller,Generated
9c6d82ce-a439-411e-83cc-1a14539b7c99,Owner 2045,+91XXXXXXXXXX,,Mumbai,IN,Seller,Generated
492c2839-5b74-447f-8ca0-536602f8cf3b,Owner 6228,+91XXXXXXXXXX,,New York,IN,Seller,Generated
b8e40dae-f148-4c5b-bd10-8095c9a16766,Owner 3999,+91XXXXXXXXXX,,London,IN,Seller,Generated
592e798c-ebf2-4150-a2f0-77f567bcec3c,Owner 1313,+91XXXXXXXXXX,,London,IN,Seller,Generated
7e0b8697-a67d-4d56-88f4-54c5c8a610e4,Owner 4993,+91XXXXXXXXXX,,London,IN,Seller,Generated
7c48b8dc-06aa-480a-bb0f-0696f207538b,Owner 7298,+91XXXXXXXXXX,,New York,IN,Seller,Generated
16d72d5d-0520-4a5b-96c8-dd9d5c4ee7e5,Owner 5350,+91XXXXXXXXXX,,London,IN,Seller,Generated
28f6a3a7-5598-4151-91f9-dd93399c3428,Owner 7084,+91XXXXXXXXXX,,London,IN,Seller,Generated
65f748a5-859a-43f6-81b6-3e1215773f45,Owner 9474,+91XXXXXXXXXX,,London,IN,Seller,Generated
5a69c916-b8d5-4d01-a1e1-833fd8f3ed5d,Owner 6810,+91XXXXXXXXXX,,Mumbai,IN,Seller,Generated
7f9b869d-53d4-409d-96ba-a143758e5a65,Owner 2365,+91XXXXXXXXXX,,Delhi,IN,Seller,Generated
9d22c9b6-65b9-4333-8cc2-69cce1fa79aa,Owner 5394,+91XXXXXXXXXX,,New York,IN,Seller,Generated
03037bd6-e122-43dc-94a4-c44c2f94638d,Owner 9988,+91XXXXXXXXXX,,Mumbai,IN,Seller,Generated
de2f2741-f524-4dd7-a8dc-838ba2d4bb48,Owner 3186,+91XXXXXXXXXX,,New York,IN,Seller,Generated
01be099d-1afc-4744-b087-4d68800e2fb4,Owner 96,+91XXXXXXXXXX,,London,IN,Seller,Generated
96373855-cdad-493e-8b3a-4a70b063efeb,Owner 7564,+91XXXXXXXXXX,,Delhi,IN,Seller,Generated
5886bccf-f635-4d46-b908-27d519c83b46,Owner 7114,+91XXXXXXXXXX,,London,IN,Seller,Generated
