lead_id,name,phone,email,city,country,type,notes
c6373a8b-c9d9-49bd-9026-8aac556ef9d6,Owner 1645,+91XXXXXXXXXX,,New York,IN,Seller,Generated
9b88b5fc-d8db-46b6-ac0d-421edc4c31a1,Owner 5373,+91XXXXXXXXXX,,New York,IN,Seller,Generated
0264f51a-4bcb-4448-bbb5-4d0fbd301e13,Owner 1899,+91XXXXXXXXXX,,Mumbai,IN,Seller,Generated
1f0983cb-dc71-413f-90f5-72b5901d57fd,Owner 1504,+91XXXXXXXXXX,,London,IN,Seller,Generated
378ab0b5-3ee7-4d1a-b3b4-3421b8e171c5,Owner 1572,+91XXXXXXXXXX,,Mumbai,IN,Seller,Generated
1e626612-8d1e-46e1-83cf-f9da86b18454,Owner 9650,+91XXXXXXXXXX,,Mumbai,IN,Seller,Generated
855e50c1-975f-4098-a0b1-f35b8ddb5c82,Owner 3257,+91XXXXXXXXXX,,Mumbai,IN,Seller,Generated
ec8bca59-b941-4485-886e-b1b4af77c159,Owner 3013,+91XXXXXXXXXX,,London,IN,Seller,Generated
f10734f3-deff-434c-9b9c-aab53b93c933,Owner 3072,+91XXXXXXXXXX,,Delhi,IN,Seller,Generated
0e91deac-3de9-40a9-a7c9-3dd4b12f19c0,Owner 5268,+91XXXXXXXXXX,,New York,IN,Seller,Generated
60efc942-847a-44f1-857d-941a24673551,Owner 5936,+91XXXXXXXXXX,,New York,IN,Seller,Generated
a6dfbb08-4efa-415b-a077-fb3d64b6dceb,Owner 2701,+91XXXXXXXXXX,,New York,IN,Seller,Generated
63f1ecec-c3b9-43f0-a546-b2d1a8434217,Owner 1129,+91XXXXXXXXXX,,Mumbai,IN,Seller,Generated
d7df39b7-09b2-40cd-bbfc-7990f06c7cda,Owner 3663,+91XXXXXXXXXX,,London,IN,Seller,Generated
d567d09f-c2ec-4e3c-9e8e-e9bb8acf8bbf,Owner 9559,+91XXXXXXXXXX,,Delhi,IN,Seller,Generated
71755cf7-d18c-4108-bd33-2c076bbddbbc,Owner 383,+91XXXXXXXXXX,,Mumbai,IN,Seller,Generated
2850bd62-1b86-427f-85b3-c35652bb7d92,Owner 3155,+91XXXXXXXXXX,,Mumbai,IN,Seller,Generated
7d5dc802-6add-4ffc-8522-71420a4ca83e,Owner 6847,+91XXXXXXXXXX,,New York,IN,Seller,Generated
6b29f86d-0782-4f07-a84c-3e140bec6d9b,Owner 6120,+91XXXXXXXXXX,,Mumbai,IN,Seller,Generated
f4f88940-e4ff-48e0-b1dc-461738790b3e,Owner 5330,+91XXXXXXXXXX,,Delhi,IN,Seller,Generated
4be0e31d-b7e9-47de-bdbb-1ebeea776694,Owner 2113,+91XXXXXXXXXX,,Mumbai,IN,Seller,Generated
650e3518-e4cb-46ac-91e4-ccc7ad12c654,Owner 1925,+91XXXXXXXXXX,,Delhi,IN,Seller,Generated
7e697049-ca21-4c02-b8de-621ec1454a3e,Owner 4110,+91XXXXXXXXXX,,London,IN,Seller,Generated
45f66284-5f13-4abf-8202-92375f3656c0,Owner 823,+91XXXXXXXXXX,,Delhi,IN,Seller,Generated
061943b7-489c-4ec0-b8fa-420da400b655,Owner 4382,+91XXXXXXXXXX,,Delhi,IN,Seller,Generated
ac43618f-b1c1-480d-8d18-093c962595af,Owner 4640,+91XXXXXXXXXX,,Mumbai,IN,Seller,Generated
a8327076-f60d-43c8-9a20-2ad5fc7ea32d,Owner 6615,+91XXXXXXXXXX,,London,IN,Seller,Generated
48ea1b74-3ba3-4cb2-97ea-0a85719e1a07,Owner 7311,+91XXXXXXXXXX,,New York,IN,Seller,Generated
7e7e7608-5c27-49b6-a5d9-7ad2589f35a2,Owner 1054,+91XXXXXXXXXX,,London,IN,Seller,Generated
28104838-80de-4a21-b70e-6003170f097c,Owner 9488,+91XXXXXXXXXX,,New York,IN,Seller,Generated
b1b4c01b-0989-4af1-ac24-4454d28bc8cd,Owner 3952,+91XXXXXXXXXX,,Mumbai,IN,Seller,Generated
bc72521d-6cc8-4cc7-87b6-3262b7c88918,Owner 9474,+91XXXXXXXXXX,,Delhi,IN,Seller,Generated
1050f5ce-09bc-4939-9a6b-1bab121d1291,Owner 9289,+91XXXXXXXXXX,,Delhi,IN,Seller,Generated
349cae35-9693-455b-9251-e5bd4a71acf9,Owner 9069,+91XXXXXXXXXX,,Mumbai,IN,Seller,Generated
d5685cb2-d503-4d41-bff3-df12f8cb2ab4,Owner 5674,+91XXXXXXXXXX,,New York,IN,Seller,Generated
ee0db299-c5b2-4ddd-ba65-afa7c95c6976,Owner 708,+91XXXXXXXXXX,,Delhi,IN,Seller,Generated
a455cbbe-571e-4fa0-b0f3-86dc10f825fc,Owner 3890,+91XXXXXXXXXX,,London,IN,Seller,Generated
129bc717-afa1-4da5-b2e5-82f5fcbcd0ab,Owner 5253,+91XXXXXXXXXX,,Mumbai,IN,Seller,Generated
fadd9681-abce-4eed-b691-3db8bf846625,Owner 5055,+91XXXXXXXXXX,,London,IN,Seller,Generated
c83fd9da-c35f-44b6-b222-10df6c295c80,Owner 7403,+91XXXXXXXXXX,,New York,IN,Seller,Generated
0e76a25a-7df4-4468-bebb-7799eba9bea5,Owner 5407,+91XXXXXXXXXX,,London,IN,Seller,Generated
ff361ca4-78e2-416c-b999-9f6106caa0a4,Owner 2122,+91XXXXXXXXXX,,Mumbai,IN,Seller,Generated
7b1574e7-69c7-4d9a-ac7e-db986ba257cc,Owner 2689,+91XXXXXXXXXX,,Delhi,IN,Seller,Generated
5dc821e8-4e21-49ed-be8b-b9099c6a6265,Owner 2363,+91XXXXXXXXXX,,Mumbai,IN,Seller,Generated
88f0e810-beb7-477d-93af-98b24421af72,Owner 550,+91XXXXXXXXXX,,Mumbai,IN,Seller,Generated
b33dacbe-36d2-4433-b8bd-0cf0893064a2,Owner 8109,+91XXXXXXXXXX,,Delhi,IN,Seller,Generated
37ee1bc1-eeb7-4de5-9125-d6ec99bb6c5f,Owner 3583,+91XXXXXXXXXX,,Mumbai,IN,Seller,Generated
424707b3-8f50-4933-b3f5-b11f90d68baf,Owner 3448,+91XXXXXXXXXX,,New York,IN,Seller,Generated
c3685b30-780f-44f0-8e61-8533afd6b9ef,Owner 8006,+91XXXXXXXXXX,,Delhi,IN,Seller,Generated
3cd8131a-bccc-44ab-bddc-20ba403a191c,Owner 3329,+91XXXXXXXXXX,,London,IN,Seller,Generated
8327890d-aad8-405f-990c-e2706bb01ba7,Owner 7839,+91XXXXXXXXXX,,New York,IN,Seller,Generated
4c606b73-0060-475d-9c4d-083137305bac,Owner 2710,+91XXXXXXXXXX,,Delhi,IN,Seller,Generated
760085f8-dd3a-4da9-b790-36de966578e3,Owner 9414,+91XXXXXXXXXX,,Delhi,IN,Seller,Generated
520ebc5c-1466-49a0-9ceb-b1f236cb075f,Owner 7936,+91XXXXXXXXXX,,London,IN,Seller,Generated
0f65a989-8801-4d65-a600-b2c89f269d1e,Owner 2628,+91XXXXXXXXXX,,Mumbai,IN,Seller,Generated
3203f450-ba62-46bd-a7c7-b3a65f180051,Owner 7423,+91XXXXXXXXXX,,Delhi,IN,Seller,Generated
3f7397b8-c9cc-414d-8187-297e91d02095,Owner 9047,+91XXXXXXXXXX,,New York,IN,Seller,Generated
b3b4e416-ea6f-4163-8bfb-05e4ce8008ce,Owner 6718,+91XXXXXXXXXX,,Delhi,IN,Seller,Generated
5e9233ff-97a9-4b10-9ba4-4f9b70593956,Owner 5783,+91XXXXXXXXXX,,Delhi,IN,Seller,Generated
8d447218-60c5-4f15-a75a-1778308733d7,Owner 7214,+91XXXXXXXXXX,,New York,IN,Seller,Generated
d4173c7d-99bb-4086-a272-9030c1154a2b,Owner 2533,+91XXXXXXXXXX,,London,IN,Seller,Generated
26cc4348-3f33-4446-b4e4-a73fd1d9045b,Owner 2379,+91XXXXXXXXXX,,Mumbai,IN,Seller,Generated
33da4fa4-0458-4c36-8c7e-6301b276b7c2,Owner 8387,+91XXXXXXXXXX,,New York,IN,Seller,Generated
94ee5e32-9d0d-4744-9705-a7795b21ec50,Owner 5530,+91XXXXXXXXXX,,London,IN,Seller,Generated
ecf3eacd-5fb6-4b01-89c9-93b7aa0ad667,Owner 2169,+91XXXXXXXXXX,,Mumbai,IN,Seller,Generated
cf3507d6-9b79-42e7-8583-78e645670512,Owner 5646,+91XXXXXXXXXX,,Delhi,IN,Seller,Generated
1b563831-3ae3-4362-a33c-6b8ee8156303,Owner 9862,+91XXXXXXXXXX,,New York,IN,Seller,Generated
ba4f166e-967b-47b8-b50e-0ed7ae8a0247,Owner 4700,+91XXXXXXXXXX,,Mumbai,IN,Seller,Generated
1791705a-67ac-46f4-80d3-9be690b0c7c8,Owner 8662,+91XXXXXXXXXX,,Delhi,IN,Seller,Generated
ffb49ac1-eb34-4e2a-84cd-6b1dfa501178,Owner 8919,+91XXXXXXXXXX,,New York,IN,Seller,Generated
dfeeabd1-2db5-49bd-aa20-7e00f2debf94,Owner 9932,+91XXXXXXXXXX,,New York,IN,Seller,Generated
fceaa600-9170-4de6-afb1-d338f7a8a11d,Owner 8704,+91XXXXXXXXXX,,New York,IN,Seller,Generated
39402dcc-40d2-45bc-974b-6cf96481c5c0,Owner 7513,+91XXXXXXXXXX,,New York,IN,Seller,Generated
9a21d265-6909-4089-975d-2cee486903d3,Owner 9846,+91XXXXXXXXXX,,New York,IN,Seller,Generated
f9d413e2-836d-42da-877b-6a3341009f1a,Owner 2380,+91XXXXXXXXXX,,London,IN,Seller,Generated
17d39eee-e9ba-4337-a2ef-3ef1a9ce3c5b,Owner 4154,+91XXXXXXXXXX,,New York,IN,Seller,Generated
5e50bdf3-9a73-4fc0-b25f-bfe64a1ff1dd,Owner 2829,+91XXXXXXXXXX,,New York,IN,Seller,Generated
9b2eef66-41bc-498f-bef9-ad9e357477ac,Owner 9796,+91XXXXXXXXXX,,Mumbai,IN,Seller,Generated
ff13d4aa-f790-47bd-b921-cd08cec2a6ae,Owner 238,+91XXXXXXXXXX,,New York,IN,Seller,Generated
c525b31d-6d7d-4bfe-b763-ad1f269ee353,Owner 7377,+91XXXXXXXXXX,,Mumbai,IN,Seller,Generated
81c64a92-c036-4d2f-80c3-775daf1bc14c,Owner 9035,+91XXXXXXXXXX,,New York,IN,Seller,Generated
3eca997f-1bc8-4e4a-ac6e-a0669ddf16a7,Owner 8840,+91XXXXXXXXXX,,Mumbai,IN,Seller,Generated
26281689-5bf0-45dd-840c-271ad2afca15,Owner 837,+91XXXXXXXXXX,,Delhi,IN,Seller,Generated
99477408-d13b-4de8-b828-5286a029f1c3,Owner 960,+91XXXXXXXXXX,,London,IN,Seller,Generated
40cd91a9-6edc-4f5b-affd-fee39fc60cb9,Owner 575,+91XXXXXXXXXX,,London,IN,Seller,Generated
2827da73-090d-4ac5-8838-bbb06e0e03e8,Owner 1986,+91XXXXXXXXXX,,Delhi,IN,Seller,Generated
c5aea107-b485-4b07-b07b-ed0223b00286,Owner 6917,+91XXXXXXXXXX,,Delhi,IN,Seller,Generated
f7c64d00-b96b-4143-9e17-20e9479e8bd5,Owner 7053,+91XXXXXXXXXX,,Mumbai,IN,Seller,Generated
9104b5a7-18eb-4644-aab8-f89eabfba8b9,Owner 9965,+91XXXXXXXXXX,,London,IN,Seller,Generated
ca77f13a-0fe9-4372-99a1-c55711956856,Owner 4595,+91XXXXXXXXXX,,Delhi,IN,Seller,Generated
c6dee249-9507-4a20-ab39-bb3319115629,Owner 1363,+91XXXXXXXXXX,,Delhi,IN,Seller,Generated
ff8df3c1-f9aa-471b-a5c9-0cb396f65526,Owner 9174,+91XXXXXXXXXX,,Mumbai,IN,Seller,Generated
f0de8cc8-a2c3-4dea-9d27-c8b0faa28230,Owner 842,+91XXXXXXXXXX,,Mumbai,IN,Seller,Generated
72a0872b-b012-4c31-a583-1f656519d94d,Owner 2302,+91XXXXXXXXXX,,New York,IN,Seller,Generated
343df0b1-b9be-47e8-a9b1-25a752643511,Owner 5210,+91XXXXXXXXXX,,Mumbai,IN,Seller,Generated
4b9c38d3-08e8-4a24-85ff-9f01f54b0698,Owner 8024,+91XXXXXXXXXX,,Mumbai,IN,Seller,Generated
852364b1-3a6d-427a-bc78-4712fe23ad11,Owner 3912,+91XXXXXXXXXX,,Mumbai,IN,Seller,Generated
7e7eaaaf-9a4a-4877-8557-489fc97a96d7,Owner 8174,+91XXXXXXXXXX,,Delhi,IN,Seller,Generated
bd7e15a4-d4f3-449a-a9fc-078403002598,Owner 4898,+91XXXXXXXXXX,,Mumbai,IN,Seller,Generated
cb1c063d-e7a3-4905-b125-f68cdba6b5ee,Owner 8383,+91XXXXXXXXXX,,New York,IN,Seller,Generated
fed1b316-e089-4b98-a536-5121bb67aaf5,Owner 5614,+91XXXXXXXXXX,,New York,IN,Seller,Generated
ca44d1a4-712e-4aa3-bf31-c389012b9641,Owner 437,+91XXXXXXXXXX,,London,IN,Seller,Generated
79bacba4-0077-49d3-973b-1cd4845ea40f,Owner 794,+91XXXXXXXXXX,,Mumbai,IN,Seller,Generated
13e40c96-758a-4f10-98ff-c3e01cf5f41f,Owner 4929,+91XXXXXXXXXX,,New York,IN,Seller,Generated
f638a416-31e2-4c3e-a7a0-4854ff3bdb2e,Owner 8279,+91XXXXXXXXXX,,Mumbai,IN,Seller,Generated
b4b4ce93-28f6-46ea-8593-77013eac7892,Owner 294,+91XXXXXXXXXX,,London,IN,Seller,Generated
9093c7e4-323f-47b6-8285-e8a13ad91f37,Owner 4853,+91XXXXXXXXXX,,New York,IN,Seller,Generated
c0963803-78d1-4cfd-ab1c-5286086b000d,Owner 5812,+91XXXXXXXXXX,,Delhi,IN,Seller,Generated
3433d34d-9129-45d1-8063-210622bf7fae,Owner 3127,+91XXXXXXXXXX,,London,IN,Seller,Generated
1a19ceba-a0da-409d-9554-29912d305915,Owner 3748,+91XXXXXXXXXX,,New York,IN,Seller,Generated
3bea277f-8b71-48bd-a229-32aee50f7b33,Owner 7834,+91XXXXXXXXXX,,London,IN,Seller,Generated
c6123f24-2957-4c67-b511-288cb0b81adc,Owner 7179,+91XXXXXXXXXX,,Delhi,IN,Seller,Generated
3a7d6e80-af43-46be-b3b0-1118f5e56471,Owner 1390,+91XXXXXXXXXX,,London,IN,Seller,Generated
43ce508f-22b6-42ac-ba8e-d88b589f41e3,Owner 3674,+91XXXXXXXXXX,,Mumbai,IN,Seller,Generated
69451b45-aaf3-4a3a-909f-6709b249c644,Owner 8577,+91XXXXXXXXXX,,Delhi,IN,Seller,Generated
0d9ce559-5a9d-4252-9b61-616b1c9fb2c2,Owner 4212,+91XXXXXXXXXX,,London,IN,Seller,Generated
8fbb6330-17ee-44f8-abc7-0411da4d7de8,Owner 7710,+91XXXXXXXXXX,,London,IN,Seller,Generated
aa10d815-6a9d-4dfb-8e81-23dbd1f8bbb6,Owner 7939,+91XXXXXXXXXX,,Delhi,IN,Seller,Generated
43dc0e2b-fee2-492e-9c61-392625bedb4d,Owner 7977,+91XXXXXXXXXX,,Mumbai,IN,Seller,Generated
83bf4608-2623-4d03-b670-c6d0c9325424,Owner 7500,+91XXXXXXXXXX,,New York,IN,Seller,Generated
05d17177-d8ab-4cbf-8815-94ea240164f8,Owner 860,+91XXXXXXXXXX,,Mumbai,IN,Seller,Generated
6bab594f-7497-4d44-9175-0c6a83ae6de9,Owner 8171,+91XXXXXXXXXX,,Delhi,IN,Seller,Generated
007a8732-9cca-4dba-ad82-0e6f7b2417b0,Owner 7322,+91XXXXXXXXXX,,New York,IN,Seller,Generated
6f1c31fa-de85-4f7a-927c-d70b4d4bacd3,Owner 4314,+91XXXXXXXXXX,,London,IN,Seller,Generated
f5256407-b4ba-43ad-8e44-e3281a18a954,Owner 3934,+91XXXXXXXXXX,,Mumbai,IN,Seller,Generated
e649882a-a0d3-4bda-8de5-bd7c9296d63e,Owner 7508,+91XXXXXXXXXX,,London,IN,Seller,Generated
6d238fa7-e6a3-408a-b530-72abbf86eaf1,Owner 1809,+91XXXXXXXXXX,,London,IN,Seller,Generated
9a7d1898-f855-4f7b-8158-868aa0bed207,Owner 5190,+91XXXXXXXXXX,,Delhi,IN,Seller,Generated
351ac3a1-538d-4ae9-b08d-6a68d2febf5c,Owner 2083,+91XXXXXXXXXX,,London,IN,Seller,Generated
274344ea-02f8-4644-b871-9822accf68fc,Owner 858,+91XXXXXXXXXX,,London,IN,Seller,Generated
89264564-cb9c-473b-8c05-f112ace8ab8c,Owner 7674,+91XXXXXXXXXX,,Mumbai,IN,Seller,Generated
6bf927da-ef55-445b-b0fc-dfa1c4cc4655,Owner 4202,+91XXXXXXXXXX,,London,IN,Seller,Generated
f76cbaca-b337-4e94-9eff-7a99c1962829,Owner 9576,+91XXXXXXXXXX,,New York,IN,Seller,Generated
3881cde9-803c-4e30-8409-cf6bb77ef0e3,Owner 63,+91XXXXXXXXXX,,Mumbai,IN,Seller,Generated
68420057-c267-478a-ab98-95128e3a3eb8,Owner 7153,+91XXXXXXXXXX,,Delhi,IN,Seller,Generated
1fcd5ed4-84e2-4758-a517-b3e43c2a0b0d,Owner 6820,+91XXXXXXXXXX,,Mumbai,IN,Seller,Generated
2644aad7-9884-49c8-9fd5-30501c4d1deb,Owner 2968,+91XXXXXXXXXX,,London,IN,Seller,Generated
563384f4-47f9-4e56-8425-4274f99bbf95,Owner 8478,+91XXXXXXXXXX,,Delhi,IN,Seller,Generated
695452e0-4200-477a-869d-0a0ead958eb4,Owner 4676,+91XXXXXXXXXX,,London,IN,Seller,Generated
6e4cd4d3-ed00-44b8-9a94-49c1dde74039,Owner 9927,+91XXXXXXXXXX,,Delhi,IN,Seller,Generated
58e40d7c-ef02-47ff-9ab4-f00124dbe9aa,Owner 7011,+91XXXXXXXXXX,,New York,IN,Seller,Generated
f89e47f2-caf6-49c5-9f40-1e71f895a2ef,Owner 1992,+91XXXXXXXXXX,,Delhi,IN,Seller,Generated
263d77a4-0205-4830-a892-19bfbf4aab3b,Owner 9089,+91XXXXXXXXXX,,London,IN,Seller,Generated
2449cdc4-d00b-46b5-a18a-0c5fc3158047,Owner 2993,+91XXXXXXXXXX,,Delhi,IN,Seller,Generated
7ede0a39-1d33-4e81-aaaa-230609dc57c6,Owner 3202,+91XXXXXXXXXX,,Mumbai,IN,Seller,Generated
724746b5-d7f1-4010-b62c-e5d3d3da836e,Owner 9671,+91XXXXXXXXXX,,London,IN,Seller,Generated
fddf9c63-badb-452d-ac25-321ef45ff381,Owner 5177,+91XXXXXXXXXX,,London,IN,Seller,Generated
296cef85-6820-45c6-834a-260ddc0e6fc7,Owner 9244,+91XXXXXXXXXX,,London,IN,Seller,Generated
5e115fdc-91f3-4b60-9d2f-8a4c5f932ed2,Owner 5374,+91XXXXXXXXXX,,Mumbai,IN,Seller,Generated
4571e2c4-f2cb-471e-8c7a-e1370b30b09b,Owner 5868,+91XXXXXXXXXX,,London,IN,Seller,Generated
5179366e-b049-4558-9937-c4ab5977315e,Owner 9931,+91XXXXXXXXXX,,London,IN,Seller,Generated
01a93a06-ee28-40eb-bb38-37a49b27e0d5,Owner 4245,+91XXXXXXXXXX,,Delhi,IN,Seller,Generated
80989330-6a81-43e8-bf7e-19bfec55bdcc,Owner 2477,+91XXXXXXXXXX,,Mumbai,IN,Seller,Generated
3c6fefcd-9aee-4a90-8e3d-53f60d5d5f30,Owner 3965,+91XXXXXXXXXX,,Mumbai,IN,Seller,Generated
f908556f-ad05-4a6e-9f41-00d6da69f885,Owner 3502,+91XXXXXXXXXX,,New York,IN,Seller,Generated
4925d4f2-5ad4-482e-a853-80f6b4bdec39,Owner 1630,+91XXXXXXXXXX,,London,IN,Seller,Generated
a45f76e2-fdfa-4959-bcb5-919337aef4ea,Owner 3447,+91XXXXXXXXXX,,New York,IN,Seller,Generated
16eaebf5-5fc6-40e8-b76c-57f1f8b5169c,Owner 9000,+91XXXXXXXXXX,,London,IN,Seller,Generated
2008ed89-344a-4638-8df1-e27ea9291f70,Owner 3322,+91XXXXXXXXXX,,Mumbai,IN,Seller,Generated
938bd444-91ee-478d-9ca2-7fc099753a39,Owner 3455,+91XXXXXXXXXX,,New York,IN,Seller,Generated
6c07997d-67a5-462b-ae48-575df7c19444,Owner 8996,+91XXXXXXXXXX,,London,IN,Seller,Generated
43db5a06-2eed-4fb3-aaf2-94647d8f5480,Owner 1966,+91XXXXXXXXXX,,Mumbai,IN,Seller,Generated
0d4cb29c-d438-4d44-b5b3-a85b422d533a,Owner 397,+91XXXXXXXXXX,,London,IN,Seller,Generated
0d3f5e53-7162-4044-a3f7-824cd8752994,Owner 60,+91XXXXXXXXXX,,New York,IN,Seller,Generated
1857155f-2f75-4a52-9c9e-9b13edcf6d4d,Owner 7832,+91XXXXXXXXXX,,Mumbai,IN,Seller,Generated
6d7f511f-7abe-4426-a091-86f011ac9dbc,Owner 2735,+91XXXXXXXXXX,,Delhi,IN,Seller,Generated
0e5fabdc-f980-4656-96d4-253c55ea6b90,Owner 501,+91XXXXXXXXXX,,London,IN,Seller,Generated
b8a4509c-a788-4321-9311-adbeabd624fb,Owner 2679,+91XXXXXXXXXX,,Delhi,IN,Seller,Generated
c759f808-7cff-41f0-89e8-a9784b15dd1a,Owner 4152,+91XXXXXXXXXX,,Delhi,IN,Seller,Generated
74646392-83c4-4459-8421-f6e97e6134e3,Owner 3847,+91XXXXXXXXXX,,London,IN,Seller,Generated
adb0f8f8-6fde-49ce-b354-8171628e2e10,Owner 4911,+91XXXXXXXXXX,,London,IN,Seller,Generated
f1a8b8b0-4f4e-4ada-aa5b-118b95f53372,Owner 7666,+91XXXXXXXXXX,,London,IN,Seller,Generated
148d8ab3-a3e2-4334-bb82-2d549ba959ab,Owner 4008,+91XXXXXXXXXX,,New York,IN,Seller,Generated
4f0bebd8-3548-420a-b304-e469a844525a,Owner 1296,+91XXXXXXXXXX,,London,IN,Seller,Generated
57bae239-bb11-4bbd-a3ee-81be152217a2,Owner 4424,+91XXXXXXXXXX,,New York,IN,Seller,Generated
e62170ee-205c-46ee-aad9-aa71edca8339,Owner 3426,+91XXXXXXXXXX,,New York,IN,Seller,Generated
c4cbe8c6-e48c-4eee-83b5-72b1de648905,Owner 501,+91XXXXXXXXXX,,Delhi,IN,Seller,Generated
66977dd6-1285-41ae-b66c-03c821f288a9,Owner 9796,+91XXXXXXXXXX,,New York,IN,Seller,Generated
ee8af4f0-5901-47ce-801f-788121dab5f1,Owner 3238,+91XXXXXXXXXX,,London,IN,Seller,Generated
b8fa6579-48dd-4e61-b6d9-2b02767bffb3,Owner 8631,+91XXXXXXXXXX,,New York,IN,Seller,Generated
582f45a5-9d68-4c80-8986-fb46f1b86faf,Owner 9868,+91XXXXXXXXXX,,London,IN,Seller,Generated
a6b066e6-98e5-450a-b142-fed3976f52b0,Owner 2434,+91XXXXXXXXXX,,Delhi,IN,Seller,Generated
06566aa5-318b-42f4-bfdf-be9c2a868572,Owner 1805,+91XXXXXXXXXX,,Delhi,IN,Seller,Generated
2862c089-242b-4b52-ae44-d1e9e73b6260,Owner 8023,+91XXXXXXXXXX,,Delhi,IN,Seller,Generated
780d6572-88bd-4d2d-9e39-766003dbcd79,Owner 1434,+91XXXXXXXXXX,,Mumbai,IN,Seller,Generated
a7b83010-fcac-4db8-aa83-c4a834c51db8,Owner 5734,+91XXXXXXXXXX,,Delhi,IN,Seller,Generated
348c49a5-9027-49ac-bd30-f1fd58dd88d1,Owner 9142,+91XXXXXXXXXX,,Mumbai,IN,Seller,Generated
10f62886-c049-4def-9030-e62297254ce5,Owner 4410,+91XXXXXXXXXX,,London,IN,Seller,Generated
ad8e7d31-4c1c-49cb-be1c-514e080292aa,Owner 2651,+91XXXXXXXXXX,,Delhi,IN,Seller,Generated
878c5e58-e8d0-4c98-abfe-d11a237f274a,Owner 544,+91XXXXXXXXXX,,Mumbai,IN,Seller,Generated
592c995e-44b7-4360-995e-d42fdfb348d9,Owner 3021,+91XXXXXXXXXX,,Mumbai,IN,Seller,Generated
37e23c9c-3c48-47a2-abb5-067cdb138f7b,Owner 5230,+91XXXXXXXXXX,,New York,IN,Seller,Generated
70aa7320-327b-4a09-b8cd-1c2351cba583,Owner 1993,+91XXXXXXXXXX,,Delhi,IN,Seller,Generated
aa0f0df0-81ce-4b65-bed4-5ced66781f04,Owner 9581,+91XXXXXXXXXX,,Delhi,IN,Seller,Generated
d7e8de96-32ca-4e0a-ab71-702f72d05dec,Owner 5507,+91XXXXXXXXXX,,New York,IN,Seller,Generated
9fce4106-6358-452e-80cb-c99813dc021b,Owner 6516,+91XXXXXXXXXX,,Mumbai,IN,Seller,Generated
ecc0cc83-402f-4037-bfe0-24dbc806e6b9,Owner 3770,+91XXXXXXXXXX,,Mumbai,IN,Seller,Generated
5247dc86-2699-48db-8d9f-05a3d5cf3181,Owner 3048,+91XXXXXXXXXX,,New York,IN,Seller,Generated
60a38432-680c-4806-88ba-633b5076cccd,Owner 2979,+91XXXXXXXXXX,,Delhi,IN,Seller,Generated
6e4b76c9-8a6d-4651-a4d3-734ef931c12e,Owner 2241,+91XXXXXXXXXX,,Mumbai,IN,Seller,Generated
5d0b71b2-0955-4b49-91d0-8b864ad9f9de,Owner 8684,+91XXXXXXXXXX,,New York,IN,Seller,Generated
5c7ed8cb-1e8d-4956-b9e9-ae7326ddab92,Owner 3344,+91XXXXXXXXXX,,Mumbai,IN,Seller,Generated
10fcddd1-5e3e-44e5-a69c-18c7437072ec,Owner 835,+91XXXXXXXXXX,,Mumbai,IN,Seller,Generated
a7ffedbe-97a0-4c6b-b6ec-70798195d418,Owner 2171,+91XXXXXXXXXX,,Delhi,IN,Seller,Generated
168f4d17-4d4d-44a2-a6cc-abfe32cb897e,Owner 6731,+91XXXXXXXXXX,,Delhi,IN,Seller,Generated
2c0c5712-03cc-4934-9c6a-a05e0d7ba896,Owner 6876,+91XXXXXXXXXX,,London,IN,Seller,Generated
20332a30-c163-4f95-833e-1c20ad121c7d,Owner 1488,+91XXXXXXXXXX,,Mumbai,IN,Seller,Generated
ed39e445-a604-4f14-b5da-841050e326f6,Owner 2320,+91XXXXXXXXXX,,London,IN,Seller,Generated
e66d678d-9524-44b0-9d09-2e2ff8ae46a6,Owner 5445,+91XXXXXXXXXX,,London,IN,Seller,Generated
188e8620-9270-4510-ac5c-b3ba12dc67b7,Owner 118,+91XXXXXXXXXX,,Delhi,IN,Seller,Generated
aa9cd86d-b98a-4aab-9498-17e431883134,Owner 2121,+91XXXXXXXXXX,,Delhi,IN,Seller,Generated
1ee0fa9c-b6b1-47d3-9210-e03ad578bf0b,Owner 5854,+91XXXXXXXXXX,,London,IN,Seller,Generated
05ec212d-e610-40e3-9d87-05ad927d28c6,Owner 686,+91XXXXXXXXXX,,New York,IN,Seller,Generated
afe53d8b-cc9f-4d76-8fb1-95de760b5578,Owner 4874,+91XXXXXXXXXX,,London,IN,Seller,Generated
cbe20c31-9677-468d-9dce-94c07b46f7a8,Owner 4036,+91XXXXXXXXXX,,Mumbai,IN,Seller,Generated
f11dc12b-c814-4821-bd28-e26804ff4189,Owner 7567,+91XXXXXXXXXX,,Mumbai,IN,Seller,Generated
6628f8ab-8e1e-4d7b-a02f-0919a85bf8f0,Owner 8895,+91XXXXXXXXXX,,Delhi,IN,Seller,Generated
72942091-7f17-40d4-88ef-6e5468a86d92,Owner 1727,+91XXXXXXXXXX,,New York,IN,Seller,Generated
769184b5-39fb-49b3-9bb3-f257ccb85b7e,Owner 1989,+91XXXXXXXXXX,,New York,IN,Seller,Generated
befea7eb-082f-4852-8e6c-fc34693c9fc1,Owner 9226,+91XXXXXXXXXX,,London,IN,Seller,Generated
83adb9c5-3a44-4748-a86f-17d48950006f,Owner 2177,+91XXXXXXXXXX,,Delhi,IN,Seller,Generated
0f037380-1c0a-45b1-aed9-c35a6b2f6451,Owner 2673,+91XXXXXXXXXX,,New York,IN,Seller,Generated
03afb68a-828a-489a-99b0-d702c92c6f9d,Owner 6558,+91XXXXXXXXXX,,London,IN,Seller,Generated
d071e935-d891-4a2a-91d3-2a1df1b6dbb0,Owner 1996,+91XXXXXXXXXX,,Delhi,IN,Seller,Generated
511fd0f9-8dd5-4ed9-9f8c-23da91cb0b8c,Owner 6292,+91XXXXXXXXXX,,Mumbai,IN,Seller,Generated
189e0769-fada-4d4d-b755-fe0b026399d9,Owner 851,+91XXXXXXXXXX,,Delhi,IN,Seller,Generated
38b12a58-793d-4837-935c-7d1944866af7,Owner 1292,+91XXXXXXXXXX,,London,IN,Seller,Generated
edf50fc3-4304-466d-b60d-fde8b0b52947,Owner 4733,+91XXXXXXXXXX,,New York,IN,Seller,Generated
f01f7c01-5ded-4d39-b581-1398b2492d32,Owner 5100,+91XXXXXXXXXX,,Mumbai,IN,Seller,Generated
889e6873-76f9-4c3f-9c9b-ab1c37a3ed06,Owner 126,+91XXXXXXXXXX,,Mumbai,IN,Seller,Generated
1197e18d-a8d7-4ca3-ba38-d64a22856d08,Owner 689,+91XXXXXXXXXX,,Mumbai,IN,Seller,Generated
2c75f22d-c632-4c42-938e-e39800610e56,Owner 7970,+91XXXXXXXXXX,,New York,IN,Seller,Generated
f8c63ea6-c29a-42a9-9a3c-6e260acd91a2,Owner 6795,+91XXXXXXXXXX,,Mumbai,IN,Seller,Generated
e58d5b98-e977-4868-a593-4bdf3454d6b8,Owner 7379,+91XXXXXXXXXX,,New York,IN,Seller,Generated
a660612a-1a8d-4a7e-a505-c471d9be4822,Owner 5462,+91XXXXXXXXXX,,New York,IN,Seller,Generated
8a323970-e859-47e5-a24f-d61084b44111,Owner 7554,+91XXXXXXXXXX,,London,IN,Seller,Generated
c87c2040-c61c-4fe2-963c-0d1e13998a13,Owner 8916,+91XXXXXXXXXX,,Delhi,IN,Seller,Generated
b0903835-f8e4-4c5a-b279-e84bb7fcd1b1,Owner 5877,+91XXXXXXXXXX,,Delhi,IN,Seller,Generated
362a30b2-fcec-4e35-a66b-0938b0d00298,Owner 128,+91XXXXXXXXXX,,London,IN,Seller,Generated
d739e453-167d-4622-bb2a-da7a7f6ce874,Owner 3601,+91XXXXXXXXXX,,Delhi,IN,Seller,Generated
50d93246-eece-4d52-ad36-6bdadbed3def,Owner 6671,+91XXXXXXXXXX,,London,IN,Seller,Generated
735f0d90-d60f-4f3e-a616-447d31eb54dd,Owner 6662,+91XXXXXXXXXX,,Mumbai,IN,Seller,Generated
5d043749-5e10-4fa8-9dcd-9b9d639196b7,Owner 8478,+91XXXXXXXXXX,,Delhi,IN,Seller,Generated
20e206e2-a6aa-46c6-9a39-b0b604efed73,Owner 7,+91XXXXXXXXXX,,London,IN,Seller,Generated
37026404-1cb7-4c01-881a-bad3a0b1352f,Owner 9562,+91XXXXXXXXXX,,Mumbai,IN,Seller,Generated
5879d478-015b-475a-acba-5198d289b3e6,Owner 8764,+91XXXXXXXXXX,,Delhi,IN,Seller,Generated
8c1880fe-7efe-4150-ad95-40ce3f93dfe5,Owner 4565,+91XXXXXXXXXX,,New York,IN,Seller,Generated
4da6adc7-4498-4cfd-a414-cb707c093b61,Owner 2441,+91XXXXXXXXXX,,New York,IN,Seller,Generated
68717b97-fb71-4df3-857a-432adee20a65,Owner 3232,+91XXXXXXXXXX,,New York,IN,Seller,Generated
be11e632-2554-494a-a02e-4990740c7dc9,Owner 7966,+91XXXXXXXXXX,,London,IN,Seller,Generated
1eaf146e-38d9-4e76-8aeb-d1918bb05785,Owner 869,+91XXXXXXXXXX,,London,IN,Seller,Generated
bd57a1b5-fda2-4e68-8ad6-5ecba69c6581,Owner 809,+91XXXXXXXXXX,,Mumbai,IN,Seller,Generated
11457bf8-639c-4e38-a793-35447f2fb39b,Owner 3540,+91XXXXXXXXXX,,London,IN,Seller,Generated
dbdd998e-0908-4bc7-95ca-c56029172cd1,Owner 5717,+91XXXXXXXXXX,,New York,IN,Seller,Generated
af0d8c2a-cbda-4116-a516-5b1b9dc2f5fd,Owner 4359,+91XXXXXXXXXX,,New York,IN,Seller,Generated
ba82a3c4-d3d0-4538-8da5-687986f342ed,Owner 6674,+91XXXXXXXXXX,,Mumbai,IN,Seller,Generated
0f771519-2af5-4031-b6b0-fa129a77f06d,Owner 3645,+91XXXXXXXXXX,,New York,IN,Seller,Generated
17a096cb-b9f6-49cf-bd26-1a74466e3676,Owner 4560,+91XXXXXXXXXX,,New York,IN,Seller,Generated
158a6101-1117-474d-8019-8b07d4b6157d,Owner 603,+91XXXXXXXXXX,,Delhi,IN,Seller,Generated
51d5fbe3-7079-4e9a-ac91-a220f4ffd88c,Owner 2171,+91XXXXXXXXXX,,London,IN,Seller,Generated
2de0d277-f7ba-4d1f-a7f8-85ec431422de,Owner 7900,+91XXXXXXXXXX,,London,IN,Seller,Generated
ec6cdf2f-3faf-48bd-b6e2-63c30e79e96d,Owner 3529,+91XXXXXXXXXX,,London,IN,Seller,Generated
6847fb35-9f62-4642-83e8-19951dfad036,Owner 8092,+91XXXXXXXXXX,,Mumbai,IN,Seller,Generated
7dc3bf10-2bab-4212-bfe8-11ad7489ddc2,Owner 8988,+91XXXXXXXXXX,,New York,IN,Seller,Generated
935f4633-b86c-484e-83f3-31ae3900b987,Owner 6621,+91XXXXXXXXXX,,Delhi,IN,Seller,Generated
af527eb5-5302-4fcc-83d1-882c5535738a,Owner 3236,+91XXXXXXXXXX,,Mumbai,IN,Seller,Generated
aec3eccc-863f-44b9-812f-f6f9f0781680,Owner 5073,+91XXXXXXXXXX,,New York,IN,Seller,Generated
6d67b4a2-54f4-488a-a14c-d1cec644a855,Owner 7448,+91XXXXXXXXXX,,Delhi,IN,Seller,Generated
534e84d2-5cbc-4492-8dba-21e4b1543365,Owner 6032,+91XXXXXXXXXX,,New York,IN,Seller,Generated
be358c8c-ce99-48d3-907f-43ac327828c7,Owner 8827,+91XXXXXXXXXX,,New York,IN,Seller,Generated
04efa808-8e1e-43db-a822-50cc1c547da3,Owner 9781,+91XXXXXXXXXX,,Mumbai,IN,Seller,Generated
f3593d2c-df69-4b5f-b7fe-bee03fe4a482,Owner 8890,+91XXXXXXXXXX,,Delhi,IN,Seller,Generated
63755350-af62-4a18-bac6-39b9db7eee7e,Owner 2742,+91XXXXXXXXXX,,New York,IN,Seller,Generated
31b0fab1-e99b-4462-b70f-d8888d5cc105,Owner 4555,+91XXXXXXXXXX,,Delhi,IN,Seller,Generated
d40d12a5-9442-48a1-9dea-12b44051ebb3,Owner 517,+91XXXXXXXXXX,,London,IN,Seller,Generated
15636ebf-c2fb-43e2-b48b-e96d082395e4,Owner 8816,+91XXXXXXXXXX,,Mumbai,IN,Seller,Generated
dcf2ca11-b86e-4d0e-b2b1-3dd17c980ad6,Owner 4166,+91XXXXXXXXXX,,Mumbai,IN,Seller,Generated
60635385-dcbd-42b5-b8cb-bba9e4d7bf14,Owner 1668,+91XXXXXXXXXX,,Mumbai,IN,Seller,Generated
4c6ac359-4b1c-497b-9ebc-5b0b7a7da829,Owner 7136,+91XXXXXXXXXX,,Mumbai,IN,Seller,Generated
346a9e87-9dcf-4a65-8254-5d40f2b2e21a,Owner 4491,+91XXXXXXXXXX,,London,IN,Seller,Generated
d2f46c3e-eb4a-4437-9d9d-ebfea1e60982,Owner 1882,+91XXXXXXXXXX,,Mumbai,IN,Seller,Generated
f86fbabe-6d82-473a-b9b4-7c897c37eb20,Owner 3200,+91XXXXXXXXXX,,London,IN,Seller,Generated
f2b25a4e-fdc6-481b-b29e-e054dc6cb2c9,Owner 1078,+91XXXXXXXXXX,,Mumbai,IN,Seller,Generated
f98dc407-32b4-4bde-b735-e88bf930cbf2,Owner 8003,+91XXXXXXXXXX,,London,IN,Seller,Generated
329c4acb-7930-4dd3-82c4-381ff0a44461,Owner 9307,+91XXXXXXXXXX,,Delhi,IN,Seller,Generated
98f2f81e-e11d-45c8-a061-08291a6c406d,Owner 4515,+91XXXXXXXXXX,,London,IN,Seller,Generated
152664c7-30e2-49d1-9f36-4b64e708b301,Owner 331,+91XXXXXXXXXX,,Delhi,IN,Seller,Generated
e8dd0f3e-4dc1-44a4-884c-8c0c1988141b,Owner 1541,+91XXXXXXXXXX,,London,IN,Seller,Generated
9fff5a77-1175-4b00-91ff-f9d0eaf31af1,Owner 6998,+91XXXXXXXXXX,,London,IN,Seller,Generated
d38e6eca-da85-433e-ad27-05dc0c5fb8ff,Owner 9956,+91XXXXXXXXXX,,London,IN,Seller,Generated
9095e14f-a0c8-4e10-88e7-0a2b5c2a5133,Owner 8799,+91XXXXXXXXXX,,London,IN,Seller,Generated
3887a811-2b28-4bff-8223-714f88cedbdb,Owner 9332,+91XXXXXXXXXX,,New York,IN,Seller,Generated
da59f4f0-9775-4a13-9476-f42e992fb860,Owner 2069,+91XXXXXXXXXX,,London,IN,Seller,Generated
ab90a41c-c8c9-40ad-a265-270fef04901a,Owner 5749,+91XXXXXXXXXX,,Delhi,IN,Seller,Generated
a1a204f2-4315-43bd-b77f-904db7a34d7a,Owner 3454,+91XXXXXXXXXX,,Mumbai,IN,Seller,Generated
cf8a76b5-bf90-41fa-8516-02532366cf16,Owner 211,+91XXXXXXXXXX,,Delhi,IN,Seller,Generated
3e279b1e-6214-4d1b-98c5-a8395c5ce72f,Owner 2688,+91XXXXXXXXXX,,London,IN,Seller,Generated
f9c075fa-0fbf-49e2-ac03-57a0757a91df,Owner 5006,+91XXXXXXXXXX,,Mumbai,IN,Seller,Generated
f75c637b-40a9-4249-a4c7-e9b22915bb6a,Owner 4121,+91XXXXXXXXXX,,Mumbai,IN,Seller,Generated
eaba4cea-110f-4b2e-8362-47b5deba0a61,Owner 3356,+91XXXXXXXXXX,,London,IN,Seller,Generated
3bcdb55a-8c4c-45fe-95be-364b86f3d484,Owner 7926,+91XXXXXXXXXX,,New York,IN,Seller,Generated
a785d272-bd05-4573-8b6d-38169e1667f5,Owner 7330,+91XXXXXXXXXX,,Mumbai,IN,Seller,Generated
8ec263d4-3782-44c0-bbee-4f04770e87c6,Owner 683,+91XXXXXXXXXX,,Delhi,IN,Seller,Generated
63074e17-9c5a-4b11-b3dc-81661b8cc0e4,Owner 512,+91XXXXXXXXXX,,London,IN,Seller,Generated
f3e2481c-11b0-4881-9cb1-34fc0c94aa5c,Owner 3376,+91XXXXXXXXXX,,Delhi,IN,Seller,Generated
af95dfbe-4362-49e9-84c3-ca188e29438c,Owner 6027,+91XXXXXXXXXX,,London,IN,Seller,Generated
32763eb0-3c50-4ac0-aa23-bc1e700c0cd3,Owner 9393,+91XXXXXXXXXX,,Mumbai,IN,Seller,Generated
e88a2420-c5d6-4c73-b396-2a7b389ddc2c,Owner 6633,+91XXXXXXXXXX,,New York,IN,Seller,Generated
84695f4d-8d6b-40d1-aeac-fdede407bd61,Owner 3647,+91XXXXXXXXXX,,Delhi,IN,Seller,Generated
2af67680-4cb6-40ef-b88e-a27a05433ed8,Owner 3751,+91XXXXXXXXXX,,New York,IN,Seller,Generated
1a9f5efa-351d-4194-8700-7460e6a47548,Owner 671,+91XXXXXXXXXX,,London,IN,Seller,Generated
c32a6c8f-4b79-4e03-950c-5cc9808ca91a,Owner 4790,+91XXXXXXXXXX,,Mumbai,IN,Seller,Generated
a9d1ac17-8c28-44e6-8ee2-898fa34ac62e,Owner 5080,+91XXXXXXXXXX,,New York,IN,Seller,Generated
42e165eb-a489-4e73-971b-0545747c32dc,Owner 1995,+91XXXXXXXXXX,,New York,IN,Seller,Generated
bafdf40c-90c2-4612-94da-3501d6c432ab,Owner 4255,+91XXXXXXXXXX,,Mumbai,IN,Seller,Generated
fde4559f-4936-4f37-bbd5-2e47fb401564,Owner 7964,+91XXXXXXXXXX,,New York,IN,Seller,Generated
b8b51a6d-ecd1-4094-9a7e-8725c9815061,Owner 4441,+91XXXXXXXXXX,,New York,IN,Seller,Generated
0bee9ebf-c6f5-4281-8275-f2c4645463a7,Owner 1274,+91XXXXXXXXXX,,New York,IN,Seller,Generated
3c33b9f5-3979-412d-86c3-67372a5c5ae0,Owner 5472,+91XXXXXXXXXX,,Delhi,IN,Seller,Generated
dd7b6eeb-06e6-4302-8501-664086df315c,Owner 3676,+91XXXXXXXXXX,,London,IN,Seller,Generated
60c9e85c-943d-4eeb-8120-45d84163033c,Owner 9260,+91XXXXXXXXXX,,Mumbai,IN,Seller,Generated
6a623f33-f1e0-47d1-a87e-834ee7f5760f,Owner 1361,+91XXXXXXXXXX,,Mumbai,IN,Seller,Generated
5e8c9a73-72fc-41c1-bd83-bfaa97b6f47f,Owner 2075,+91XXXXXXXXXX,,London,IN,Seller,Generated
6b238e20-9cdd-4500-81b5-e528cc946e09,Owner 9422,+91XXXXXXXXXX,,New York,IN,Seller,Generated
f23b20a9-6bdc-4d8c-b0b2-1d130431b6ee,Owner 5907,+91XXXXXXXXXX,,New York,IN,Seller,Generated
3b094b65-76fe-41ca-a93a-9293be289a18,Owner 1255,+91XXXXXXXXXX,,Delhi,IN,Seller,Generated
d9c36b17-1350-4845-8239-9f13353d2c7c,Owner 1603,+91XXXXXXXXXX,,New York,IN,Seller,Generated
aebbbef6-16eb-464f-95d1-6ffb4eb61284,Owner 5705,+91XXXXXXXXXX,,Mumbai,IN,Seller,Generated
6050a550-4ca2-43ad-a127-cac3ced5f977,Owner 5343,+91XXXXXXXXXX,,London,IN,Seller,Generated
cc248047-3abe-4385-a6d3-13c42d0f1abd,Owner 8545,+91XXXXXXXXXX,,Delhi,IN,Seller,Generated
58df3f09-558f-4b22-8165-43ad6dd1dcaf,Owner 2515,+91XXXXXXXXXX,,Mumbai,IN,Seller,Generated
ec379ce4-86d7-4924-971f-89a4532bb3d4,Owner 5033,+91XXXXXXXXXX,,London,IN,Seller,Generated
c3253eac-ccbe-4dbf-bace-89aea38e4377,Owner 4424,+91XXXXXXXXXX,,Delhi,IN,Seller,Generated
4fb9c485-5300-4c7f-8a94-fcf20c12d677,Owner 4252,+91XXXXXXXXXX,,Delhi,IN,Seller,Generated
1c243b80-b087-4779-811c-55ebdfc17289,Owner 1181,+91XXXXXXXXXX,,Delhi,IN,Seller,Generated
9ba73efb-5de5-4fa9-9913-c4709021bfbb,Owner 1510,+91XXXXXXXXXX,,New York,IN,Seller,Generated
a70402a1-d861-4bcc-883c-361d4c3d6e03,Owner 7392,+91XXXXXXXXXX,,New York,IN,Seller,Generated
e99b6da5-93c3-434e-9ccb-1143547b796e,Owner 5702,+91XXXXXXXXXX,,Delhi,IN,Seller,Generated
e9a5d546-bccd-4271-89d5-60e5d0b8fb68,Owner 1322,+91XXXXXXXXXX,,New York,IN,Seller,Generated
1406bb01-b2d7-478c-9556-9747e4ca3e0b,Owner 7006,+91XXXXXXXXXX,,London,IN,Seller,Generated
85e7c6f6-3271-4415-a371-cac11ad7524b,Owner 5226,+91XXXXXXXXXX,,Mumbai,IN,Seller,Generated
798e3282-387b-47dd-a11a-87ca86679e58,Owner 2244,+91XXXXXXXXXX,,Mumbai,IN,Seller,Generated
5fab4147-f93b-4106-af30-97e641bf809d,Owner 4410,+91XXXXXXXXXX,,Mumbai,IN,Seller,Generated
98d48d54-4eb8-4d73-a14b-b728184ce1f5,Owner 6900,+91XXXXXXXXXX,,Delhi,IN,Seller,Generated
c1b4e929-1289-4ace-8518-f891b66a02c4,Owner 9621,+91XXXXXXXXXX,,Delhi,IN,Seller,Generated
90530526-16c7-467c-be25-f07bf1585f03,Owner 6899,+91XXXXXXXXXX,,Mumbai,IN,Seller,Generated
a12dd883-c2c6-421d-b0ec-78038d7706a2,Owner 1494,+91XXXXXXXXXX,,Delhi,IN,Seller,Generated
3f719953-6c34-45dc-9814-2c030fe6b1b1,Owner 5784,+91XXXXXXXXXX,,Delhi,IN,Seller,Generated
3c5d5dba-12e0-4979-8a8b-7946a3fe2576,Owner 3004,+91XXXXXXXXXX,,Delhi,IN,Seller,Generated
e0e56402-ff54-42f0-adfe-8b64bf8fa288,Owner 7795,+91XXXXXXXXXX,,Delhi,IN,Seller,Generated
8023446a-096f-4cc3-b637-d05a72af3fa0,Owner 3434,+91XXXXXXXXXX,,London,IN,Seller,Generated
549b3a76-af30-47ae-a4ec-3d95aaec88fc,Owner 7035,+91XXXXXXXXXX,,New York,IN,Seller,Generated
40b5b3b2-19b4-44a2-ab8a-9677d83ef8c4,Owner 4152,+91XXXXXXXXXX,,New York,IN,Seller,Generated
59f5e394-d6af-4800-a990-abfa6816ca39,Owner 2587,+91XXXXXXXXXX,,Delhi,IN,Seller,Generated
95f22f0f-b023-4bab-8c5a-e8eb9b8ca75e,Owner 1898,+91XXXXXXXXXX,,New York,IN,Seller,Generated
738e78b4-9a85-4172-808c-ca9854f61982,Owner 5553,+91XXXXXXXXXX,,Delhi,IN,Seller,Generated
b03d53ba-2cde-4c54-a7b9-bd9e77337e2e,Owner 4264,+91XXXXXXXXXX,,Delhi,IN,Seller,Generated
b30309be-e89b-4f27-92e6-64134bebcd2b,Owner 3151,+91XXXXXXXXXX,,New York,IN,Seller,Generated
f8bce25f-bc3b-4df4-b4bb-6b6848661206,Owner 9607,+91XXXXXXXXXX,,New York,IN,Seller,Generated
26fa032b-15dc-4039-906c-b76ae4093b6b,Owner 5856,+91XXXXXXXXXX,,Delhi,IN,Seller,Generated
a02461d5-597e-41da-92e7-7ad2dc6fb8e7,Owner 5587,+91XXXXXXXXXX,,Mumbai,IN,Seller,Generated
b84e9191-ecac-4192-bb08-0a73a03593b4,Owner 2731,+91XXXXXXXXXX,,New York,IN,Seller,Generated
d31ae966-721e-46ea-82c0-fd71863c4a6f,Owner 1412,+91XXXXXXXXXX,,Mumbai,IN,Seller,Generated
79672061-d958-48c8-a768-cf93629656c9,Owner 964,+91XXXXXXXXXX,,London,IN,Seller,Generated
24ceb8ae-d865-4a8e-bbb4-8d1311dfbb1e,Owner 7033,+91XXXXXXXXXX,,Delhi,IN,Seller,Generated
31bb6b41-e6a7-4a54-bcb3-27ce6d21811e,Owner 9043,+91XXXXXXXXXX,,Delhi,IN,Seller,Generated
28bef53f-6968-4c7f-8c95-7267a0b19b2d,Owner 5444,+91XXXXXXXXXX,,New York,IN,Seller,Generated
8da50556-aaaf-4bcb-bd3e-9dd59385cf93,Owner 9816,+91XXXXXXXXXX,,Delhi,IN,Seller,Generated
55a84aa5-8a22-4802-bff5-165e7990623b,Owner 6746,+91XXXXXXXXXX,,Mumbai,IN,Seller,Generated
97a6b1e6-52b5-4076-9644-633384eb70df,Owner 933,+91XXXXXXXXXX,,London,IN,Seller,Generated
1343b8d8-db8c-49fc-8c2e-129a38adb7fc,Owner 5528,+91XXXXXXXXXX,,London,IN,Seller,Generated
b3169fc6-fa18-4ebe-af91-c2d7233a2dfc,Owner 7004,+91XXXXXXXXXX,,New York,IN,Seller,Generated
c4483014-cd3a-4746-869e-e9d61d990755,Owner 131,+91XXXXXXXXXX,,New York,IN,Seller,Generated
a39ecec1-8fea-4233-8a75-d2cdbb372d7b,Owner 4130,+91XXXXXXXXXX,,London,IN,Seller,Generated
a4af3e7e-2836-4d01-8414-ff61cb87feb4,Owner 7640,+91XXXXXXXXXX,,Delhi,IN,Seller,Generated
5170e948-58b7-4df2-836d-1fb791344588,Owner 7463,+91XXXXXXXXXX,,London,IN,Seller,Generated
13c0308c-188d-4ac0-ac2b-233fe666279d,Owner 1387,+91XXXXXXXXXX,,Delhi,IN,Seller,Generated
cd232f78-522c-4254-9e54-21ac7f0e4351,Owner 2534,+91XXXXXXXXXX,,London,IN,Seller,Generated
7d2e7da0-2d99-4e4c-82f0-159ee4dca80e,Owner 9031,+91XXXXXXXXXX,,Mumbai,IN,Seller,Generated
9f6443da-9c15-4390-b50e-804ae6d485b1,Owner 6571,+91XXXXXXXXXX,,Delhi,IN,Seller,Generated
75b71662-f3e1-4714-ad49-5d4481fdfe91,Owner 838,+91XXXXXXXXXX,,New York,IN,Seller,Generated
383fdc58-111b-493e-892d-e4c07b589a3e,Owner 8230,+91XXXXXXXXXX,,London,IN,Seller,Generated
0190fa07-1995-43cc-9a2f-2d47390e7d4a,Owner 8870,+91XXXXXXXXXX,,Delhi,IN,Seller,Generated
a0ac9dc2-509f-45d4-9af0-a9a8d7073bb2,Owner 2303,+91XXXXXXXXXX,,London,IN,Seller,Generated
19c341ce-eb09-4a8d-8f91-543ef2048036,Owner 3536,+91XXXXXXXXXX,,Mumbai,IN,Seller,Generated
6be0e6bb-2174-48fa-99de-60531612c489,Owner 885,+91XXXXXXXXXX,,Delhi,IN,Seller,Generated
1670f801-8b59-40ef-8655-cb04b5dcf26c,Owner 3378,+91XXXXXXXXXX,,New York,IN,Seller,Generated
80b5722c-d7a6-4af7-9095-ef0109fd6964,Owner 9479,+91XXXXXXXXXX,,Delhi,IN,Seller,Generated
01cb437e-cbdd-4008-8fbf-eb9b6632ce1a,Owner 5273,+91XXXXXXXXXX,,London,IN,Seller,Generated
20fdaa0d-a94b-4c0c-bb89-5b01f53d4c0c,Owner 1461,+91XXXXXXXXXX,,New York,IN,Seller,Generated
b4ce5cfa-af49-4bf7-84a9-5f3d4f7a283b,Owner 3937,+91XXXXXXXXXX,,London,IN,Seller,Generated
f3734c55-8689-4302-8cd5-df14db62e5b0,Owner 9755,+91XXXXXXXXXX,,London,IN,Seller,Generated
24abaa50-a99e-46ac-9ac7-8a15177af4bf,Owner 4628,+91XXXXXXXXXX,,London,IN,Seller,Generated
4c70ec2f-0689-4f04-b8ba-53d4d1c7a8d3,Owner 1828,+91XXXXXXXXXX,,London,IN,Seller,Generated
2439c6f5-5aeb-4972-9baf-5ebcd4d19ef3,Owner 5438,+91XXXXXXXXXX,,London,IN,Seller,Generated
8463cd0b-ecc2-4286-9299-0cc119d0403d,Owner 5911,+91XXXXXXXXXX,,Mumbai,IN,Seller,Generated
ff304ade-de89-454e-affd-3419033f1a20,Owner 775,+91XXXXXXXXXX,,Mumbai,IN,Seller,Generated
6ce9db5c-9ca6-43a5-9cac-d8a7a4897d4b,Owner 1807,+91XXXXXXXXXX,,Mumbai,IN,Seller,Generated
8c9f13bf-d6bb-42f8-adc2-075ad166ee6f,Owner 1807,+91XXXXXXXXXX,,New York,IN,Seller,Generated
67a0a454-b471-4d54-b857-12df43667524,Owner 7295,+91XXXXXXXXXX,,New York,IN,Seller,Generated
4d1b1912-80ba-47b8-a0c2-2a456bda20e9,Owner 9925,+91XXXXXXXXXX,,London,IN,Seller,Generated
12feaf4c-d913-4c6b-ab1c-7478714c9520,Owner 8868,+91XXXXXXXXXX,,Delhi,IN,Seller,Generated
ab9ebb35-a7cf-47d3-9e09-4ceef5b7ae46,Owner 2280,+91XXXXXXXXXX,,London,IN,Seller,Generated
7907f984-87f8-42a7-b5bd-fbbcd4a73636,Owner 5418,+91XXXXXXXXXX,,London,IN,Seller,Generated
d1f17138-991c-431a-9d95-249a6b70d861,Owner 6150,+91XXXXXXXXXX,,Delhi,IN,Seller,Generated
3d7d99cb-a451-4f83-b333-736a8ae9729f,Owner 5560,+91XXXXXXXXXX,,Delhi,IN,Seller,Generated
1382bcdc-b66b-4a06-9053-b457ee9e0cfc,Owner 1574,+91XXXXXXXXXX,,Delhi,IN,Seller,Generated
87a2fcac-e2cf-46f0-8260-d35f0548e3f9,Owner 2758,+91XXXXXXXXXX,,London,IN,Seller,Generated
fd0168d9-3f98-4407-9cc0-c979d41b08c2,Owner 7682,+91XXXXXXXXXX,,London,IN,Seller,Generated
3c974d6d-ac6a-4bff-8256-b6085201d96c,Owner 9661,+91XXXXXXXXXX,,New York,IN,Seller,Generated
2b232a86-765f-4fac-853c-9df63f4a6095,Owner 7056,+91XXXXXXXXXX,,London,IN,Seller,Generated
e50ce936-20ea-45b3-8adf-5c70316da49b,Owner 2631,+91XXXXXXXXXX,,Mumbai,IN,Seller,Generated
023ce445-cb65-4b9a-ba56-a5611e1bdfa8,Owner 3848,+91XXXXXXXXXX,,Mumbai,IN,Seller,Generated
887746b1-ff00-4b03-a8bc-88814c910299,Owner 7978,+91XXXXXXXXXX,,London,IN,Seller,Generated
07407559-ae84-4440-bc74-71051cc4f9f2,Owner 1899,+91XXXXXXXXXX,,Mumbai,IN,Seller,Generated
1aa5bf26-08f5-4a0d-965b-d5c4dd7c5891,Owner 1003,+91XXXXXXXXXX,,Mumbai,IN,Seller,Generated
f68ae5b7-6171-4433-9e2b-4b54fb11c0eb,Owner 9272,+91XXXXXXXXXX,,Delhi,IN,Seller,Generated
ded35be3-0afa-4571-9333-ff142cca3138,Owner 7067,+91XXXXXXXXXX,,Delhi,IN,Seller,Generated
86b730ed-2442-4c77-a7e8-0a0ca5d05097,Owner 3400,+91XXXXXXXXXX,,Mumbai,IN,Seller,Generated
0239c64a-550b-4874-ba2d-5dc0f27db2d1,Owner 9317,+91XXXXXXXXXX,,New York,IN,Seller,Generated
e19572b2-e5c4-44f9-824e-db2b6f1cf95d,Owner 7337,+91XXXXXXXXXX,,Delhi,IN,Seller,Generated
2aa244fa-fa85-412c-8f1f-b690bccc7c57,Owner 4696,+91XXXXXXXXXX,,Delhi,IN,Seller,Generated
96d3eebd-b00b-441b-8580-dc8f9e43ac6c,Owner 3994,+91XXXXXXXXXX,,Mumbai,IN,Seller,Generated
0f342c9c-f30c-40db-b758-c1b75d43e820,Owner 4164,+91XXXXXXXXXX,,Mumbai,IN,Seller,Generated
8a6bd85d-7942-4ea2-90ce-12ffd3878285,Owner 791,+91XXXXXXXXXX,,Mumbai,IN,Seller,Generated
478457fd-9d13-41e9-9d2a-12034a6b2f48,Owner 1819,+91XXXXXXXXXX,,Delhi,IN,Seller,Generated
d78a941e-84ae-4cf0-89b9-0e4a0afd781e,Owner 3907,+91XXXXXXXXXX,,Delhi,IN,Seller,Generated
eeb231b6-bd38-4311-93e5-bfba74b84255,Owner 7757,+91XXXXXXXXXX,,Delhi,IN,Seller,Generated
5f356258-6f0f-439c-b25d-98b02bc86922,Owner 3006,+91XXXXXXXXXX,,Delhi,IN,Seller,Generated
bf4d7646-5818-465e-b2db-3b0b2b5c154d,Owner 7017,+91XXXXXXXXXX,,London,IN,Seller,Generated
a165fa81-e33d-43ad-ba5c-7ef57b41d51a,Owner 6968,+91XXXXXXXXXX,,Mumbai,IN,Seller,Generated
9254d93d-4497-43fa-882f-1006aced27f9,Owner 5344,+91XXXXXXXXXX,,London,IN,Seller,Generated
1bbfa139-b826-4f3d-bae2-5d78761dc287,Owner 8507,+91XXXXXXXXXX,,Delhi,IN,Seller,Generated
d1aac939-3dc3-4e05-9d0e-baa0fba24ee8,Owner 4287,+91XXXXXXXXXX,,Mumbai,IN,Seller,Generated
ff43ea89-d3b1-4af9-85b5-28c12e82146e,Owner 2747,+91XXXXXXXXXX,,New York,IN,Seller,Generated
a0be0812-7d04-400c-9770-c1afc6cc2a87,Owner 3066,+91XXXXXXXXXX,,New York,IN,Seller,Generated
8c0624d7-ff9f-4201-a562-2340095b3f58,Owner 2600,+91XXXXXXXXXX,,London,IN,Seller,Generated
2b5f18cc-6c2c-40d0-972d-0fe6087d094d,Owner 6657,+91XXXXXXXXXX,,London,IN,Seller,Generated
637eb9dd-c08c-451c-ac89-90d3384389ff,Owner 3015,+91XXXXXXXXXX,,London,IN,Seller,Generated
1ead51fc-654e-44a1-ba1f-36afa38b3be6,Owner 8403,+91XXXXXXXXXX,,New York,IN,Seller,Generated
445cf113-8380-4ad0-b4f5-028cc918890a,Owner 5554,+91XXXXXXXXXX,,Mumbai,IN,Seller,Generated
72d52c84-85c8-49b9-87b8-717344434df6,Owner 3266,+91XXXXXXXXXX,,New York,IN,Seller,Generated
5497b6c8-928c-4e11-a037-5a085da924f0,Owner 9707,+91XXXXXXXXXX,,Mumbai,IN,Seller,Generated
3c3dd97b-e837-4c0c-a40b-cc40d0434974,Owner 5365,+91XXXXXXXXXX,,New York,IN,Seller,Generated
6456e4cd-5f92-4736-957a-4ddabd080c5e,Owner 2927,+91XXXXXXXXXX,,Delhi,IN,Seller,Generated
3d1d730c-7c12-4f1d-892d-2fecb2999583,Owner 960,+91XXXXXXXXXX,,New York,IN,Seller,Generated
a289f325-6b87-40f4-9e1f-b836d02a3fb9,Owner 9042,+91XXXXXXXXXX,,London,IN,Seller,Generated
96370d24-435f-4d24-9c07-61c249f16a23,Owner 4059,+91XXXXXXXXXX,,London,IN,Seller,Generated
1beded6d-889b-4a1a-b0da-d93e9e4d40b5,Owner 2166,+91XXXXXXXXXX,,Delhi,IN,Seller,Generated
569d57f5-96f7-49d3-bdff-c097f53601ba,Owner 692,+91XXXXXXXXXX,,London,IN,Seller,Generated
211ad631-8aa4-41b4-a715-11f11bc51ee4,Owner 9997,+91XXXXXXXXXX,,Delhi,IN,Seller,Generated
ef1bddd0-16b6-442d-8576-8d03405a64ca,Owner 8784,+91XXXXXXXXXX,,New York,IN,Seller,Generated
ac9f947f-1bcd-4775-8bb2-7379b8203d87,Owner 7967,+91XXXXXXXXXX,,Delhi,IN,Seller,Generated
4a1fc7b0-211e-416e-aabd-d00fbf2863cd,Owner 6470,+91XXXXXXXXXX,,New York,IN,Seller,Generated
95aa3009-15b4-4f02-ba05-fa10fb81c4ba,Owner 2475,+91XXXXXXXXXX,,Mumbai,IN,Seller,Generated
f8181399-e7ed-4f18-ae2c-6e4b32906063,Owner 4861,+91XXXXXXXXXX,,London,IN,Seller,Generated
92e5163a-a171-4b8a-9014-0d8e4dfbe02a,Owner 7616,+91XXXXXXXXXX,,Mumbai,IN,Seller,Generated
1858c9e4-2994-4b98-b9b0-43869dbe6133,Owner 9945,+91XXXXXXXXXX,,New York,IN,Seller,Generated
daa2c44f-43a8-4ec4-b707-d12cb3da0565,Owner 8015,+91XXXXXXXXXX,,Delhi,IN,Seller,Generated
4e56b746-f10a-4ddf-8b41-d5d4904ed708,Owner 4250,+91XXXXXXXXXX,,Delhi,IN,Seller,Generated
e640c2a8-e0af-4aaa-ac6e-8068d93faaf4,Owner 2361,+91XXXXXXXXXX,,Mumbai,IN,Seller,Generated
5875fb41-27db-479b-b869-8de71f658052,Owner 6173,+91XXXXXXXXXX,,Delhi,IN,Seller,Generated
05763079-cbc2-4f49-86af-622930182535,Owner 6838,+91XXXXXXXXXX,,Mumbai,IN,Seller,Generated
7b484954-2163-40e1-920d-3e66c01bbc78,Owner 7258,+91XXXXXXXXXX,,Delhi,IN,Seller,Generated
af0ec4af-e1d1-4ace-9d85-2d93f2397341,Owner 7792,+91XXXXXXXXXX,,New York,IN,Seller,Generated
2e9c71c9-af40-44ac-8f94-6d0a2e1a083f,Owner 5279,+91XXXXXXXXXX,,London,IN,Seller,Generated
35db3dac-815b-42f1-b0fc-b80fc1bc644b,Owner 7402,+91XXXXXXXXXX,,London,IN,Seller,Generated
1ea2fbaa-a517-4691-8595-a14ec29204db,Owner 7326,+91XXXXXXXXXX,,New York,IN,Seller,Generated
0224ad49-af5f-43b5-a080-5310aaeb0d73,Owner 6104,+91XXXXXXXXXX,,London,IN,Seller,Generated
59b6ab05-2225-4337-a2b7-4e50e21f0b2c,Owner 5192,+91XXXXXXXXXX,,Delhi,IN,Seller,Generated
328ede99-922a-46d0-b8ec-811b4ffb6782,Owner 9134,+91XXXXXXXXXX,,London,IN,Seller,Generated
9e546c1c-603c-4f5f-ae99-269f20b48e7b,Owner 8014,+91XXXXXXXXXX,,New York,IN,Seller,Generated
0f284420-11f2-4fe9-8a8f-bed6f479d937,Owner 3813,+91XXXXXXXXXX,,Delhi,IN,Seller,Generated
d4e7f472-5e37-436c-9d52-1b70d00b85be,Owner 4558,+91XXXXXXXXXX,,New York,IN,Seller,Generated
2c8d107e-13a0-4e47-bd10-3289ee75010a,Owner 3044,+91XXXXXXXXXX,,Delhi,IN,Seller,Generated
29121f8e-3a3c-4bec-b6d4-5c4473e03a02,Owner 2801,+91XXXXXXXXXX,,New York,IN,Seller,Generated
2c3e223f-fd2a-4e02-a380-621e3a49a31e,Owner 2934,+91XXXXXXXXXX,,New York,IN,Seller,Generated
187083b7-033c-4156-b4d4-49221a1e6204,Owner 3546,+91XXXXXXXXXX,,New York,IN,Seller,Generated
9509e64a-3d26-429c-ab04-a030da65b812,Owner 1743,+91XXXXXXXXXX,,New York,IN,Seller,Generated
443a6bc5-e197-4279-8b59-816ea6a22bc3,Owner 8411,+91XXXXXXXXXX,,Delhi,IN,Seller,Generated
f6298c41-be02-485c-a9be-69c00cd9f66a,Owner 861,+91XXXXXXXXXX,,Delhi,IN,Seller,Generated
e5635eeb-dcac-4284-96d6-03920e952977,Owner 2442,+91XXXXXXXXXX,,London,IN,Seller,Generated
454a9dda-9810-4ec0-853a-7dcada3ee9ec,Owner 213,+91XXXXXXXXXX,,New York,IN,Seller,Generated
df4875b4-171d-4bc8-8100-9db6ad64b9ba,Owner 2080,+91XXXXXXXXXX,,Delhi,IN,Seller,Generated
00e4d271-297a-4431-8444-b7dd1bf74ff9,Owner 3274,+91XXXXXXXXXX,,Delhi,IN,Seller,Generated
0dc9d954-e1a8-4969-8c4a-fbaefef339f9,Owner 2196,+91XXXXXXXXXX,,Delhi,IN,Seller,Generated
b54bd570-9099-4243-8f3a-b68c2fe37804,Owner 9994,+91XXXXXXXXXX,,New York,IN,Seller,Generated
3834cadb-59d4-4b22-859a-1f3f5f388dc5,Owner 9232,+91XXXXXXXXXX,,London,IN,Seller,Generated
f03d7962-09c3-442a-bc3e-9ae4da1cd837,Owner 3353,+91XXXXXXXXXX,,New York,IN,Seller,Generated
96c9428a-d822-43ff-a5d5-86f4caed1c93,Owner 5772,+91XXXXXXXXXX,,New York,IN,Seller,Generated
73d76608-ef69-48ae-9ce0-d4825bafd3fd,Owner 7406,+91XXXXXXXXXX,,New York,IN,Seller,Generated
8d4cede9-3664-4346-a75a-6b598965b984,Owner 6095,+91XXXXXXXXXX,,London,IN,Seller,Generated
47a23af8-2074-473d-bcb3-2d616344d23d,Owner 8166,+91XXXXXXXXXX,,Delhi,IN,Seller,Generated
4513e1ff-d551-4644-8684-3f27aa06e13e,Owner 1172,+91XXXXXXXXXX,,Mumbai,IN,Seller,Generated
b32bc4bb-a37c-4b9e-922c-52b8a6310304,Owner 3322,+91XXXXXXXXXX,,Mumbai,IN,Seller,Generated
531e1f73-e95c-424f-b87d-ec6e39da1231,Owner 4483,+91XXXXXXXXXX,,Delhi,IN,Seller,Generated
bfa8a29f-705e-49cc-8d71-4186179cbc49,Owner 9795,+91XXXXXXXXXX,,New York,IN,Seller,Generated
7ac1d81a-44c7-40f7-83b3-f4447730446a,Owner 8432,+91XXXXXXXXXX,,Mumbai,IN,Seller,Generated
eccf82b3-d566-489d-bfb5-a548736928e1,Owner 3679,+91XXXXXXXXXX,,New York,IN,Seller,Generated
d5a6d437-8d30-466d-804e-6f92be7d44da,Owner 9048,+91XXXXXXXXXX,,Mumbai,IN,Seller,Generated
