lead_id,name,phone,email,city,country,type,notes
00e558ca-4771-4e81-a7fe-2320eb572313,Owner 2523,+91XXXXXXXXXX,,New York,IN,Seller,Generated
750e8eff-00b6-47ba-aed5-f130ca4f028a,Owner 5128,+91XXXXXXXXXX,,London,IN,Seller,Generated
34dd7870-6b70-4a52-b989-22d883e0567a,Owner 675,+91XXXXXXXXXX,,Delhi,IN,Seller,Generated
14f1ef39-9827-419b-96a5-5c0c534cc461,Owner 7670,+91XXXXXXXXXX,,Delhi,IN,Seller,Generated
352fcce2-f342-4723-b2ef-036bbdb8109c,Owner 1732,+91XXXXXXXXXX,,Delhi,IN,Seller,Generated
16dd1f4f-3c74-490c-8bf8-365fa1934b91,Owner 16,+91XXXXXXXXXX,,Mumbai,IN,Seller,Generated
8a20951d-73a1-4d53-8569-f55508e271ea,Owner 6216,+91XXXXXXXXXX,,New York,IN,Seller,Generated
d9d49404-e9a4-4cbd-90fc-2ee8f862cf84,Owner 2512,+91XXXXXXXXXX,,London,IN,Seller,Generated
b8f9da29-1e65-4d38-a9b1-2ac27cdc1d73,Owner 513,+91XXXXXXXXXX,,Mumbai,IN,Seller,Generated
a256c4e7-f0a7-4ef4-af33-535e3c31e248,Owner 4591,+91XXXXXXXXXX,,Mumbai,IN,Seller,Generated
d70201df-f9c5-4d80-b5b2-0ecbf294023b,Owner 4022,+91XXXXXXXXXX,,Mumbai,IN,Seller,Generated
a04d8f77-eea4-44aa-be84-2fe4b39c01e6,Owner 691,+91XXXXXXXXXX,,Delhi,IN,Seller,Generated
e63558f9-fdd9-446e-af02-11e6b7c82cd0,Owner 4631,+91XXXXXXXXXX,,Mumbai,IN,Seller,Generated
35601e9e-8192-43c1-8ea1-e78aa8f99cf2,Owner 3238,+91XXXXXXXXXX,,Mumbai,IN,Seller,Generated
ba3cbc13-5507-490e-8611-c789139c258c,Owner 3087,+91XXXXXXXXXX,,Delhi,IN,Seller,Generated
3914afac-da3f-4838-a26c-1244452d9b30,Owner 3793,+91XXXXXXXXXX,,Mumbai,IN,Seller,Generated
4272ec74-24ea-4c3d-b337-d88bae8f8bb5,Owner 2376,+91XXXXXXXXXX,,Delhi,IN,Seller,Generated
0485f05d-1d62-4c3d-842e-82e84925dfa8,Owner 7242,+91XXXXXXXXXX,,London,IN,Seller,Generated
5903a34e-8578-4426-89e1-dfb076ac0e4b,Owner 7649,+91XXXXXXXXXX,,New York,IN,Seller,Generated
7da39418-2e22-4c58-9397-7d4230946745,Owner 9695,+91XXXXXXXXXX,,Mumbai,IN,Seller,Generated
6a2bf7da-e1cf-40b6-a201-be909e520847,Owner 8559,+91XXXXXXXXXX,,Mumbai,IN,Seller,Generated
0dbffa2b-4c99-4304-a9b8-41636614b6b1,Owner 4481,+91XXXXXXXXXX,,Delhi,IN,Seller,Generated
739f8f77-4b5c-4303-9c51-959892b3e539,Owner 9612,+91XXXXXXXXXX,,Delhi,IN,Seller,Generated
a2387542-c4c7-4d1f-a109-557aa3734766,Owner 5249,+91XXXXXXXXXX,,London,IN,Seller,Generated
aa66a621-f450-4334-9447-717bf61abf7f,Owner 7644,+91XXXXXXXXXX,,New York,IN,Seller,Generated
de84a898-8415-4f73-891d-914b6e58a9fe,Owner 8182,+91XXXXXXXXXX,,Delhi,IN,Seller,Generated
4380bb4b-a06f-4c1f-b336-9779d830bd41,Owner 1020,+91XXXXXXXXXX,,Delhi,IN,Seller,Generated
14f98a47-de2c-44a8-a4cc-5f31a18dbdef,Owner 451,+91XXXXXXXXXX,,New York,IN,Seller,Generated
c735f207-7bc5-40f0-b0fe-7a6e869b620d,Owner 1560,+91XXXXXXXXXX,,Mumbai,IN,Seller,Generated
688a0949-695f-4ef0-8b78-95a9ba0dc234,Owner 7230,+91XXXXXXXXXX,,London,IN,Seller,Generated
18e74948-36c3-48eb-aae6-b0d478ac3882,Owner 4372,+91XXXXXXXXXX,,London,IN,Seller,Generated
2864c8ba-3a6c-4beb-b517-804841d60c49,Owner 3050,+91XXXXXXXXXX,,Mumbai,IN,Seller,Generated
9008faea-7600-4ea7-b706-83fbadb9e0f5,Owner 6932,+91XXXXXXXXXX,,New York,IN,Seller,Generated
e2314f72-a1f8-4393-9e77-7de29b96f2c7,Owner 5709,+91XXXXXXXXXX,,New York,IN,Seller,Generated
6396309c-6cd6-48f3-8f73-7adca28915bf,Owner 878,+91XXXXXXXXXX,,Delhi,IN,Seller,Generated
203a8e23-3d78-4bab-aeea-b211cee2b10b,Owner 2035,+91XXXXXXXXXX,,New York,IN,Seller,Generated
6891970e-a863-4563-a922-d22226c58bf8,Owner 6827,+91XXXXXXXXXX,,Delhi,IN,Seller,Generated
ca85531f-a54d-4bb2-95f3-c389865bcc54,Owner 1776,+91XXXXXXXXXX,,New York,IN,Seller,Generated
2fa06b30-6310-4878-9c6e-7fdf0254d2e2,Owner 2389,+91XXXXXXXXXX,,New York,IN,Seller,Generated
380a1bba-6b38-4f59-8777-74c9de17e437,Owner 3593,+91XXXXXXXXXX,,London,IN,Seller,Generated
cda0a66b-2c8c-4fea-b8a8-5769f1b1db05,Owner 3991,+91XXXXXXXXXX,,New York,IN,Seller,Generated
3a952211-977d-408b-9585-368a9e9ee2fa,Owner 524,+91XXXXXXXXXX,,New York,IN,Seller,Generated
8ec07e1c-a845-449e-a9bc-8803ab713bdc,Owner 5285,+91XXXXXXXXXX,,London,IN,Seller,Generated
3410a0d6-b425-4ee2-af6f-8d99ba2bceef,Owner 8634,+91XXXXXXXXXX,,Delhi,IN,Seller,Generated
46ca091d-c4a6-4796-a5d3-656b1939d9d9,Owner 26,+91XXXXXXXXXX,,London,IN,Seller,Generated
63c6124b-3050-418f-ae83-d5dec436668d,Owner 7416,+91XXXXXXXXXX,,New York,IN,Seller,Generated
28d7f0fa-f037-4f7e-990a-e776dc73b7c0,Owner 2203,+91XXXXXXXXXX,,London,IN,Seller,Generated
6c9219b7-6326-4fc5-a745-cbae7fee09f1,Owner 1158,+91XXXXXXXXXX,,New York,IN,Seller,Generated
ba2f3f57-f3ae-456b-9a54-0bb2ea528570,Owner 4470,+91XXXXXXXXXX,,Mumbai,IN,Seller,Generated
f0bdad1c-05b0-4aa2-ba75-ecd25547b310,Owner 1455,+91XXXXXXXXXX,,Mumbai,IN,Seller,Generated
dbdc18c7-9981-4639-be40-155e3bdba02c,Owner 4193,+91XXXXXXXXXX,,New York,IN,Seller,Generated
ed019a98-6637-4601-99ba-50c269ce9bd2,Owner 2132,+91XXXXXXXXXX,,Mumbai,IN,Seller,Generated
27cb4005-5678-4f8b-8d78-941ee59da57a,Owner 2503,+91XXXXXXXXXX,,Delhi,IN,Seller,Generated
dfedba62-43e1-4c83-8f4b-b92504450f88,Owner 9025,+91XXXXXXXXXX,,Delhi,IN,Seller,Generated
6227c7c0-7985-4ec2-b28a-861db65c61e7,Owner 7103,+91XXXXXXXXXX,,New York,IN,Seller,Generated
aa5e4ee8-2237-4d70-98ff-7938972b2adf,Owner 6272,+91XXXXXXXXXX,,London,IN,Seller,Generated
a5099100-f140-4f72-914b-97691a619214,Owner 8959,+91XXXXXXXXXX,,New York,IN,Seller,Generated
6887a2d5-460b-46fc-8a51-661c011b86d2,Owner 8433,+91XXXXXXXXXX,,Mumbai,IN,Seller,Generated
99bd30c1-31ae-4d57-b340-cdefe58c9200,Owner 7031,+91XXXXXXXXXX,,Mumbai,IN,Seller,Generated
4c493196-a6ac-4c84-917c-c67bf3bbddc6,Owner 3408,+91XXXXXXXXXX,,London,IN,Seller,Generated
3c6b5c99-da17-4a80-ad3f-396a7eba0e69,Owner 3600,+91XXXXXXXXXX,,Delhi,IN,Seller,Generated
a79d6ecf-ace9-4b00-8684-44d7626842f1,Owner 5242,+91XXXXXXXXXX,,Mumbai,IN,Seller,Generated
3b7dd8ed-d7fa-4189-8c4c-ea5ae0896a95,Owner 8168,+91XXXXXXXXXX,,New York,IN,Seller,Generated
17bc5818-7715-41ad-851c-e4c72f023ccc,Owner 2981,+91XXXXXXXXXX,,London,IN,Seller,Generated
357fbce7-04a9-42f6-99c6-004f0ca7d158,Owner 9976,+91XXXXXXXXXX,,London,IN,Seller,Generated
bc9b03ab-2ae7-4a57-9fa8-22f6ef421e66,Owner 909,+91XXXXXXXXXX,,New York,IN,Seller,Generated
f48a4988-c3bf-4c94-870c-4c7ce7ff7c5f,Owner 6141,+91XXXXXXXXXX,,New York,IN,Seller,Generated
16db7559-1cbf-470a-9e02-7398be74f1c1,Owner 3240,+91XXXXXXXXXX,,Mumbai,IN,Seller,Generated
f6f41d38-8bf6-4757-8587-968838ac9907,Owner 423,+91XXXXXXXXXX,,Mumbai,IN,Seller,Generated
2fa10b88-f39c-4097-9f3f-4a3cf5683759,Owner 6850,+91XXXXXXXXXX,,Delhi,IN,Seller,Generated
3b6cd904-1bd6-47b8-91a6-8824f3a17f8c,Owner 7876,+91XXXXXXXXXX,,Delhi,IN,Seller,Generated
b5c4bfaa-f561-4d78-9455-cffba1c98919,Owner 1366,+91XXXXXXXXXX,,Mumbai,IN,Seller,Generated
dd6bc87d-ab51-415f-afce-73456835b8a3,Owner 6632,+91XXXXXXXXXX,,Mumbai,IN,Seller,Generated
47ca5368-138e-4926-8801-5a13896fb95e,Owner 8174,+91XXXXXXXXXX,,Delhi,IN,Seller,Generated
6180c507-f59c-4d29-8585-587b3fb824e9,Owner 4629,+91XXXXXXXXXX,,Mumbai,IN,Seller,Generated
74810ae1-aa62-4fd9-9612-c45453ab9ff2,Owner 781,+91XXXXXXXXXX,,Mumbai,IN,Seller,Generated
5876f104-880b-43a8-af26-a3102a7a01a0,Owner 9574,+91XXXXXXXXXX,,Delhi,IN,Seller,Generated
3534b522-0a80-43bd-93fa-2b6d8a57c8ea,Owner 3816,+91XXXXXXXXXX,,New York,IN,Seller,Generated
c12d8922-0299-4fa1-a1bd-55d0277f0173,Owner 1780,+91XXXXXXXXXX,,London,IN,Seller,Generated
ed45e7b8-cd4b-47a9-a5d6-3a8c9ab8ae85,Owner 3651,+91XXXXXXXXXX,,London,IN,Seller,Generated
766e251c-ab78-43ec-9c59-fbbebc72b73a,Owner 3654,+91XXXXXXXXXX,,Delhi,IN,Seller,Generated
a0177e31-c740-479d-b122-6cfc5faad247,Owner 2265,+91XXXXXXXXXX,,New York,IN,Seller,Generated
0c14f6c5-8e42-482d-b877-08802bdd131c,Owner 5809,+91XXXXXXXXXX,,London,IN,Seller,Generated
fb32f09d-af73-4024-be3a-a34020735797,Owner 7202,+91XXXXXXXXXX,,Delhi,IN,Seller,Generated
05013269-ff70-41f8-9cb8-3bc562b9bbe6,Owner 9567,+91XXXXXXXXXX,,Delhi,IN,Seller,Generated
561465d8-3423-4370-993a-fa24baad2308,Owner 9737,+91XXXXXXXXXX,,London,IN,Seller,Generated
6c45c4f7-f620-434e-999e-d19f38dd709f,Owner 3104,+91XXXXXXXXXX,,Delhi,IN,Seller,Generated
94df1275-b0e4-4c20-957f-14d7af7edcb1,Owner 8232,+91XXXXXXXXXX,,Delhi,IN,Seller,Generated
fb5dfed5-b496-486b-8f43-3ce6866c7824,Owner 5556,+91XXXXXXXXXX,,London,IN,Seller,Generated
72ea5b87-f3c3-47f3-8e32-59812c35134f,Owner 9901,+91XXXXXXXXXX,,Delhi,IN,Seller,Generated
116ba3d3-9dcc-4755-ab24-b237fa8afe91,Owner 2719,+91XXXXXXXXXX,,Delhi,IN,Seller,Generated
be6a8a54-b290-4970-a2a4-78387f9b0ec7,Owner 9540,+91XXXXXXXXXX,,Delhi,IN,Seller,Generated
8e88f37f-a88d-4ed9-b74a-41daed6fbe02,Owner 6272,+91XXXXXXXXXX,,New York,IN,Seller,Generated
a1529843-8362-4f74-9cd1-08184b540982,Owner 904,+91XXXXXXXXXX,,Mumbai,IN,Seller,Generated
2b35c034-4341-4083-9592-fdd607cac369,Owner 89,+91XXXXXXXXXX,,Delhi,IN,Seller,Generated
20ad898f-6437-40bd-bbaf-8f5a6e3ed2f5,Owner 6,+91XXXXXXXXXX,,London,IN,Seller,Generated
caec0d05-7ea8-4a7d-a5bb-291ec593c88c,Owner 380,+91XXXXXXXXXX,,Delhi,IN,Seller,Generated
56e87715-269e-488c-be44-4256657f161d,Owner 98,+91XXXXXXXXXX,,New York,IN,Seller,Generated
0873016b-a90b-4372-8913-aad652533a98,Owner 797,+91XXXXXXXXXX,,Mumbai,IN,Seller,Generated
47418480-920b-43c8-a17e-9bf297d9cb75,Owner 2459,+91XXXXXXXXXX,,New York,IN,Seller,Generated
9c4b6fa2-bced-4d22-9698-569b9ca76e5d,Owner 3705,+91XXXXXXXXXX,,New York,IN,Seller,Generated
011bd0ca-4f75-4e45-ab76-9d1b724da534,Owner 705,+91XXXXXXXXXX,,Delhi,IN,Seller,Generated
36751e62-832f-44de-bff0-7c5b45a10d10,Owner 8243,+91XXXXXXXXXX,,Mumbai,IN,Seller,Generated
ee1f5ed0-5f5a-4eb7-a73f-c7906cacf09f,Owner 6932,+91XXXXXXXXXX,,Delhi,IN,Seller,Generated
d6ff4ea0-0b85-4b8f-86c9-749f3577ea30,Owner 8405,+91XXXXXXXXXX,,Delhi,IN,Seller,Generated
c468c8f6-ca89-443a-b270-380c40bc5676,Owner 5660,+91XXXXXXXXXX,,New York,IN,Seller,Generated
db5026cb-54fa-4aa6-a00d-b48a55841b9d,Owner 9153,+91XXXXXXXXXX,,Delhi,IN,Seller,Generated
ce9c7787-a076-444c-b2b4-32eef3be13b4,Owner 538,+91XXXXXXXXXX,,Delhi,IN,Seller,Generated
9a957de3-f37c-4bb6-acf5-d7b61002f857,Owner 7472,+91XXXXXXXXXX,,London,IN,Seller,Generated
65751f6e-6771-481b-a4ab-de16fd5cc729,Owner 8648,+91XXXXXXXXXX,,New York,IN,Seller,Generated
0e099ee5-3747-48b5-adc8-327207589962,Owner 5753,+91XXXXXXXXXX,,Delhi,IN,Seller,Generated
fc4e4850-ed26-44ec-941d-5915f642cbcc,Owner 3161,+91XXXXXXXXXX,,London,IN,Seller,Generated
ba2e1a05-7e5d-4814-992b-7a9eeaf0d769,Owner 9477,+91XXXXXXXXXX,,Mumbai,IN,Seller,Generated
39395bb9-99cc-44ec-9ab1-0bd06ab713cf,Owner 8615,+91XXXXXXXXXX,,Mumbai,IN,Seller,Generated
49aeceef-0906-4ff2-930a-074c37c7f2c9,Owner 2491,+91XXXXXXXXXX,,Delhi,IN,Seller,Generated
ea17f554-ee4b-4469-8f6f-b3ecb66f382e,Owner 2301,+91XXXXXXXXXX,,New York,IN,Seller,Generated
f88bd15b-7897-4cb5-8666-e39a489611d3,Owner 3774,+91XXXXXXXXXX,,Mumbai,IN,Seller,Generated
7e8ecc4d-50c7-4f4f-bb7b-346a56381557,Owner 1639,+91XXXXXXXXXX,,Mumbai,IN,Seller,Generated
5c010a30-eaa2-4cd5-9361-f5e8d69cf710,Owner 5410,+91XXXXXXXXXX,,New York,IN,Seller,Generated
2f557d1c-21e7-4bda-932f-808110300239,Owner 1399,+91XXXXXXXXXX,,Mumbai,IN,Seller,Generated
68086d2e-62c0-4967-b440-365cc5a4cf3a,Owner 9219,+91XXXXXXXXXX,,New York,IN,Seller,Generated
843d2af4-117b-432f-88d6-2a6fe67a877f,Owner 584,+91XXXXXXXXXX,,New York,IN,Seller,Generated
10d74261-ea8f-4654-a58c-39ddc76141cb,Owner 6081,+91XXXXXXXXXX,,London,IN,Seller,Generated
3c2c9dfb-d513-4849-9a91-d2fd4c3ee5c5,Owner 4099,+91XXXXXXXXXX,,Mumbai,IN,Seller,Generated
372cda17-37d2-44b5-8fb1-9ba2cb97195f,Owner 1712,+91XXXXXXXXXX,,New York,IN,Seller,Generated
ea2f83eb-9f1c-45d9-b263-2ba27546f15b,Owner 507,+91XXXXXXXXXX,,Mumbai,IN,Seller,Generated
7819ad8f-af81-4867-a10b-36b95e139807,Owner 9231,+91XXXXXXXXXX,,Delhi,IN,Seller,Generated
6d728d47-1461-423a-8f03-71bac3061f1c,Owner 8220,+91XXXXXXXXXX,,Mumbai,IN,Seller,Generated
c3a381b5-8e8f-4622-9e17-35fc28d447df,Owner 1200,+91XXXXXXXXXX,,New York,IN,Seller,Generated
e8804f6f-2e2a-45c7-a15d-3f4f243c18c4,Owner 7994,+91XXXXXXXXXX,,Delhi,IN,Seller,Generated
c7482de1-54c1-4d61-a9d8-82df8c47bb59,Owner 4947,+91XXXXXXXXXX,,London,IN,Seller,Generated
cf17f5db-8001-4f9c-bca9-825f33f1b01c,Owner 2370,+91XXXXXXXXXX,,Mumbai,IN,Seller,Generated
992480a1-fab6-48f5-808b-2ba6134e1a37,Owner 5274,+91XXXXXXXXXX,,Mumbai,IN,Seller,Generated
ff9ca46c-623c-408a-81dd-6a35dc43a252,Owner 6590,+91XXXXXXXXXX,,Delhi,IN,Seller,Generated
67b92be0-f3ed-4402-8a01-b0e663873832,Owner 4529,+91XXXXXXXXXX,,Delhi,IN,Seller,Generated
aaaecf4c-7425-455a-b357-f26c310bc612,Owner 5471,+91XXXXXXXXXX,,London,IN,Seller,Generated
d6d75dda-49a2-4fdc-b172-65d0b131756f,Owner 9354,+91XXXXXXXXXX,,Mumbai,IN,Seller,Generated
3dbc2616-c6e5-4202-bbec-e2f96e9c0806,Owner 3101,+91XXXXXXXXXX,,Delhi,IN,Seller,Generated
4582424b-2538-49ea-8ca7-ecb18da04676,Owner 4167,+91XXXXXXXXXX,,Delhi,IN,Seller,Generated
67ba034d-13ef-4a86-b1d2-70f2ca9ca493,Owner 6053,+91XXXXXXXXXX,,London,IN,Seller,Generated
45a8da0d-a9b9-4dba-a165-1d8ae8173a1e,Owner 1086,+91XXXXXXXXXX,,Delhi,IN,Seller,Generated
db1e1e5e-0646-494c-a8c7-c9489ee4362e,Owner 7862,+91XXXXXXXXXX,,Delhi,IN,Seller,Generated
b5a0c780-5b74-4dd3-85f5-e8016cce2368,Owner 8306,+91XXXXXXXXXX,,London,IN,Seller,Generated
bc732dc7-3a16-476a-944f-0a41f2b09dd4,Owner 2369,+91XXXXXXXXXX,,Delhi,IN,Seller,Generated
06b15496-69f6-449b-9a46-2ad2daa55f65,Owner 1784,+91XXXXXXXXXX,,New York,IN,Seller,Generated
286ae6b7-6e43-43c2-96e1-af91c628d2a5,Owner 1220,+91XXXXXXXXXX,,Mumbai,IN,Seller,Generated
5de5a85b-a079-4794-ae5f-865853e743fe,Owner 5324,+91XXXXXXXXXX,,Delhi,IN,Seller,Generated
205335ba-4a54-494a-9fea-f555dfc288d8,Owner 8797,+91XXXXXXXXXX,,Delhi,IN,Seller,Generated
598741fe-8e56-40b8-874e-814138bf45f9,Owner 4308,+91XXXXXXXXXX,,Delhi,IN,Seller,Generated
2ee6bdc0-bb72-4fff-87bf-1f5d4c62288b,Owner 4447,+91XXXXXXXXXX,,New York,IN,Seller,Generated
d3ee6284-c29b-49e7-b2bc-218f6abf3d31,Owner 164,+91XXXXXXXXXX,,Mumbai,IN,Seller,Generated
c7646395-e189-469f-b4d5-99c6cca03fb2,Owner 5899,+91XXXXXXXXXX,,New York,IN,Seller,Generated
a1e06646-c68c-47a2-a1ba-98ea2dd3ae0f,Owner 5726,+91XXXXXXXXXX,,London,IN,Seller,Generated
ad6ae6c0-9986-46fd-89a3-698c807efd99,Owner 7820,+91XXXXXXXXXX,,New York,IN,Seller,Generated
d196ccea-0aa8-4811-b207-d429e6ee2a7a,Owner 1482,+91XXXXXXXXXX,,Mumbai,IN,Seller,Generated
617260ac-3c07-4c69-b10a-f248c68e041a,Owner 3271,+91XXXXXXXXXX,,Mumbai,IN,Seller,Generated
e13c6a87-e35c-4990-87e1-dd60aaba2b72,Owner 8406,+91XXXXXXXXXX,,Mumbai,IN,Seller,Generated
980a2837-faaf-4a90-bcf4-861693aeb82a,Owner 891,+91XXXXXXXXXX,,New York,IN,Seller,Generated
453020ca-73c2-4e9e-adca-307b73d05818,Owner 27,+91XXXXXXXXXX,,Delhi,IN,Seller,Generated
25cc4962-3fc4-49d8-8c3b-d5ed57db8705,Owner 3415,+91XXXXXXXXXX,,Delhi,IN,Seller,Generated
4198fbf5-4338-4e08-aed2-a5a30efb1155,Owner 266,+91XXXXXXXXXX,,London,IN,Seller,Generated
a82d2231-1dc6-48cf-b1b2-f5785f1b316e,Owner 1192,+91XXXXXXXXXX,,Mumbai,IN,Seller,Generated
88c058b0-c7b8-48d0-a87e-c6b4744d1a21,Owner 2395,+91XXXXXXXXXX,,London,IN,Seller,Generated
a9a9e30c-8039-40e1-b0d8-57928776efbf,Owner 8973,+91XXXXXXXXXX,,Delhi,IN,Seller,Generated
66643795-ad3a-4a43-8894-d07035599535,Owner 5922,+91XXXXXXXXXX,,New York,IN,Seller,Generated
83e9cefe-9e16-4a4a-a4dd-d8986c815dde,Owner 9473,+91XXXXXXXXXX,,New York,IN,Seller,Generated
27932429-607a-452a-aed0-45f8a5e73a73,Owner 342,+91XXXXXXXXXX,,New York,IN,Seller,Generated
37173456-9b27-4119-9cb5-0331283a65c5,Owner 4859,+91XXXXXXXXXX,,London,IN,Seller,Generated
5664f39c-fc1b-43da-8847-41e73d3e0cde,Owner 8691,+91XXXXXXXXXX,,Delhi,IN,Seller,Generated
34a7f121-8ad9-407d-befc-74ed28ecca3d,Owner 7089,+91XXXXXXXXXX,,New York,IN,Seller,Generated
52094808-47ab-4ca2-b477-72ce3dab7e0a,Owner 9841,+91XXXXXXXXXX,,Mumbai,IN,Seller,Generated
307d5623-803b-476e-a69f-a09b65d273da,Owner 9855,+91XXXXXXXXXX,,Mumbai,IN,Seller,Generated
cedc065c-310b-4d75-96b0-2d3ed4b25baa,Owner 4458,+91XXXXXXXXXX,,Mumbai,IN,Seller,Generated
2d7a1409-3814-4434-bdf1-7d2d4a8f7667,Owner 1565,+91XXXXXXXXXX,,London,IN,Seller,Generated
dc148407-1412-48ca-a9c6-9c6b6e3a6d8e,Owner 6462,+91XXXXXXXXXX,,Delhi,IN,Seller,Generated
1d389d4e-4a04-4e27-9dda-51c7a033b835,Owner 7734,+91XXXXXXXXXX,,New York,IN,Seller,Generated
3101a85a-a34c-4f3c-9097-f620a2761b4b,Owner 1367,+91XXXXXXXXXX,,Mumbai,IN,Seller,Generated
bfc63180-e301-4d53-b382-1e8152c9876f,Owner 1384,+91XXXXXXXXXX,,London,IN,Seller,Generated
1cd8efb4-75f6-4fbd-80bd-c3bdb9ec650e,Owner 3800,+91XXXXXXXXXX,,London,IN,Seller,Generated
276e61bf-db47-412e-bb3b-07ce470d9b69,Owner 5328,+91XXXXXXXXXX,,New York,IN,Seller,Generated
3a2e7845-6341-48d3-a223-12812150590c,Owner 6754,+91XXXXXXXXXX,,London,IN,Seller,Generated
06e85fc7-f608-4a17-b953-9ae210131416,Owner 6769,+91XXXXXXXXXX,,London,IN,Seller,Generated
b38ae53b-17a5-4f7c-bed9-a3e95a3b4d1f,Owner 3027,+91XXXXXXXXXX,,Mumbai,IN,Seller,Generated
4dcc55c7-2ae2-4a4f-b9b8-5197c6c1c802,Owner 4527,+91XXXXXXXXXX,,New York,IN,Seller,Generated
33f78b2b-cd28-4721-b2b8-cd0e0e4c2102,Owner 1942,+91XXXXXXXXXX,,New York,IN,Seller,Generated
778a10e5-bbc5-4923-9f6a-27890fe57563,Owner 5431,+91XXXXXXXXXX,,London,IN,Seller,Generated
51ef808b-cade-4ce1-99fd-3e8f45690cbd,Owner 6971,+91XXXXXXXXXX,,New York,IN,Seller,Generated
23548363-623f-4fd0-bc90-a6508c79a04e,Owner 6922,+91XXXXXXXXXX,,London,IN,Seller,Generated
aac2deb2-c42e-43f7-9457-71fa63c7d601,Owner 2885,+91XXXXXXXXXX,,Delhi,IN,Seller,Generated
9b86d982-6fe1-4f52-a3d4-3abead1dcc58,Owner 1026,+91XXXXXXXXXX,,Delhi,IN,Seller,Generated
21689b1d-7405-4fc1-9c7d-88ce3f4ada3a,Owner 1078,+91XXXXXXXXXX,,Delhi,IN,Seller,Generated
ba1d3634-834f-4ba2-be1b-a5feda5ada53,Owner 223,+91XXXXXXXXXX,,New York,IN,Seller,Generated
7ecd5ab3-e833-4aee-b8df-a16efde1a5c4,Owner 8842,+91XXXXXXXXXX,,Delhi,IN,Seller,Generated
1fc97bb6-6d99-41b0-a513-c335f89a380e,Owner 244,+91XXXXXXXXXX,,Delhi,IN,Seller,Generated
c49d1c18-7c41-4264-9ae2-5a96e685cc42,Owner 6608,+91XXXXXXXXXX,,Mumbai,IN,Seller,Generated
ca4944dd-ae98-4dbe-93d3-5dd5bd44f882,Owner 5822,+91XXXXXXXXXX,,Delhi,IN,Seller,Generated
0501b76a-aa8f-4e6b-9401-e6652d8b9adc,Owner 2936,+91XXXXXXXXXX,,Delhi,IN,Seller,Generated
c7d22eba-22f4-4811-b36f-3f8d53534bae,Owner 3509,+91XXXXXXXXXX,,Delhi,IN,Seller,Generated
ef61f7f7-ea7c-4e1f-81ee-6ed861ed76fa,Owner 5178,+91XXXXXXXXXX,,New York,IN,Seller,Generated
db6d471e-3e9e-4689-bb60-34675c8db863,Owner 8029,+91XXXXXXXXXX,,New York,IN,Seller,Generated
3eea0cf8-de8d-4711-8901-a069337408a0,Owner 5603,+91XXXXXXXXXX,,Mumbai,IN,Seller,Generated
6855f78f-a706-4742-a5c2-326abb58fa43,Owner 9638,+91XXXXXXXXXX,,London,IN,Seller,Generated
24660e79-a7b3-42b5-b477-142e84bf031d,Owner 2195,+91XXXXXXXXXX,,Delhi,IN,Seller,Generated
6b899a5c-9429-44ff-858d-7f469704302e,Owner 3814,+91XXXXXXXXXX,,Mumbai,IN,Seller,Generated
3cdbe573-e17a-48b6-9157-9b9df6918c12,Owner 9909,+91XXXXXXXXXX,,Mumbai,IN,Seller,Generated
4b99a02c-e8dd-4f07-b2a3-5062debc3ff2,Owner 4033,+91XXXXXXXXXX,,London,IN,Seller,Generated
d47e41f3-8b3a-44da-9b4c-95bb1b7cc5b3,Owner 987,+91XXXXXXXXXX,,Delhi,IN,Seller,Generated
47a75b2d-1a17-4bc7-8575-91a7ae83fc58,Owner 2494,+91XXXXXXXXXX,,Mumbai,IN,Seller,Generated
db78db47-c724-4b44-9d2a-1816203d27c8,Owner 8760,+91XXXXXXXXXX,,New York,IN,Seller,Generated
f423df7a-1a02-4f91-9b46-8fe91232ffcd,Owner 6383,+91XXXXXXXXXX,,Delhi,IN,Seller,Generated
8ceceb9c-7b49-4e93-9639-f056a4c40f48,Owner 3878,+91XXXXXXXXXX,,Delhi,IN,Seller,Generated
27b19932-a697-4d3f-a1ba-818f69c791e3,Owner 7304,+91XXXXXXXXXX,,New York,IN,Seller,Generated
ea7f7c81-96b3-424d-acb4-8db7b20a8b5e,Owner 1258,+91XXXXXXXXXX,,London,IN,Seller,Generated
d47dce3a-8f55-4dd5-8626-5257fbd004a4,Owner 9940,+91XXXXXXXXXX,,Mumbai,IN,Seller,Generated
0de519f5-7eb1-46b9-b42f-c432bfd776e6,Owner 1677,+91XXXXXXXXXX,,Delhi,IN,Seller,Generated
1a48a65c-d969-4289-967e-dec4e6a7dae8,Owner 2247,+91XXXXXXXXXX,,Mumbai,IN,Seller,Generated
2f355eb4-06ea-4237-b5da-3d3ab8b2e9e4,Owner 7551,+91XXXXXXXXXX,,Mumbai,IN,Seller,Generated
c6bcb176-5dfb-470b-b17c-9066995f80b2,Owner 9583,+91XXXXXXXXXX,,Mumbai,IN,Seller,Generated
90bdacc9-bd25-4fb8-8ea9-7930dc1cafa3,Owner 3533,+91XXXXXXXXXX,,New York,IN,Seller,Generated
a31e036b-baec-4281-a36a-89336b096b70,Owner 9979,+91XXXXXXXXXX,,Delhi,IN,Seller,Generated
25cbc73f-03a2-4f34-a900-77f25f97cf64,Owner 3553,+91XXXXXXXXXX,,Mumbai,IN,Seller,Generated
dc2d0aec-73e7-4e9b-bed4-0812f2b05be9,Owner 7216,+91XXXXXXXXXX,,London,IN,Seller,Generated
f968747c-a441-4714-816f-b4927f9274bb,Owner 4231,+91XXXXXXXXXX,,Mumbai,IN,Seller,Generated
90525647-7613-4a3d-89ef-77e24994daef,Owner 4391,+91XXXXXXXXXX,,London,IN,Seller,Generated
813572fa-d218-44c9-bb06-f6e720701e6a,Owner 528,+91XXXXXXXXXX,,Mumbai,IN,Seller,Generated
d0b0e518-8339-4e9f-9f32-bd6bc26d4d4e,Owner 8000,+91XXXXXXXXXX,,New York,IN,Seller,Generated
af0fbf55-c813-4e97-8389-d3c0f915c09a,Owner 7262,+91XXXXXXXXXX,,London,IN,Seller,Generated
7cb9ff0c-7c7e-4bb5-b6ea-ac222c21e3ac,Owner 9412,+91XXXXXXXXXX,,Mumbai,IN,Seller,Generated
517617f9-0f19-4aa8-9e4d-ad3893a6bcc9,Owner 4382,+91XXXXXXXXXX,,Mumbai,IN,Seller,Generated
ecbec182-2cd6-4a54-888c-3c0d914ebfb5,Owner 2547,+91XXXXXXXXXX,,New York,IN,Seller,Generated
6c910e77-1708-428c-bdd0-46f8080e8629,Owner 5608,+91XXXXXXXXXX,,New York,IN,Seller,Generated
7cd58e47-9477-4f9a-aa31-45462294440e,Owner 1488,+91XXXXXXXXXX,,London,IN,Seller,Generated
1be52559-46ad-46a2-ae8d-4f0b32422eff,Owner 9211,+91XXXXXXXXXX,,Delhi,IN,Seller,Generated
9fe9101f-4145-47a0-ad68-06f359193a11,Owner 6689,+91XXXXXXXXXX,,New York,IN,Seller,Generated
95f4ccfd-e6bc-4437-88bf-c01811446b23,Owner 8839,+91XXXXXXXXXX,,London,IN,Seller,Generated
037fdeb2-7d38-4fb4-8d74-918aa446e58e,Owner 16,+91XXXXXXXXXX,,New York,IN,Seller,Generated
34a4ff62-00a5-4a59-a12c-c6f798f818c1,Owner 3128,+91XXXXXXXXXX,,Mumbai,IN,Seller,Generated
7d262497-a74a-4c45-8fe8-d7621b8f7355,Owner 7986,+91XXXXXXXXXX,,Delhi,IN,Seller,Generated
01108c7c-20df-483d-ad94-92cf83b14e1c,Owner 7096,+91XXXXXXXXXX,,Delhi,IN,Seller,Generated
779c26a6-d0ad-44e1-9bed-d457ccf957c0,Owner 6500,+91XXXXXXXXXX,,London,IN,Seller,Generated
f8e6360e-d941-4dcb-8bd1-3e9cac34bf8a,Owner 2164,+91XXXXXXXXXX,,London,IN,Seller,Generated
c6ded570-099e-4a7b-bdba-e32756a11997,Owner 7189,+91XXXXXXXXXX,,Mumbai,IN,Seller,Generated
8b25eed5-f0ae-42eb-bd22-d12dd1da67c1,Owner 3578,+91XXXXXXXXXX,,New York,IN,Seller,Generated
143ea2ae-7b9b-4e44-9944-5b81627fd10f,Owner 5346,+91XXXXXXXXXX,,Mumbai,IN,Seller,Generated
ec0cbde4-206a-4361-84a8-5f62de6e415f,Owner 1252,+91XXXXXXXXXX,,New York,IN,Seller,Generated
e22280e3-cbde-4d0d-aa54-37879c2326f7,Owner 7329,+91XXXXXXXXXX,,Delhi,IN,Seller,Generated
2404892f-ea89-4238-9f30-4de51041404b,Owner 3197,+91XXXXXXXXXX,,Mumbai,IN,Seller,Generated
62d426ec-2daa-49e4-804e-076c12df23e3,Owner 5224,+91XXXXXXXXXX,,Mumbai,IN,Seller,Generated
ed190763-6d5a-4b75-9979-e17609651bf5,Owner 4018,+91XXXXXXXXXX,,Delhi,IN,Seller,Generated
853df24e-4349-42f8-ba32-12a886bbf1bc,Owner 866,+91XXXXXXXXXX,,New York,IN,Seller,Generated
6b56ad5b-8aa2-4faa-b096-dcd12ee32019,Owner 9639,+91XXXXXXXXXX,,London,IN,Seller,Generated
4bb20173-714a-4030-816e-c84b24e43f2e,Owner 7858,+91XXXXXXXXXX,,London,IN,Seller,Generated
190f0283-6579-4e03-ae23-80700a0e77b4,Owner 9423,+91XXXXXXXXXX,,Delhi,IN,Seller,Generated
29a43229-c379-4a8a-8461-c18a461a3f8f,Owner 658,+91XXXXXXXXXX,,London,IN,Seller,Generated
c1cb71ef-60cb-47e4-8aa1-9f19b15e8dbf,Owner 3642,+91XXXXXXXXXX,,New York,IN,Seller,Generated
e2233e69-9b23-4822-8ae4-9fc9898c6cd5,Owner 833,+91XXXXXXXXXX,,Mumbai,IN,Seller,Generated
2229d540-f51b-45ac-8b19-1102ff2dbc54,Owner 2540,+91XXXXXXXXXX,,Delhi,IN,Seller,Generated
ab7b955d-b133-41fb-97b2-d6061404b27f,Owner 2198,+91XXXXXXXXXX,,London,IN,Seller,Generated
e128abc1-a67d-4d13-bf41-b30661384235,Owner 4272,+91XXXXXXXXXX,,Mumbai,IN,Seller,Generated
b3053029-e9ff-4958-a652-57aab87d33c0,Owner 5362,+91XXXXXXXXXX,,Delhi,IN,Seller,Generated
6c9bea3f-eda4-469d-97c5-bf11c50f2031,Owner 9912,+91XXXXXXXXXX,,Delhi,IN,Seller,Generated
62396500-8e3f-48cd-b49d-3fb8b27ed999,Owner 2199,+91XXXXXXXXXX,,New York,IN,Seller,Generated
c2464b28-04d8-417e-a17f-36b107b5f509,Owner 1246,+91XXXXXXXXXX,,Delhi,IN,Seller,Generated
ac0ecba0-e430-43af-9064-c770fd164121,Owner 9368,+91XXXXXXXXXX,,London,IN,Seller,Generated
03463b5a-1395-414d-af4a-6f688c1ae076,Owner 969,+91XXXXXXXXXX,,Delhi,IN,Seller,Generated
bd424728-64d8-4569-81fc-328d4456fb71,Owner 5675,+91XXXXXXXXXX,,Delhi,IN,Seller,Generated
50ee5339-6be2-4b9b-97a2-0e985069a88b,Owner 4809,+91XXXXXXXXXX,,London,IN,Seller,Generated
635c9282-2ad0-4e30-8551-f151a2ca7f8c,Owner 4215,+91XXXXXXXXXX,,New York,IN,Seller,Generated
4ad59e8a-1c47-4af0-8132-1658689e40d3,Owner 6763,+91XXXXXXXXXX,,New York,IN,Seller,Generated
ca151a3e-461d-409c-9d0a-f45f7847fca8,Owner 6811,+91XXXXXXXXXX,,New York,IN,Seller,Generated
567a1ef8-6216-4718-9160-46bc127bef2e,Owner 4469,+91XXXXXXXXXX,,Delhi,IN,Seller,Generated
c63c19f7-364d-414b-a571-732ab5fb017d,Owner 883,+91XXXXXXXXXX,,Mumbai,IN,Seller,Generated
2475d1e8-25ca-47af-980b-badb392580bb,Owner 8671,+91XXXXXXXXXX,,Delhi,IN,Seller,Generated
a71b7f32-a224-4d93-8d60-07a298262395,Owner 8969,+91XXXXXXXXXX,,Mumbai,IN,Seller,Generated
11b4c0ca-ea01-4f93-9c0e-c222fb3532dd,Owner 5204,+91XXXXXXXXXX,,New York,IN,Seller,Generated
8d194d7b-e725-429f-b18a-c63bac0005cb,Owner 2504,+91XXXXXXXXXX,,Mumbai,IN,Seller,Generated
4d71183e-cbe1-4d9b-904c-59fe3a3ffa85,Owner 4559,+91XXXXXXXXXX,,London,IN,Seller,Generated
05b54fd6-322c-4c09-a44e-50c1f4e73202,Owner 3148,+91XXXXXXXXXX,,Mumbai,IN,Seller,Generated
fc6959ac-6467-4086-b350-b71ad05877a7,Owner 6771,+91XXXXXXXXXX,,London,IN,Seller,Generated
07cd094e-877c-428c-81bb-16ae478d2c5f,Owner 537,+91XXXXXXXXXX,,Mumbai,IN,Seller,Generated
5761a84a-cafd-40d7-a13d-10313a085110,Owner 7679,+91XXXXXXXXXX,,New York,IN,Seller,Generated
4d59a9bb-501e-4efb-bd5e-4aff06c9e132,Owner 5756,+91XXXXXXXXXX,,London,IN,Seller,Generated
632e0b37-d73f-46c8-924a-126304595cfa,Owner 7185,+91XXXXXXXXXX,,London,IN,Seller,Generated
9281ec52-910b-45ba-81ee-2bb7050047a6,Owner 3667,+91XXXXXXXXXX,,London,IN,Seller,Generated
308c0735-6592-4239-8def-9577973467ef,Owner 9235,+91XXXXXXXXXX,,Mumbai,IN,Seller,Generated
e5aceaaa-395b-4780-9303-401a3bf616f5,Owner 2970,+91XXXXXXXXXX,,London,IN,Seller,Generated
ba451935-d9e2-4c6e-8575-fc44858a54c4,Owner 275,+91XXXXXXXXXX,,Mumbai,IN,Seller,Generated
1ee67ac1-b9cd-411d-8e5f-b61059ea7043,Owner 8963,+91XXXXXXXXXX,,New York,IN,Seller,Generated
4ac676e0-182d-4ce7-a61a-046f5c5b07a4,Owner 1210,+91XXXXXXXXXX,,New York,IN,Seller,Generated
3e68c2e0-4f4d-499d-ab66-b45961659830,Owner 3597,+91XXXXXXXXXX,,Mumbai,IN,Seller,Generated
09e8918e-9e0a-4d30-a070-e75bebcc943b,Owner 7346,+91XXXXXXXXXX,,London,IN,Seller,Generated
00e8e739-eff2-4b21-b063-ccc108605f80,Owner 3060,+91XXXXXXXXXX,,Mumbai,IN,Seller,Generated
6e25dddd-0678-489e-bb38-289090f1c279,Owner 6758,+91XXXXXXXXXX,,New York,IN,Seller,Generated
64d7e6dd-5f68-470b-9b99-e5c64ff15803,Owner 8956,+91XXXXXXXXXX,,London,IN,Seller,Generated
375dc012-fa8e-49e9-8fb7-9081973a7bce,Owner 8800,+91XXXXXXXXXX,,London,IN,Seller,Generated
8d8b6f82-1894-49d4-b33e-8a2d445cdcdc,Owner 8215,+91XXXXXXXXXX,,Mumbai,IN,Seller,Generated
d49bd103-69ad-4a30-b963-2395795fc9ca,Owner 7915,+91XXXXXXXXXX,,London,IN,Seller,Generated
76f56116-c21b-45f5-ab5f-a6b7e95c1d4e,Owner 6257,+91XXXXXXXXXX,,Mumbai,IN,Seller,Generated
5dcf1e09-1ede-4add-b8f0-902f0d90554c,Owner 2792,+91XXXXXXXXXX,,Mumbai,IN,Seller,Generated
f9d474dd-19cf-43fd-9119-35e21605cf33,Owner 7287,+91XXXXXXXXXX,,Delhi,IN,Seller,Generated
2c542cb2-0571-4d8e-b96a-c337cea2a3fc,Owner 8477,+91XXXXXXXXXX,,London,IN,Seller,Generated
923f7ed3-a466-4c9a-9d4c-d6cef8bf98b5,Owner 2991,+91XXXXXXXXXX,,Delhi,IN,Seller,Generated
8a54c2ab-7a0e-44b2-98df-244d7bfb9a46,Owner 9508,+91XXXXXXXXXX,,Delhi,IN,Seller,Generated
0f9c65f7-44bc-4578-8129-e27b45daf185,Owner 1478,+91XXXXXXXXXX,,New York,IN,Seller,Generated
86f6869f-1fa5-4587-984f-7cdf1c0ea13c,Owner 6982,+91XXXXXXXXXX,,New York,IN,Seller,Generated
717496f3-e094-45de-b6f1-6bdcda360a73,Owner 9592,+91XXXXXXXXXX,,London,IN,Seller,Generated
a98af101-42b0-495d-8d49-3c65ae158981,Owner 6570,+91XXXXXXXXXX,,London,IN,Seller,Generated
cfd45e3f-77e2-4a2c-a575-4b24e7ec50c1,Owner 6667,+91XXXXXXXXXX,,London,IN,Seller,Generated
2a6bf8e6-95b0-48dd-af4f-fc47a2e40dc1,Owner 688,+91XXXXXXXXXX,,Delhi,IN,Seller,Generated
7f7fa94f-d06b-47c9-88ac-70b02e87ed68,Owner 7544,+91XXXXXXXXXX,,Mumbai,IN,Seller,Generated
3ce9ce0b-da47-433c-88ae-8da7510396ba,Owner 7396,+91XXXXXXXXXX,,New York,IN,Seller,Generated
84e6fc92-e0d7-4a8f-9004-9e014ee64cad,Owner 6308,+91XXXXXXXXXX,,New York,IN,Seller,Generated
5363c509-6760-4512-b3c8-27e5f1b529ee,Owner 5720,+91XXXXXXXXXX,,London,IN,Seller,Generated
89fc2fc8-38ba-49ba-a477-a56ece3ed91d,Owner 1145,+91XXXXXXXXXX,,Delhi,IN,Seller,Generated
efbb8382-7d22-407c-af81-d4d36b4083d8,Owner 1691,+91XXXXXXXXXX,,Delhi,IN,Seller,Generated
96931560-6109-41dd-8758-1b0089aa0ea0,Owner 1088,+91XXXXXXXXXX,,Delhi,IN,Seller,Generated
3051c7ce-c40f-4343-8653-7dddc3c4a72f,Owner 7680,+91XXXXXXXXXX,,London,IN,Seller,Generated
8013b50b-95a5-4872-8141-7dd36db72ef2,Owner 4119,+91XXXXXXXXXX,,Delhi,IN,Seller,Generated
f6db5566-2547-4cd1-afd9-4c92ba0a3fb7,Owner 3043,+91XXXXXXXXXX,,London,IN,Seller,Generated
91b4939c-456d-4659-a37f-f77dde7e0360,Owner 1279,+91XXXXXXXXXX,,Mumbai,IN,Seller,Generated
e1a869b9-1229-4b96-ac11-ae9490da277b,Owner 21,+91XXXXXXXXXX,,Mumbai,IN,Seller,Generated
c6efbc76-3748-48dd-8f92-005021039d45,Owner 6521,+91XXXXXXXXXX,,New York,IN,Seller,Generated
90c2382e-5ab5-4f2e-bb7f-7386ab7ae8df,Owner 8881,+91XXXXXXXXXX,,Mumbai,IN,Seller,Generated
6b0e7ab7-7a8f-4b47-9dca-ce82f15c10c1,Owner 6080,+91XXXXXXXXXX,,Mumbai,IN,Seller,Generated
bbc37f7d-d333-4d21-bfca-9bd51a68ed59,Owner 861,+91XXXXXXXXXX,,Mumbai,IN,Seller,Generated
edd37886-b2a3-4d95-bc22-05c00469a322,Owner 1274,+91XXXXXXXXXX,,London,IN,Seller,Generated
47f58967-25f9-440f-b0b3-ed79a11c09ed,Owner 277,+91XXXXXXXXXX,,London,IN,Seller,Generated
979586b3-72bb-4e67-b7f3-09b1bc66f52d,Owner 3765,+91XXXXXXXXXX,,Mumbai,IN,Seller,Generated
0eeeb1d8-edab-43e5-87bc-b96aa7f28ab1,Owner 5576,+91XXXXXXXXXX,,Mumbai,IN,Seller,Generated
fe36b6d3-23f3-4f65-ba99-0f1e32697e00,Owner 9712,+91XXXXXXXXXX,,Delhi,IN,Seller,Generated
425cd890-b570-4583-af41-4d2bec775aac,Owner 7650,+91XXXXXXXXXX,,Mumbai,IN,Seller,Generated
0bbf8311-9365-491f-98c0-7a176f002f7a,Owner 9193,+91XXXXXXXXXX,,Delhi,IN,Seller,Generated
ddbb606f-dd7d-46d1-bf32-61e82c8ba3f3,Owner 2676,+91XXXXXXXXXX,,Mumbai,IN,Seller,Generated
19772a56-21a0-4b47-8f6c-951b673fb8e4,Owner 7866,+91XXXXXXXXXX,,New York,IN,Seller,Generated
7b32128f-76f6-4dd6-a7b4-0b48d1d309a7,Owner 5503,+91XXXXXXXXXX,,Delhi,IN,Seller,Generated
15d36d2b-e8f1-47d6-b78b-bde053af2b0e,Owner 2363,+91XXXXXXXXXX,,New York,IN,Seller,Generated
38d7ff68-ecf3-44b0-966d-d450ca055d10,Owner 5488,+91XXXXXXXXXX,,New York,IN,Seller,Generated
90bb74c3-f8bc-4b90-8bb5-610e8e6932ed,Owner 1880,+91XXXXXXXXXX,,Delhi,IN,Seller,Generated
78432af9-9866-478c-acde-1921e4949bcb,Owner 8833,+91XXXXXXXXXX,,London,IN,Seller,Generated
bd27fda5-44dd-464e-8640-d04b57273fa9,Owner 7508,+91XXXXXXXXXX,,Mumbai,IN,Seller,Generated
9d19379a-2666-4de4-b5b8-df707d7ac9c7,Owner 5673,+91XXXXXXXXXX,,New York,IN,Seller,Generated
1c03869d-cf88-45d5-b0d0-3c1f01c2c2a5,Owner 2449,+91XXXXXXXXXX,,Mumbai,IN,Seller,Generated
cf5ce688-d236-4dfb-8123-f96d2e9df3dd,Owner 301,+91XXXXXXXXXX,,London,IN,Seller,Generated
44cd78f1-fda3-4edf-bab8-515ebac7a7bc,Owner 3205,+91XXXXXXXXXX,,London,IN,Seller,Generated
245ac844-0710-449d-b94d-1cbb234bc2b6,Owner 4986,+91XXXXXXXXXX,,New York,IN,Seller,Generated
6b9fc3de-4446-4c3a-9fbd-116b37b9f6ec,Owner 3889,+91XXXXXXXXXX,,Delhi,IN,Seller,Generated
428ff514-3c33-44f2-8e4e-4a784115f158,Owner 5252,+91XXXXXXXXXX,,Mumbai,IN,Seller,Generated
a3b38ad6-af51-4293-8964-1bed732c627b,Owner 3424,+91XXXXXXXXXX,,Mumbai,IN,Seller,Generated
591cdcd3-a4b0-4b19-89db-e9118080e78b,Owner 744,+91XXXXXXXXXX,,Mumbai,IN,Seller,Generated
ff277ac2-721c-45bb-a204-2d551b76299f,Owner 4637,+91XXXXXXXXXX,,London,IN,Seller,Generated
3e292b8b-f97f-42c9-acd1-40b369c61b34,Owner 9562,+91XXXXXXXXXX,,New York,IN,Seller,Generated
317de2c7-850d-4a90-86ac-b49b11008730,Owner 4493,+91XXXXXXXXXX,,Delhi,IN,Seller,Generated
4fb5ff7b-2003-475d-a625-add138e5ad95,Owner 6604,+91XXXXXXXXXX,,Delhi,IN,Seller,Generated
5d60dd95-b839-4132-a3af-0d342233af21,Owner 209,+91XXXXXXXXXX,,New York,IN,Seller,Generated
57edf9b8-a55b-4dda-ae8c-dd2090d8b693,Owner 9735,+91XXXXXXXXXX,,Mumbai,IN,Seller,Generated
b69ac822-b78a-41b3-bfe5-594d0f526e5b,Owner 5647,+91XXXXXXXXXX,,New York,IN,Seller,Generated
462a86f4-d2f9-4152-b497-c828d910e993,Owner 7325,+91XXXXXXXXXX,,Delhi,IN,Seller,Generated
6a1a1e1f-a483-4785-a6c6-1ca862eda217,Owner 3971,+91XXXXXXXXXX,,London,IN,Seller,Generated
b4e7644f-cbbb-4a50-b55e-afe62c43e926,Owner 6754,+91XXXXXXXXXX,,Mumbai,IN,Seller,Generated
c6c21c8e-3333-4544-93f0-e9f18248ebab,Owner 8296,+91XXXXXXXXXX,,Mumbai,IN,Seller,Generated
63d11a5a-25e8-4e67-84e6-cf80ac6a9992,Owner 2822,+91XXXXXXXXXX,,Mumbai,IN,Seller,Generated
e2c38b37-45d1-4d97-ac62-9136f3b7142f,Owner 2063,+91XXXXXXXXXX,,Delhi,IN,Seller,Generated
b399381f-09c5-479f-aa32-e86af2727370,Owner 2052,+91XXXXXXXXXX,,London,IN,Seller,Generated
dbabecc6-8f1d-4b90-a03c-6cc87f8239cb,Owner 6092,+91XXXXXXXXXX,,New York,IN,Seller,Generated
639acc0d-f11f-46af-b04c-af8f42813275,Owner 9735,+91XXXXXXXXXX,,New York,IN,Seller,Generated
1ee86af5-3190-43ae-8138-92471bd444f3,Owner 3055,+91XXXXXXXXXX,,Delhi,IN,Seller,Generated
6d51d9db-9759-4da4-a018-e99c669eddae,Owner 9414,+91XXXXXXXXXX,,London,IN,Seller,Generated
b6b5a5ed-bf20-437b-aa75-73ea8279d5a5,Owner 5959,+91XXXXXXXXXX,,London,IN,Seller,Generated
f0a9cc59-f138-4391-9048-dbfdc3eb4b59,Owner 8253,+91XXXXXXXXXX,,London,IN,Seller,Generated
2bd2172f-6360-4cab-a549-3ab3bff8a743,Owner 9831,+91XXXXXXXXXX,,Delhi,IN,Seller,Generated
3ae7c92f-064f-4830-b9f9-8f2b6639a53f,Owner 7341,+91XXXXXXXXXX,,Delhi,IN,Seller,Generated
ffa22f67-de87-440d-a621-932b777f42bd,Owner 631,+91XXXXXXXXXX,,Mumbai,IN,Seller,Generated
6eae5a27-7fc4-4882-b252-86d737f2ccc5,Owner 8040,+91XXXXXXXXXX,,Mumbai,IN,Seller,Generated
68e36004-f947-4425-8969-cfdd00a71b58,Owner 1408,+91XXXXXXXXXX,,London,IN,Seller,Generated
ff7cfa12-a0ea-4f8d-a4eb-9e57160e51e3,Owner 9843,+91XXXXXXXXXX,,Mumbai,IN,Seller,Generated
47feac0c-1289-489b-9ea0-b96d8b3e09d0,Owner 2107,+91XXXXXXXXXX,,London,IN,Seller,Generated
c6e37c33-d0bb-4b44-8662-171b8cb2178b,Owner 9036,+91XXXXXXXXXX,,Delhi,IN,Seller,Generated
2aab599d-10f1-4253-ac11-ba7988cbee36,Owner 3529,+91XXXXXXXXXX,,Mumbai,IN,Seller,Generated
d1171b8b-f819-4610-9309-91a8f28482ee,Owner 5371,+91XXXXXXXXXX,,London,IN,Seller,Generated
b39de05c-5618-4113-8ca7-1078c3d1a9f6,Owner 3229,+91XXXXXXXXXX,,New York,IN,Seller,Generated
500d9217-020b-40cb-b547-ea16a708b499,Owner 5155,+91XXXXXXXXXX,,Mumbai,IN,Seller,Generated
9b7e9c5d-0e84-4fc2-abd1-c1f8c8839e51,Owner 4871,+91XXXXXXXXXX,,Mumbai,IN,Seller,Generated
79f46215-b26f-4801-84af-b4e096c25dfe,Owner 7156,+91XXXXXXXXXX,,Delhi,IN,Seller,Generated
1c1f8ad8-73da-4b3d-9cc3-0a1dcc62983c,Owner 8795,+91XXXXXXXXXX,,London,IN,Seller,Generated
c7bfc8b6-662c-485e-ace2-78dc9b2aa0be,Owner 5144,+91XXXXXXXXXX,,Delhi,IN,Seller,Generated
0f9e4c3c-9588-4256-be08-e3f2af5e4b2a,Owner 7039,+91XXXXXXXXXX,,Delhi,IN,Seller,Generated
7517dc8b-23df-4931-9482-b9d2eac3f3c6,Owner 4945,+91XXXXXXXXXX,,London,IN,Seller,Generated
e78bdc12-b8c0-4eab-870c-ae262d014145,Owner 5129,+91XXXXXXXXXX,,New York,IN,Seller,Generated
01cba4f8-2766-4737-b5fd-c1030eb2abd3,Owner 2749,+91XXXXXXXXXX,,Delhi,IN,Seller,Generated
fa44048f-e659-4c60-8424-234e4d1fbb47,Owner 7923,+91XXXXXXXXXX,,New York,IN,Seller,Generated
e7527e45-2e43-472a-8193-b7ae56880995,Owner 58,+91XXXXXXXXXX,,Mumbai,IN,Seller,Generated
d2efc2b6-975a-49bc-b595-b0130efe25b1,Owner 7822,+91XXXXXXXXXX,,Delhi,IN,Seller,Generated
35a57b79-fe21-4aca-a223-a5a39a69ae1d,Owner 7226,+91XXXXXXXXXX,,London,IN,Seller,Generated
42e7bb2e-982d-4c15-8e14-4f803833dcd9,Owner 5115,+91XXXXXXXXXX,,New York,IN,Seller,Generated
79359e3d-6f44-43f3-8afd-d8c4bf618c94,Owner 7229,+91XXXXXXXXXX,,Mumbai,IN,Seller,Generated
ca5f9d7c-8e6a-48f1-82f0-1eb5c84ed431,Owner 4793,+91XXXXXXXXXX,,New York,IN,Seller,Generated
e41c276a-a6ef-4ea5-9285-b55ca0d6edba,Owner 5055,+91XXXXXXXXXX,,New York,IN,Seller,Generated
dcf0dd2a-2fc6-4d28-b101-0ed2287e4de7,Owner 8290,+91XXXXXXXXXX,,Mumbai,IN,Seller,Generated
8f291123-35a8-412a-8762-9f174dd994e5,Owner 3382,+91XXXXXXXXXX,,New York,IN,Seller,Generated
f306544f-781e-4322-a9ff-047fd350f04c,Owner 9362,+91XXXXXXXXXX,,Mumbai,IN,Seller,Generated
46f36c69-a9a6-4cb5-94e6-ed43ca9700d9,Owner 1627,+91XXXXXXXXXX,,Mumbai,IN,Seller,Generated
dca5a1f9-ecc6-407a-a5aa-973eaa903c8e,Owner 8662,+91XXXXXXXXXX,,New York,IN,Seller,Generated
44d9a66d-a148-43fc-8e3c-0bdbbc24527d,Owner 2226,+91XXXXXXXXXX,,London,IN,Seller,Generated
26b0d0e1-343b-4807-a3d0-1e87947cadfa,Owner 7095,+91XXXXXXXXXX,,New York,IN,Seller,Generated
5afc5801-9390-412b-a405-638ac0ed70e2,Owner 7175,+91XXXXXXXXXX,,New York,IN,Seller,Generated
63a7d5de-b8b6-44b5-a4b1-3bf33f2bc569,Owner 4799,+91XXXXXXXXXX,,New York,IN,Seller,Generated
42efb08f-aa81-4109-afcf-313a4ba08365,Owner 5493,+91XXXXXXXXXX,,Delhi,IN,Seller,Generated
0d5643b6-f86f-4b20-9954-6373887e92c4,Owner 767,+91XXXXXXXXXX,,London,IN,Seller,Generated
a5c5ef22-5bc8-475e-bf01-cbad1a6a6224,Owner 1424,+91XXXXXXXXXX,,London,IN,Seller,Generated
147a0e62-f5f9-4097-8f70-4d4f63bb4823,Owner 2734,+91XXXXXXXXXX,,Delhi,IN,Seller,Generated
ee6bcddc-a418-4b84-b9c7-bd7a028510dc,Owner 713,+91XXXXXXXXXX,,Mumbai,IN,Seller,Generated
57fd4663-927e-4db6-a55e-55de0de80382,Owner 7905,+91XXXXXXXXXX,,London,IN,Seller,Generated
ed720ff3-a630-4d8c-a768-b22453e480a1,Owner 7541,+91XXXXXXXXXX,,Delhi,IN,Seller,Generated
5bfc1b14-ef8b-49d2-bf69-eedb04110675,Owner 8645,+91XXXXXXXXXX,,London,IN,Seller,Generated
2ec0b886-fd88-49b2-94a8-5f954f6f88fd,Owner 9948,+91XXXXXXXXXX,,New York,IN,Seller,Generated
911c47d2-63f5-4e91-bca4-cc4d9c01eda9,Owner 3015,+91XXXXXXXXXX,,Mumbai,IN,Seller,Generated
a04ccd01-04ac-4c6a-a416-ddf14954483b,Owner 4353,+91XXXXXXXXXX,,London,IN,Seller,Generated
f2e174cf-4c75-47df-bade-1020f9f92e16,Owner 8602,+91XXXXXXXXXX,,New York,IN,Seller,Generated
d499f551-1405-4711-8376-f30bad226144,Owner 5230,+91XXXXXXXXXX,,New York,IN,Seller,Generated
0d6885dd-0b7b-49e7-bb5c-8ab9a06eb4b4,Owner 8810,+91XXXXXXXXXX,,Delhi,IN,Seller,Generated
2490a858-542d-4094-8a8e-14c0d7c986c0,Owner 1414,+91XXXXXXXXXX,,New York,IN,Seller,Generated
c4ac94f4-a771-4bde-b3ce-7d45638820a6,Owner 7707,+91XXXXXXXXXX,,London,IN,Seller,Generated
3c1359bc-1f46-4118-97e0-af5213dfbbcc,Owner 2375,+91XXXXXXXXXX,,Delhi,IN,Seller,Generated
385ca0e8-fc59-44ea-a28c-865812689e3d,Owner 9119,+91XXXXXXXXXX,,Mumbai,IN,Seller,Generated
a7018a64-f826-480e-8a04-defd1e79695d,Owner 4927,+91XXXXXXXXXX,,London,IN,Seller,Generated
f14ef4a4-1c02-4748-adf5-57bdb2bfb5f8,Owner 6650,+91XXXXXXXXXX,,Mumbai,IN,Seller,Generated
1028c0c0-ebd2-412b-9292-db14ffd9159f,Owner 5196,+91XXXXXXXXXX,,Mumbai,IN,Seller,Generated
a6664939-f641-4423-88ff-0dd7b6a19a17,Owner 6385,+91XXXXXXXXXX,,Delhi,IN,Seller,Generated
3d233600-d974-473b-abd0-37a42118da31,Owner 6590,+91XXXXXXXXXX,,Delhi,IN,Seller,Generated
4ae400db-cf1a-45aa-96c5-9e4807a0bed1,Owner 4209,+91XXXXXXXXXX,,London,IN,Seller,Generated
1d6068a4-9ec7-4e9c-925c-3e4878a57052,Owner 6926,+91XXXXXXXXXX,,Delhi,IN,Seller,Generated
b49b1577-7f7c-4af5-a5b4-155874806b80,Owner 3976,+91XXXXXXXXXX,,London,IN,Seller,Generated
5fc80661-da36-4490-a1f4-abd6bb650cd1,Owner 7353,+91XXXXXXXXXX,,London,IN,Seller,Generated
76918ed7-59e8-465d-8ca8-115fc4036368,Owner 4121,+91XXXXXXXXXX,,Delhi,IN,Seller,Generated
3427dfd5-fb8a-41ec-9003-3bd7b5e74b1e,Owner 3522,+91XXXXXXXXXX,,Delhi,IN,Seller,Generated
562f1c5f-c71c-4fad-9baf-907dedda00af,Owner 1074,+91XXXXXXXXXX,,New York,IN,Seller,Generated
16b32b45-7688-469a-b4cc-b68b02f602ab,Owner 4057,+91XXXXXXXXXX,,Delhi,IN,Seller,Generated
fc4d311c-a3a1-46ae-b40e-1256d90e810b,Owner 9774,+91XXXXXXXXXX,,Delhi,IN,Seller,Generated
f94218ac-e2e4-45fc-87d4-1e472bf4d2e4,Owner 4196,+91XXXXXXXXXX,,Delhi,IN,Seller,Generated
1e140264-9394-425e-9479-015075a3bdc0,Owner 7062,+91XXXXXXXXXX,,Delhi,IN,Seller,Generated
a62d80da-eb5e-4358-ad97-288dbe7bf621,Owner 5761,+91XXXXXXXXXX,,London,IN,Seller,Generated
629156d8-94cf-45fa-9fac-321ad59b370b,Owner 3444,+91XXXXXXXXXX,,London,IN,Seller,Generated
c7b5e60b-4556-43ac-9b1f-7064074f050b,Owner 4193,+91XXXXXXXXXX,,New York,IN,Seller,Generated
87e01f11-6b5c-4eaf-ab2c-76d08e0e6c45,Owner 91,+91XXXXXXXXXX,,New York,IN,Seller,Generated
48865d84-b518-4c95-aaeb-1d649900b522,Owner 7097,+91XXXXXXXXXX,,New York,IN,Seller,Generated
d136dc56-ac19-4619-96b4-38152354eb4e,Owner 4290,+91XXXXXXXXXX,,New York,IN,Seller,Generated
6e1b26a6-0821-4841-914e-3acb375367c1,Owner 6920,+91XXXXXXXXXX,,New York,IN,Seller,Generated
793c117c-c621-4c74-9e64-2a2c4e267884,Owner 321,+91XXXXXXXXXX,,New York,IN,Seller,Generated
f5b6d054-429d-4686-8453-22455b93ca7d,Owner 7449,+91XXXXXXXXXX,,London,IN,Seller,Generated
897214e1-7c94-4d84-b240-0120c9719b34,Owner 379,+91XXXXXXXXXX,,New York,IN,Seller,Generated
6d5c480e-9ba1-4195-a1fb-9069fb2f9f45,Owner 419,+91XXXXXXXXXX,,Mumbai,IN,Seller,Generated
fcbf9096-34c4-4d90-adbc-bac1a639eb30,Owner 3740,+91XXXXXXXXXX,,Mumbai,IN,Seller,Generated
cfc5ed2a-a1f9-46dd-8959-88e76272702c,Owner 1285,+91XXXXXXXXXX,,Delhi,IN,Seller,Generated
8853e971-4325-43fd-ba28-dbe6255d4c09,Owner 6672,+91XXXXXXXXXX,,Delhi,IN,Seller,Generated
c6c19e2b-4d03-44a1-a4a8-4bba8721aadb,Owner 2973,+91XXXXXXXXXX,,London,IN,Seller,Generated
0b797d81-e8bd-4684-9888-24fc4cc0dfb4,Owner 8604,+91XXXXXXXXXX,,London,IN,Seller,Generated
076577e6-93aa-493b-9192-83693ffda985,Owner 3953,+91XXXXXXXXXX,,Mumbai,IN,Seller,Generated
994a1ec2-cd89-46c2-bbd8-ce84eefe07e3,Owner 4869,+91XXXXXXXXXX,,New York,IN,Seller,Generated
e1a788a2-3bf5-464b-be96-e22aeba3318a,Owner 9803,+91XXXXXXXXXX,,New York,IN,Seller,Generated
53f97de6-8a15-4e17-905e-952e5573deeb,Owner 4340,+91XXXXXXXXXX,,Mumbai,IN,Seller,Generated
b5b757e7-2945-43f9-9122-1e3da6b5976e,Owner 7715,+91XXXXXXXXXX,,Delhi,IN,Seller,Generated
8ef141b6-a5bd-4463-93ef-673ff650856a,Owner 6802,+91XXXXXXXXXX,,Mumbai,IN,Seller,Generated
a2ce0357-ef81-4d2a-8d38-8b69e7436977,Owner 703,+91XXXXXXXXXX,,Mumbai,IN,Seller,Generated
97d61757-0e55-461c-b662-b0698242fb09,Owner 3321,+91XXXXXXXXXX,,Mumbai,IN,Seller,Generated
0ca841fb-4226-4fe1-a107-fb3195a3b7c6,Owner 6504,+91XXXXXXXXXX,,London,IN,Seller,Generated
af29dce6-73a2-45ad-8f72-c2ce7318e675,Owner 9963,+91XXXXXXXXXX,,Delhi,IN,Seller,Generated
fb6aec28-1c93-4c72-b080-3dc46fde8870,Owner 7193,+91XXXXXXXXXX,,Mumbai,IN,Seller,Generated
703d0704-cc35-400b-adb5-e7d834df97b2,Owner 4636,+91XXXXXXXXXX,,Mumbai,IN,Seller,Generated
a686dc25-0610-43b8-9641-e7a6c9a5c8fb,Owner 4922,+91XXXXXXXXXX,,London,IN,Seller,Generated
771a1cd9-e5da-4e26-88b1-b802a33e06c1,Owner 2578,+91XXXXXXXXXX,,Mumbai,IN,Seller,Generated
8fdb160a-07f3-48e2-8238-d7fbc0d3a501,Owner 4954,+91XXXXXXXXXX,,Mumbai,IN,Seller,Generated
9da8efd0-1e2b-473e-907b-e2db81c3ead0,Owner 248,+91XXXXXXXXXX,,Delhi,IN,Seller,Generated
384f1b71-186b-4426-a04f-9cb98ada82bf,Owner 4592,+91XXXXXXXXXX,,Delhi,IN,Seller,Generated
43cdaa85-70bb-4638-a2c1-acbb54e8c15c,Owner 7118,+91XXXXXXXXXX,,New York,IN,Seller,Generated
72c1831a-5961-4bec-b618-f687ff5b15bc,Owner 4821,+91XXXXXXXXXX,,Mumbai,IN,Seller,Generated
8b012c17-924b-459f-8dac-a6850afae986,Owner 9093,+91XXXXXXXXXX,,Mumbai,IN,Seller,Generated
83c0150f-ba2e-4d5a-84d5-34f2a9428b5f,Owner 7167,+91XXXXXXXXXX,,London,IN,Seller,Generated
55c7c0fa-31ae-44d7-88b6-f65034d17268,Owner 2147,+91XXXXXXXXXX,,London,IN,Seller,Generated
027dd1e6-6153-45b7-964a-72c53b80974b,Owner 52,+91XXXXXXXXXX,,New York,IN,Seller,Generated
a58f686d-ca0e-44c4-84b5-bcee3c8f6a01,Owner 1909,+91XXXXXXXXXX,,Delhi,IN,Seller,Generated
8b44266d-e4c1-4315-b7d9-044074e8579c,Owner 717,+91XXXXXXXXXX,,New York,IN,Seller,Generated
9cdb86e8-179e-462b-9749-93f3097c0ee9,Owner 62,+91XXXXXXXXXX,,London,IN,Seller,Generated
0390b0c3-f838-4ec0-b879-a187b4751750,Owner 1261,+91XXXXXXXXXX,,Mumbai,IN,Seller,Generated
581f6587-38af-486b-a3cf-ba014844e587,Owner 731,+91XXXXXXXXXX,,London,IN,Seller,Generated
5e05e9e8-eda8-408f-9dda-305efccd10e1,Owner 9613,+91XXXXXXXXXX,,London,IN,Seller,Generated
15fb70e9-a8f6-4c51-80b4-582b8ac028b5,Owner 3200,+91XXXXXXXXXX,,New York,IN,Seller,Generated
90dd1864-b23d-4eda-996a-26c6fcc82f8f,Owner 2887,+91XXXXXXXXXX,,New York,IN,Seller,Generated
bdb8bcc3-a635-4522-a580-cb05776fc7f6,Owner 9098,+91XXXXXXXXXX,,London,IN,Seller,Generated
bbb8f839-397f-4cf2-801e-2e068b39740d,Owner 6822,+91XXXXXXXXXX,,New York,IN,Seller,Generated
fff0f8e7-8f7d-46a6-bcc3-ce1552103140,Owner 3309,+91XXXXXXXXXX,,Mumbai,IN,Seller,Generated
f26b21a1-5f05-4f87-8c93-47eccb4c4382,Owner 5924,+91XXXXXXXXXX,,Mumbai,IN,Seller,Generated
364ac85c-4346-4450-ac47-1fbf84a8e3f7,Owner 1722,+91XXXXXXXXXX,,Mumbai,IN,Seller,Generated
53dfc066-7790-4325-8470-da6ecec15790,Owner 4578,+91XXXXXXXXXX,,Delhi,IN,Seller,Generated
e5e50925-debf-48a1-bc34-a21f74df7cec,Owner 7105,+91XXXXXXXXXX,,New York,IN,Seller,Generated
3bc1c728-0aac-44c8-9a50-a21efd341c1c,Owner 1843,+91XXXXXXXXXX,,Mumbai,IN,Seller,Generated
a1ec9211-513e-45bc-9355-b455c6149fca,Owner 1350,+91XXXXXXXXXX,,Mumbai,IN,Seller,Generated
54b84ca1-8fcf-4880-8462-6d8c918053df,Owner 7378,+91XXXXXXXXXX,,Mumbai,IN,Seller,Generated
d25cd915-e006-461b-8a85-37230d5d55fb,Owner 5545,+91XXXXXXXXXX,,London,IN,Seller,Generated
caad6fc2-f561-400e-a187-3995d4751357,Owner 9051,+91XXXXXXXXXX,,Mumbai,IN,Seller,Generated
a0d7d565-3cdc-49e2-a64a-c42f85e62846,Owner 4016,+91XXXXXXXXXX,,New York,IN,Seller,Generated
