lead_id,name,phone,email,city,country,type,notes
bec57478-6786-486f-a0b5-321a6cba7456,Owner 206,+91XXXXXXXXXX,,Delhi,IN,Seller,Generated
1f35c32c-779d-42a3-8ffb-b2b0d85077cc,Owner 7071,+91XXXXXXXXXX,,London,IN,Seller,Generated
5b9fc96f-e1ad-475f-bfe3-f7ff114d1191,Owner 8259,+91XXXXXXXXXX,,New York,IN,Seller,Generated
16f01d49-441f-428f-a7c8-8b3622eb4937,Owner 2221,+91XXXXXXXXXX,,London,IN,Seller,Generated
965ecbad-d2d5-4761-a01b-a41da5de7e11,Owner 5754,+91XXXXXXXXXX,,Mumbai,IN,Seller,Generated
9d2abd73-7174-4932-b2d8-020dec5a9e3d,Owner 2104,+91XXXXXXXXXX,,Delhi,IN,Seller,Generated
76f73db3-5406-42e3-906d-18f099092c5d,Owner 1878,+91XXXXXXXXXX,,New York,IN,Seller,Generated
a4e34e73-7ffe-4ada-859f-ac14f0a62fae,Owner 170,+91XXXXXXXXXX,,Mumbai,IN,Seller,Generated
ed4a1b38-ac99-436c-8bad-7a1e5cac5a4d,Owner 4050,+91XXXXXXXXXX,,New York,IN,Seller,Generated
4ce048c7-108b-4dac-b526-7c73de7f7f80,Owner 5650,+91XXXXXXXXXX,,Delhi,IN,Seller,Generated
e1989d5c-3720-4e47-b954-8e92d1502533,Owner 8744,+91XXXXXXXXXX,,London,IN,Seller,Generated
01f974ff-cf56-4a67-9acc-a9e6e1308209,Owner 1813,+91XXXXXXXXXX,,New York,IN,Seller,Generated
1cd0021b-3cc5-4492-b63a-0e2921f3aaea,Owner 7390,+91XXXXXXXXXX,,New York,IN,Seller,Generated
24f5677e-18b7-474c-bd1f-9332f0147a08,Owner 2110,+91XXXXXXXXXX,,London,IN,Seller,Generated
d6c2b3f0-85b3-43d3-9b6a-e009ffb25da8,Owner 6097,+91XXXXXXXXXX,,Mumbai,IN,Seller,Generated
810a6b8f-dfaf-4fff-a955-37115bc29603,Owner 8969,+91XXXXXXXXXX,,Delhi,IN,Seller,Generated
ff56a2a4-75b0-470f-acf3-a5a4e1e65006,Owner 3747,+91XXXXXXXXXX,,Mumbai,IN,Seller,Generated
33ab1baa-df71-44c0-849a-691dd7ffc8ae,Owner 3704,+91XXXXXXXXXX,,Mumbai,IN,Seller,Generated
cbd3b081-3a6b-4e76-8a4e-e5740fb2adc0,Owner 187,+91XXXXXXXXXX,,Delhi,IN,Seller,Generated
26236cb0-2e7b-42c5-987a-d37c313f1fbd,Owner 3230,+91XXXXXXXXXX,,New York,IN,Seller,Generated
9708a357-7ca9-4ce5-a132-61ef3e73add3,Owner 1742,+91XXXXXXXXXX,,Mumbai,IN,Seller,Generated
2f163625-c94b-49a3-a667-0de7518e7248,Owner 3396,+91XXXXXXXXXX,,New York,IN,Seller,Generated
1771d012-bc5a-4c45-acd3-c840c13c9753,Owner 5898,+91XXXXXXXXXX,,Delhi,IN,Seller,Generated
729597ff-b5b4-4c1f-8ed8-32f05b5860ae,Owner 3920,+91XXXXXXXXXX,,London,IN,Seller,Generated
a485435a-d112-4dca-bf23-fd9141ab5aa9,Owner 7048,+91XXXXXXXXXX,,Delhi,IN,Seller,Generated
f7a71d97-ff67-436b-b6ec-858c12d2cca2,Owner 4408,+91XXXXXXXXXX,,London,IN,Seller,Generated
f51c520b-2c8d-40af-9368-345f96b016c4,Owner 696,+91XXXXXXXXXX,,Mumbai,IN,Seller,Generated
0d7e5129-624f-4e52-890c-7c389b662dfc,Owner 9685,+91XXXXXXXXXX,,Delhi,IN,Seller,Generated
ab45ecef-e34a-435f-b5b8-2c4505d5bd6b,Owner 9030,+91XXXXXXXXXX,,New York,IN,Seller,Generated
891d682d-38ed-457f-a192-f184136e483d,Owner 5689,+91XXXXXXXXXX,,Delhi,IN,Seller,Generated
b8436515-ced9-4803-ae0b-760eed910097,Owner 1979,+91XXXXXXXXXX,,New York,IN,Seller,Generated
13b91b36-f8db-4e6c-bebf-e66e30876a31,Owner 2541,+91XXXXXXXXXX,,Delhi,IN,Seller,Generated
32e638bf-e006-4834-828f-bc7150538f51,Owner 7346,+91XXXXXXXXXX,,Mumbai,IN,Seller,Generated
9d272d05-84da-4e6e-b4a4-cd2f0a24ad25,Owner 9052,+91XXXXXXXXXX,,New York,IN,Seller,Generated
4e54f4d8-15b6-4270-9497-5413b0462963,Owner 2358,+91XXXXXXXXXX,,Delhi,IN,Seller,Generated
e08ee843-13cb-4d5f-88a2-de203a778867,Owner 3734,+91XXXXXXXXXX,,Delhi,IN,Seller,Generated
9a25648a-c437-47c1-b60c-a8ac053fb34c,Owner 6104,+91XXXXXXXXXX,,New York,IN,Seller,Generated
90e23283-0be6-4667-b67b-fc58b2688b21,Owner 7984,+91XXXXXXXXXX,,Mumbai,IN,Seller,Generated
e894ed44-8e09-404c-b990-55e2053fcb1a,Owner 3374,+91XXXXXXXXXX,,New York,IN,Seller,Generated
0922712d-d78a-419b-a2a7-f7b1e8eb9c30,Owner 4216,+91XXXXXXXXXX,,Delhi,IN,Seller,Generated
8c0040a5-2d37-4170-b476-52ac03653d80,Owner 7602,+91XXXXXXXXXX,,New York,IN,Seller,Generated
f05e8f80-0750-465a-9464-b07d0d2f0242,Owner 2894,+91XXXXXXXXXX,,New York,IN,Seller,Generated
e0663ac5-a3e7-45c9-aa4a-9802d572b53e,Owner 9915,+91XXXXXXXXXX,,New York,IN,Seller,Generated
fae03b2a-7a36-4c47-a29e-7d1b6f2d6138,Owner 2655,+91XXXXXXXXXX,,Mumbai,IN,Seller,Generated
9cba77d8-7761-475d-9621-b28478bac3f6,Owner 4887,+91XXXXXXXXXX,,Delhi,IN,Seller,Generated
3f0f7585-6c99-4abc-b15d-fa49939ab142,Owner 593,+91XXXXXXXXXX,,London,IN,Seller,Generated
a4d24cef-a4d7-4599-99f6-dbdca6e365b2,Owner 8590,+91XXXXXXXXXX,,Mumbai,IN,Seller,Generated
e9876a11-91d0-433f-b096-740f78677882,Owner 4027,+91XXXXXXXXXX,,Delhi,IN,Seller,Generated
2b1b1090-a722-4534-8520-7b25aff7e296,Owner 5450,+91XXXXXXXXXX,,London,IN,Seller,Generated
488b8740-fe5a-430f-9711-29f6889fd0cd,Owner 7665,+91XXXXXXXXXX,,Delhi,IN,Seller,Generated
76fa693e-036d-461a-8fc4-b3f98d76a908,Owner 2027,+91XXXXXXXXXX,,Delhi,IN,Seller,Generated
48978afc-bb46-431d-9305-70fcafd26203,Owner 9177,+91XXXXXXXXXX,,Delhi,IN,Seller,Generated
af76edc4-2063-4c62-97ea-ff9d2362dabd,Owner 9731,+91XXXXXXXXXX,,London,IN,Seller,Generated
5c398cca-001a-4bb4-9a49-88b714263698,Owner 8667,+91XXXXXXXXXX,,Delhi,IN,Seller,Generated
314da1e0-54c6-4296-964c-93ec199004d3,Owner 6802,+91XXXXXXXXXX,,Delhi,IN,Seller,Generated
a7660620-db91-4574-b3c2-770629649508,Owner 6504,+91XXXXXXXXXX,,London,IN,Seller,Generated
b77b9f41-a26f-4c4c-853b-1649d80888b2,Owner 6523,+91XXXXXXXXXX,,New York,IN,Seller,Generated
e5f45555-b72c-4d64-8eee-8fe8a38a04b9,Owner 649,+91XXXXXXXXXX,,Delhi,IN,Seller,Generated
d5f03728-47c9-439a-a424-207353d95f7e,Owner 9288,+91XXXXXXXXXX,,Delhi,IN,Seller,Generated
fad7387d-d8f1-44c2-bac1-79f52911624f,Owner 7687,+91XXXXXXXXXX,,Mumbai,IN,Seller,Generated
a3a557ab-cdbf-44ec-96c2-40773c972520,Owner 2848,+91XXXXXXXXXX,,Delhi,IN,Seller,Generated
2a7970dd-e31b-44f4-91d0-aee91fba64fb,Owner 5932,+91XXXXXXXXXX,,London,IN,Seller,Generated
7d6e4a2c-190c-4862-a2b3-a242ba2830dc,Owner 5229,+91XXXXXXXXXX,,Mumbai,IN,Seller,Generated
cfd3dd1f-fe42-4908-be85-41950ac601be,Owner 9864,+91XXXXXXXXXX,,New York,IN,Seller,Generated
d8c26dbe-59b9-4c7b-b910-11226a3d2c9e,Owner 5332,+91XXXXXXXXXX,,London,IN,Seller,Generated
9b1e4755-0fdf-4952-a3d2-93567e10d1ae,Owner 352,+91XXXXXXXXXX,,New York,IN,Seller,Generated
0491c045-5a59-47ef-986c-e6d8d7a2fd29,Owner 5352,+91XXXXXXXXXX,,Delhi,IN,Seller,Generated
4fc1f185-817d-4683-9320-f08a90bf46bb,Owner 9320,+91XXXXXXXXXX,,New York,IN,Seller,Generated
95d707de-284a-4802-a62b-90328dee55ee,Owner 4530,+91XXXXXXXXXX,,Mumbai,IN,Seller,Generated
8af0dbf5-9fcf-4790-a9d8-bbe80d9c7782,Owner 461,+91XXXXXXXXXX,,Delhi,IN,Seller,Generated
e92aac20-f30f-4e69-afa1-d57976a7d123,Owner 6618,+91XXXXXXXXXX,,Delhi,IN,Seller,Generated
f753ce2d-83b7-433d-971f-94cc6ec3bf23,Owner 5143,+91XXXXXXXXXX,,London,IN,Seller,Generated
06db6ce6-c8ef-4740-b654-a08a42b8e770,Owner 2907,+91XXXXXXXXXX,,London,IN,Seller,Generated
b89af9ac-b618-4c2b-9e91-9aa1308debd5,Owner 5988,+91XXXXXXXXXX,,London,IN,Seller,Generated
96e437e5-2a9c-44a4-874a-8fef74f4d2d8,Owner 2680,+91XXXXXXXXXX,,Mumbai,IN,Seller,Generated
bbbadaa7-18fe-46a9-aa80-308fe61cfb31,Owner 4182,+91XXXXXXXXXX,,Delhi,IN,Seller,Generated
82802d47-bbc7-45fa-a65c-6f06f46c11b6,Owner 7350,+91XXXXXXXXXX,,Mumbai,IN,Seller,Generated
1d7dbad4-1994-411c-8a68-9ab94b4b3b05,Owner 9744,+91XXXXXXXXXX,,New York,IN,Seller,Generated
a45c1f8f-23ef-4121-b436-0135b6c9c2c1,Owner 8376,+91XXXXXXXXXX,,London,IN,Seller,Generated
50f9e1d0-f63d-4356-b221-b4b577d0dcf6,Owner 3247,+91XXXXXXXXXX,,London,IN,Seller,Generated
c354c7e4-b65f-46d4-b681-3073ab25dba7,Owner 6987,+91XXXXXXXXXX,,London,IN,Seller,Generated
7a6e7a02-61c6-4be0-827c-aec0fd58a43b,Owner 2226,+91XXXXXXXXXX,,London,IN,Seller,Generated
572eb6cc-5d85-4e71-aaff-0efaa61b8ef0,Owner 6700,+91XXXXXXXXXX,,Mumbai,IN,Seller,Generated
e649fb31-f16f-4cd2-b2ba-5d69d881b547,Owner 6018,+91XXXXXXXXXX,,Mumbai,IN,Seller,Generated
ab516a6b-37a3-4673-88da-225699894de4,Owner 3540,+91XXXXXXXXXX,,Delhi,IN,Seller,Generated
67c09126-5b20-46fa-a733-d9879adf0879,Owner 7784,+91XXXXXXXXXX,,Mumbai,IN,Seller,Generated
fbda6184-d449-4934-9404-728057c1b5e3,Owner 7535,+91XXXXXXXXXX,,New York,IN,Seller,Generated
829598b8-a012-40d5-868b-1945da9d9846,Owner 8345,+91XXXXXXXXXX,,New York,IN,Seller,Generated
59102f16-ccb5-44a8-a7d6-b79e159a7173,Owner 3737,+91XXXXXXXXXX,,Mumbai,IN,Seller,Generated
e419cab4-8460-473c-8bb7-266f35b9f36c,Owner 9643,+91XXXXXXXXXX,,New York,IN,Seller,Generated
50f66d3b-5d34-4c3a-9dfd-37c4424d0349,Owner 3428,+91XXXXXXXXXX,,Mumbai,IN,Seller,Generated
2cc2d78f-f45f-4c8c-b63f-2bc7c46a316f,Owner 8870,+91XXXXXXXXXX,,London,IN,Seller,Generated
aaacc4c0-3b35-492e-8f39-738e516064d8,Owner 2624,+91XXXXXXXXXX,,Mumbai,IN,Seller,Generated
eee08e68-4257-49ce-a939-1b8e6f77e785,Owner 2245,+91XXXXXXXXXX,,London,IN,Seller,Generated
828055e7-2041-4583-85f6-b2fb95fe62e8,Owner 5178,+91XXXXXXXXXX,,London,IN,Seller,Generated
0f245a73-b4b6-4aaf-9c3b-bb28a9737fec,Owner 6009,+91XXXXXXXXXX,,London,IN,Seller,Generated
14761809-ac7f-4452-b368-cb47d6029888,Owner 8787,+91XXXXXXXXXX,,Delhi,IN,Seller,Generated
675ba798-d5c9-4f0d-90a9-6c5186056ef3,Owner 204,+91XXXXXXXXXX,,Delhi,IN,Seller,Generated
aa6c712e-65fc-4973-ba3e-9ab76e78f36c,Owner 286,+91XXXXXXXXXX,,New York,IN,Seller,Generated
ae7c47c3-df08-49b7-8d09-7180a77688a8,Owner 5962,+91XXXXXXXXXX,,Mumbai,IN,Seller,Generated
c2753a01-edbf-44f1-a40b-85e6d6d3c64d,Owner 1663,+91XXXXXXXXXX,,New York,IN,Seller,Generated
2fb76866-a5a2-4e42-9ca1-ced90fb8d5ee,Owner 6900,+91XXXXXXXXXX,,Delhi,IN,Seller,Generated
97e7dc33-5b34-42b7-9070-4de1520fafee,Owner 1047,+91XXXXXXXXXX,,Delhi,IN,Seller,Generated
8fdd01f5-d958-4327-945c-fdfdc72fb518,Owner 1314,+91XXXXXXXXXX,,Delhi,IN,Seller,Generated
3dbf8881-0cf9-42c3-9267-5a7d19d0b8ee,Owner 1977,+91XXXXXXXXXX,,New York,IN,Seller,Generated
06cd3025-cfcb-487f-b9e5-a90011f80f91,Owner 8732,+91XXXXXXXXXX,,London,IN,Seller,Generated
90b3488c-f217-4f2e-a4e7-e96bfdcf43df,Owner 6834,+91XXXXXXXXXX,,London,IN,Seller,Generated
12e56435-2770-4878-b8fe-b9ad6f07b46b,Owner 6591,+91XXXXXXXXXX,,Delhi,IN,Seller,Generated
241ee779-c8cc-4e2b-b3e4-30df7eb846fa,Owner 3718,+91XXXXXXXXXX,,Mumbai,IN,Seller,Generated
c1d5dc21-42cd-47eb-be58-999ee66dd6db,Owner 1392,+91XXXXXXXXXX,,Delhi,IN,Seller,Generated
d8ab35cb-3327-4cb6-b7f9-ba250d6e8a4d,Owner 3350,+91XXXXXXXXXX,,Mumbai,IN,Seller,Generated
b5b383d2-891e-45c2-9ea0-e367a0c8d50f,Owner 8374,+91XXXXXXXXXX,,London,IN,Seller,Generated
0406301a-e3f2-448d-b156-89809028d59e,Owner 7264,+91XXXXXXXXXX,,New York,IN,Seller,Generated
2a98d48f-a5b3-4a05-a82f-632a72ca10c3,Owner 4176,+91XXXXXXXXXX,,London,IN,Seller,Generated
2f826650-2bec-4efe-90f6-fab7929a1b39,Owner 3073,+91XXXXXXXXXX,,Delhi,IN,Seller,Generated
306b03b3-86ed-40e7-a636-cfcbcb854655,Owner 5871,+91XXXXXXXXXX,,New York,IN,Seller,Generated
ca3ca7cc-5af2-437b-90a8-550e758d53df,Owner 380,+91XXXXXXXXXX,,New York,IN,Seller,Generated
c2021915-5dc5-43cf-815d-3f98ae6ed80e,Owner 7431,+91XXXXXXXXXX,,Delhi,IN,Seller,Generated
39438214-72e4-4091-9107-38a7f615daab,Owner 7870,+91XXXXXXXXXX,,Mumbai,IN,Seller,Generated
383af408-ad97-4f8c-801c-1a50b217199a,Owner 3173,+91XXXXXXXXXX,,Delhi,IN,Seller,Generated
bd478b95-364c-4e9d-a802-79497acd8ddf,Owner 3755,+91XXXXXXXXXX,,New York,IN,Seller,Generated
b80fbc1d-8c37-4cb3-8c5f-da012b19093e,Owner 325,+91XXXXXXXXXX,,Delhi,IN,Seller,Generated
8128a6de-2f67-4c53-bf7a-8f13bffd4b0a,Owner 4509,+91XXXXXXXXXX,,New York,IN,Seller,Generated
095e1f71-bc4b-46c7-904a-00f2ef8efcc4,Owner 7010,+91XXXXXXXXXX,,New York,IN,Seller,Generated
77af9102-1509-4e16-9ed7-b47d1668cc61,Owner 3547,+91XXXXXXXXXX,,New York,IN,Seller,Generated
bc204b73-38c3-4359-92cd-00222d97c611,Owner 1721,+91XXXXXXXXXX,,Mumbai,IN,Seller,Generated
4753b192-3381-45f3-a576-43a17f71954c,Owner 1015,+91XXXXXXXXXX,,Mumbai,IN,Seller,Generated
fd1251af-64c9-4448-8fee-1960b071a5a0,Owner 3003,+91XXXXXXXXXX,,London,IN,Seller,Generated
f25468f6-7627-45e4-b746-9f1114a6dfff,Owner 9432,+91XXXXXXXXXX,,New York,IN,Seller,Generated
123b576e-c315-4946-96df-a7087b5328ec,Owner 5475,+91XXXXXXXXXX,,London,IN,Seller,Generated
8d045a4c-453c-4eb7-afec-a4e54d46b411,Owner 6560,+91XXXXXXXXXX,,London,IN,Seller,Generated
2d7344bf-216f-4d1b-83f2-6765adc2512e,Owner 5890,+91XXXXXXXXXX,,New York,IN,Seller,Generated
02d22721-b5a8-4fba-99e0-969723270375,Owner 4707,+91XXXXXXXXXX,,London,IN,Seller,Generated
2efcd3b9-fd69-4c3e-ab5d-0ab377b8788c,Owner 1068,+91XXXXXXXXXX,,Mumbai,IN,Seller,Generated
512f3391-2a9a-4bad-a17e-739befb61dff,Owner 9182,+91XXXXXXXXXX,,Delhi,IN,Seller,Generated
2e50bdf0-a80c-427f-9726-07e17a431841,Owner 7594,+91XXXXXXXXXX,,London,IN,Seller,Generated
9f0dcaa1-7761-43aa-bb67-be00d9888703,Owner 3183,+91XXXXXXXXXX,,New York,IN,Seller,Generated
4f53aaab-7e29-4175-a8bb-54946e70c3b4,Owner 315,+91XXXXXXXXXX,,London,IN,Seller,Generated
d720e6f9-d9ee-4066-a1ea-132731731e31,Owner 6688,+91XXXXXXXXXX,,New York,IN,Seller,Generated
bff1c076-1bbd-410a-b101-ec70e962dc22,Owner 1534,+91XXXXXXXXXX,,London,IN,Seller,Generated
a33cb897-a60e-447e-997a-9f8e7c3e50a3,Owner 8330,+91XXXXXXXXXX,,Mumbai,IN,Seller,Generated
4ce07c29-3e0f-4db3-b75e-e9ef236c1fc6,Owner 1430,+91XXXXXXXXXX,,New York,IN,Seller,Generated
e6b5a7f3-0ded-417d-bfad-b712cc1f476e,Owner 2290,+91XXXXXXXXXX,,London,IN,Seller,Generated
0d581b2a-6e9c-4d83-875a-4ccc2b078e6a,Owner 8208,+91XXXXXXXXXX,,New York,IN,Seller,Generated
0aedd593-2e6f-4d0d-90b7-ec583c0764ef,Owner 8193,+91XXXXXXXXXX,,Mumbai,IN,Seller,Generated
69dec8d2-b237-4698-92ba-3a40d99b069c,Owner 3763,+91XXXXXXXXXX,,Mumbai,IN,Seller,Generated
b472728a-4580-4642-939d-bb7e5c894732,Owner 5981,+91XXXXXXXXXX,,New York,IN,Seller,Generated
6b658ec9-af58-4dee-84bd-e3f23f2198ad,Owner 9060,+91XXXXXXXXXX,,Delhi,IN,Seller,Generated
ec3a5388-618d-48eb-a7f6-6dadbf65bc96,Owner 9862,+91XXXXXXXXXX,,London,IN,Seller,Generated
102cd2ad-5fea-4f5d-a46d-e9ca6f63c84e,Owner 8333,+91XXXXXXXXXX,,London,IN,Seller,Generated
b6c07689-8d5b-44b8-adfb-e00309ee1056,Owner 4538,+91XXXXXXXXXX,,Mumbai,IN,Seller,Generated
0b58f0b3-32fa-40b4-a1fb-91d3039f3b21,Owner 7963,+91XXXXXXXXXX,,New York,IN,Seller,Generated
e2167184-68d5-4c17-8285-249d470d7d3c,Owner 5984,+91XXXXXXXXXX,,Mumbai,IN,Seller,Generated
8df5299e-889a-407f-8d7c-caacbe7d9c45,Owner 3711,+91XXXXXXXXXX,,London,IN,Seller,Generated
b425cf8b-49bb-4f9c-87b3-b0e7cfe44e86,Owner 5277,+91XXXXXXXXXX,,Mumbai,IN,Seller,Generated
fae4c377-410a-4b80-a874-de453426db20,Owner 5420,+91XXXXXXXXXX,,Mumbai,IN,Seller,Generated
e1ab21c2-4287-45a8-a004-358d94a8f7f8,Owner 5665,+91XXXXXXXXXX,,Delhi,IN,Seller,Generated
772f3900-f416-45ee-b558-43c0b84155d4,Owner 7275,+91XXXXXXXXXX,,London,IN,Seller,Generated
83cda19f-f448-4c9a-9c56-3b1f05e4c7ed,Owner 238,+91XXXXXXXXXX,,New York,IN,Seller,Generated
f1aeba99-fba3-47d0-99e2-f285ad8432a0,Owner 2754,+91XXXXXXXXXX,,Mumbai,IN,Seller,Generated
e5affdaf-a423-4444-895a-7f60048b54b5,Owner 1654,+91XXXXXXXXXX,,London,IN,Seller,Generated
7b363eb6-8e2c-4f68-bb61-b7220f0f26c9,Owner 2094,+91XXXXXXXXXX,,New York,IN,Seller,Generated
92926af4-41aa-4452-a21d-c061120e91dc,Owner 681,+91XXXXXXXXXX,,Delhi,IN,Seller,Generated
300c6e29-d589-4749-b0a5-8505ebec3363,Owner 3580,+91XXXXXXXXXX,,Mumbai,IN,Seller,Generated
59eaa971-5fd2-46b4-a530-49b34ccf213b,Owner 9996,+91XXXXXXXXXX,,London,IN,Seller,Generated
a99cf68e-d80f-48d7-8389-821d8a554206,Owner 6508,+91XXXXXXXXXX,,Delhi,IN,Seller,Generated
b2c46445-2f7b-4c3b-9843-e2a9c66a9a0f,Owner 4035,+91XXXXXXXXXX,,Delhi,IN,Seller,Generated
97730f11-e09e-4de3-984d-63d83bacecc9,Owner 9651,+91XXXXXXXXXX,,Delhi,IN,Seller,Generated
f8983052-2c0e-4e41-81bf-2a4dabb13a5d,Owner 5216,+91XXXXXXXXXX,,Delhi,IN,Seller,Generated
b7667766-d880-46cc-9644-8a53177430af,Owner 8138,+91XXXXXXXXXX,,New York,IN,Seller,Generated
2c0cee34-b955-49e2-add5-9240033e5b1d,Owner 2381,+91XXXXXXXXXX,,New York,IN,Seller,Generated
7f338ed3-2d9d-4076-bfe1-01e40a5a8e17,Owner 3179,+91XXXXXXXXXX,,Mumbai,IN,Seller,Generated
fed91fc1-27c1-4e2a-ae29-a146970b2110,Owner 9996,+91XXXXXXXXXX,,New York,IN,Seller,Generated
02c3cea4-0242-4c83-81c1-b2b516e240ae,Owner 6443,+91XXXXXXXXXX,,Mumbai,IN,Seller,Generated
8aa15acc-d76f-41d2-a7d7-d5789ad9e198,Owner 4530,+91XXXXXXXXXX,,New York,IN,Seller,Generated
28838c46-4bb5-4f7f-82f0-c0dec51a678e,Owner 5406,+91XXXXXXXXXX,,Delhi,IN,Seller,Generated
b824b10e-8aaf-454c-8ff9-4fa4f86b9f9f,Owner 2397,+91XXXXXXXXXX,,London,IN,Seller,Generated
74b5ac64-c333-4de7-9b15-1393ec2f4c4c,Owner 5423,+91XXXXXXXXXX,,London,IN,Seller,Generated
7574f65a-d402-41d3-9a14-69c055253625,Owner 44,+91XXXXXXXXXX,,Delhi,IN,Seller,Generated
c9e65483-0302-4d5e-8762-236b60bf7197,Owner 7608,+91XXXXXXXXXX,,Delhi,IN,Seller,Generated
eebfd8f8-3fa9-44f9-a3e8-80b6853a8354,Owner 4361,+91XXXXXXXXXX,,London,IN,Seller,Generated
47b3cc89-ad69-497b-b109-922cab1c1285,Owner 4605,+91XXXXXXXXXX,,New York,IN,Seller,Generated
a04b9fa9-5d58-4667-a6ab-2b371bc8f884,Owner 8228,+91XXXXXXXXXX,,New York,IN,Seller,Generated
d4225ce9-84d8-4daf-bea0-085378ec10e1,Owner 3944,+91XXXXXXXXXX,,London,IN,Seller,Generated
9adbe5ca-cf23-42c9-86fa-c7923991a8c0,Owner 9828,+91XXXXXXXXXX,,London,IN,Seller,Generated
0d6f5c03-7b7a-4e5f-8af8-036b7b932f32,Owner 3561,+91XXXXXXXXXX,,New York,IN,Seller,Generated
cae9fe67-3538-4605-bb9f-6ad04cc0c0ef,Owner 7388,+91XXXXXXXXXX,,Mumbai,IN,Seller,Generated
63d99ed4-a2b1-4dfc-92ec-e83398637d0e,Owner 5712,+91XXXXXXXXXX,,Mumbai,IN,Seller,Generated
1e500a06-f096-4e84-88c9-ed884db616b2,Owner 8496,+91XXXXXXXXXX,,Mumbai,IN,Seller,Generated
604e6ff8-9e9f-4219-9e95-a472b826c48c,Owner 6409,+91XXXXXXXXXX,,Mumbai,IN,Seller,Generated
ef2c5559-3cec-4c3a-8192-ee05173bcbe2,Owner 3627,+91XXXXXXXXXX,,Mumbai,IN,Seller,Generated
e9fa5d6b-26cb-4b8a-a419-ed8c6248464d,Owner 5043,+91XXXXXXXXXX,,London,IN,Seller,Generated
65058642-f15e-4720-aa6e-639332daa3fc,Owner 3535,+91XXXXXXXXXX,,Delhi,IN,Seller,Generated
1db2ff5c-493f-46e7-83b2-b37a23a38764,Owner 381,+91XXXXXXXXXX,,New York,IN,Seller,Generated
ce4a0b60-d418-41c9-9d9d-227547e113a8,Owner 1003,+91XXXXXXXXXX,,Mumbai,IN,Seller,Generated
9191fdac-d6c6-4502-b858-29b1b1c1a4ba,Owner 6736,+91XXXXXXXXXX,,New York,IN,Seller,Generated
f82213f9-5480-47b2-9121-1ea406890ed1,Owner 9426,+91XXXXXXXXXX,,London,IN,Seller,Generated
1c50583c-f47f-46bc-83b6-c629061cb317,Owner 7295,+91XXXXXXXXXX,,London,IN,Seller,Generated
72b4426b-a290-4b4c-a7a8-32438bd8a231,Owner 2955,+91XXXXXXXXXX,,Mumbai,IN,Seller,Generated
3dfa5184-ba1d-4ca6-a3b9-e3436b04c5ea,Owner 1234,+91XXXXXXXXXX,,London,IN,Seller,Generated
0bb76cbc-ea61-4394-842a-615c7be75063,Owner 8070,+91XXXXXXXXXX,,Mumbai,IN,Seller,Generated
52fd5c08-31c0-40b5-af89-c213fb6b1dfb,Owner 4168,+91XXXXXXXXXX,,Delhi,IN,Seller,Generated
19ccedb8-8811-46f5-bce9-d4ea22ea4a12,Owner 6001,+91XXXXXXXXXX,,London,IN,Seller,Generated
3e9fb999-58f7-4e03-a0ef-cde5fecc4877,Owner 4857,+91XXXXXXXXXX,,New York,IN,Seller,Generated
d45d92e7-dd08-4eea-99a3-346e27c6b6fa,Owner 8932,+91XXXXXXXXXX,,Delhi,IN,Seller,Generated
bca6b1d4-a3b3-427b-8962-0de7299f75ec,Owner 7241,+91XXXXXXXXXX,,New York,IN,Seller,Generated
eb12e91d-6b0a-4a84-87ac-620664fdbc21,Owner 5120,+91XXXXXXXXXX,,New York,IN,Seller,Generated
9953c769-cfc3-4512-9cea-305c1c31770f,Owner 1238,+91XXXXXXXXXX,,Mumbai,IN,Seller,Generated
13e3ae16-d624-4a9a-b208-94d1990a15e6,Owner 2400,+91XXXXXXXXXX,,New York,IN,Seller,Generated
c3b1dd2b-864d-4c21-8b36-8315858ab662,Owner 446,+91XXXXXXXXXX,,London,IN,Seller,Generated
9b6e2102-31be-4e12-aa7e-a9da925d8ae2,Owner 8950,+91XXXXXXXXXX,,London,IN,Seller,Generated
97ec2586-629e-426c-ba3d-f545972cbf84,Owner 4504,+91XXXXXXXXXX,,Mumbai,IN,Seller,Generated
0bd68a2d-e43d-484e-b411-db7ea231d676,Owner 6369,+91XXXXXXXXXX,,Mumbai,IN,Seller,Generated
bfc9ba35-2d48-47d5-a19c-02fbb4044cb1,Owner 6362,+91XXXXXXXXXX,,New York,IN,Seller,Generated
8cfe6fa5-db30-4f37-a6e9-72467e9945eb,Owner 6296,+91XXXXXXXXXX,,Mumbai,IN,Seller,Generated
7541c658-65f7-482c-8a51-613643c5f8de,Owner 7668,+91XXXXXXXXXX,,Delhi,IN,Seller,Generated
6ce6c645-ac2b-4531-9b8b-52c68d54bafc,Owner 4130,+91XXXXXXXXXX,,New York,IN,Seller,Generated
27992787-6ec8-4010-a7b4-6d87aef6628d,Owner 366,+91XXXXXXXXXX,,New York,IN,Seller,Generated
fceababe-cf33-4918-8b9b-19696aa4f676,Owner 4336,+91XXXXXXXXXX,,London,IN,Seller,Generated
399223aa-b697-4050-8bda-dd5644c732ee,Owner 2494,+91XXXXXXXXXX,,Mumbai,IN,Seller,Generated
5440cdfe-bd17-423d-812b-9cfd33c3bf35,Owner 8914,+91XXXXXXXXXX,,Delhi,IN,Seller,Generated
88a71eb2-46a8-4f82-9d2d-9f51af0c5238,Owner 2172,+91XXXXXXXXXX,,Delhi,IN,Seller,Generated
01399d9c-f130-4bfb-9826-10f9383bdfe4,Owner 7724,+91XXXXXXXXXX,,Delhi,IN,Seller,Generated
e7de3663-78d7-42be-84c8-a5ff3c19ddab,Owner 2142,+91XXXXXXXXXX,,New York,IN,Seller,Generated
e2fdaba4-d4c8-4c2e-abf9-caa2d97a2cee,Owner 471,+91XXXXXXXXXX,,London,IN,Seller,Generated
f13af7ba-709e-4e2a-8672-0d173eb1b3a0,Owner 2942,+91XXXXXXXXXX,,Mumbai,IN,Seller,Generated
2556398b-17c4-48d7-a8bf-bc62e1693cf6,Owner 7155,+91XXXXXXXXXX,,Delhi,IN,Seller,Generated
cdc43c8c-02c2-437e-9683-72f54176d2d2,Owner 5190,+91XXXXXXXXXX,,Delhi,IN,Seller,Generated
3a7e21a8-25ac-4c41-85d8-8f875139219b,Owner 5509,+91XXXXXXXXXX,,London,IN,Seller,Generated
42a55c78-8987-46d1-b0d8-46e1b10b0322,Owner 576,+91XXXXXXXXXX,,New York,IN,Seller,Generated
4a4f1d2d-73df-4f45-bb23-91f60c275133,Owner 9739,+91XXXXXXXXXX,,London,IN,Seller,Generated
3d87f74e-ea73-47f5-9b99-4ebb9d75b7e7,Owner 9341,+91XXXXXXXXXX,,London,IN,Seller,Generated
9268c12e-09de-422e-8a10-c33ede294568,Owner 3075,+91XXXXXXXXXX,,London,IN,Seller,Generated
c45cf56a-ac28-48a4-8af5-246961872d1e,Owner 6234,+91XXXXXXXXXX,,New York,IN,Seller,Generated
9f2c1437-908c-456b-a28f-b2b0572738e5,Owner 5952,+91XXXXXXXXXX,,Delhi,IN,Seller,Generated
638ee83e-49d2-4e6c-ba97-75ac30fb4c57,Owner 5447,+91XXXXXXXXXX,,London,IN,Seller,Generated
f61fd522-f115-421c-98bf-5fdd75facc3a,Owner 7002,+91XXXXXXXXXX,,Mumbai,IN,Seller,Generated
f59d0aed-a4f1-4909-920e-308035e9f3e0,Owner 9758,+91XXXXXXXXXX,,Mumbai,IN,Seller,Generated
d87aafa9-5112-428c-9a2e-fe929ed6a49c,Owner 358,+91XXXXXXXXXX,,Mumbai,IN,Seller,Generated
095af9dc-5937-4221-9e68-08cd9f1d72ca,Owner 2660,+91XXXXXXXXXX,,Delhi,IN,Seller,Generated
b335577e-e44d-4a60-b32a-bf39afb791c7,Owner 4381,+91XXXXXXXXXX,,Delhi,IN,Seller,Generated
3a08c74d-4ec5-4391-b39b-5da4c775cb04,Owner 5750,+91XXXXXXXXXX,,London,IN,Seller,Generated
a2d2316b-3593-4d70-a9a5-e621dabeac08,Owner 446,+91XXXXXXXXXX,,Mumbai,IN,Seller,Generated
a9b3367f-1cec-4ee8-a768-b638f863e8c1,Owner 6756,+91XXXXXXXXXX,,Mumbai,IN,Seller,Generated
74642bdc-06e1-4bd2-8b09-af706d68fd96,Owner 3511,+91XXXXXXXXXX,,London,IN,Seller,Generated
9a363994-2112-4479-9496-23b6d794dcd5,Owner 5991,+91XXXXXXXXXX,,New York,IN,Seller,Generated
563c9247-23d9-4582-bb5d-440fd01fdc6c,Owner 932,+91XXXXXXXXXX,,Mumbai,IN,Seller,Generated
595ad3cd-5779-40d9-a0a3-918e0d929ddd,Owner 8215,+91XXXXXXXXXX,,Mumbai,IN,Seller,Generated
257a3f17-89e9-4dcf-85ed-b60246f6279f,Owner 1714,+91XXXXXXXXXX,,Delhi,IN,Seller,Generated
fe987019-4f23-4f36-88a8-be3a07ddb806,Owner 4222,+91XXXXXXXXXX,,Mumbai,IN,Seller,Generated
c375e960-9987-4dc9-b8ba-67e2e97037b2,Owner 6179,+91XXXXXXXXXX,,London,IN,Seller,Generated
a2358577-2f80-48f4-872c-71e9a229d6e3,Owner 4572,+91XXXXXXXXXX,,Mumbai,IN,Seller,Generated
ea5d538b-a485-4a54-b3be-9720e95a20c8,Owner 2545,+91XXXXXXXXXX,,New York,IN,Seller,Generated
5eb2f866-5667-4527-8fa5-e897b3de1337,Owner 9562,+91XXXXXXXXXX,,London,IN,Seller,Generated
55fc1667-c971-42d0-9f06-2794da9a12ef,Owner 4032,+91XXXXXXXXXX,,London,IN,Seller,Generated
91818131-7b2b-4386-b744-06fe04e1c762,Owner 4076,+91XXXXXXXXXX,,Delhi,IN,Seller,Generated
f8c5e45b-37cf-4775-8f54-bc89c5b07da9,Owner 2670,+91XXXXXXXXXX,,London,IN,Seller,Generated
361608fa-cb3f-414e-a26c-b9200e33b239,Owner 400,+91XXXXXXXXXX,,London,IN,Seller,Generated
b017471c-a064-4150-beec-7883856b6639,Owner 4417,+91XXXXXXXXXX,,Mumbai,IN,Seller,Generated
15efcdcc-f8ac-4b87-b473-a071f4cd1e39,Owner 6536,+91XXXXXXXXXX,,New York,IN,Seller,Generated
d8be2e1f-8e58-4919-9a74-9adff53f9edb,Owner 4948,+91XXXXXXXXXX,,Mumbai,IN,Seller,Generated
0fa2838a-7235-4ce3-a2db-20537e20d86e,Owner 2227,+91XXXXXXXXXX,,Delhi,IN,Seller,Generated
22a6771a-2108-442d-acac-1541d63e3fcc,Owner 3275,+91XXXXXXXXXX,,Mumbai,IN,Seller,Generated
f99e2af1-8452-4e90-8ad1-ebc0d37f8c01,Owner 9446,+91XXXXXXXXXX,,Delhi,IN,Seller,Generated
0c3bf47e-bce6-4eda-9a84-071edd802096,Owner 9766,+91XXXXXXXXXX,,London,IN,Seller,Generated
90ef535f-7da3-4592-9c20-b7d0f33d4f4b,Owner 2352,+91XXXXXXXXXX,,New York,IN,Seller,Generated
81abce8b-3893-4634-85fc-d2d9a98301b3,Owner 7091,+91XXXXXXXXXX,,London,IN,Seller,Generated
c709bff7-8014-4688-b120-8f82cb9b58ea,Owner 2164,+91XXXXXXXXXX,,London,IN,Seller,Generated
77acdc01-446e-406d-ab35-5eed31fa0272,Owner 6401,+91XXXXXXXXXX,,New York,IN,Seller,Generated
91f28105-0e9a-407e-aab7-b51cc604198c,Owner 6629,+91XXXXXXXXXX,,Delhi,IN,Seller,Generated
548c9574-e2c6-432e-a5e0-6f7f37856d27,Owner 3897,+91XXXXXXXXXX,,London,IN,Seller,Generated
e66fc8d5-0321-45e0-bf58-9eb86fa68b25,Owner 385,+91XXXXXXXXXX,,Mumbai,IN,Seller,Generated
41329478-f4da-4811-823b-703c7009f789,Owner 3380,+91XXXXXXXXXX,,Delhi,IN,Seller,Generated
5edde4a9-f90c-40c5-a6db-f859767e8523,Owner 5825,+91XXXXXXXXXX,,Mumbai,IN,Seller,Generated
213c8562-4ac2-4499-8062-84dd436aa726,Owner 9147,+91XXXXXXXXXX,,London,IN,Seller,Generated
5010d880-9062-4f96-8d9a-04ff05160b98,Owner 3515,+91XXXXXXXXXX,,Mumbai,IN,Seller,Generated
b2d13406-c87f-4ccc-94f4-3803f4f81d2f,Owner 6940,+91XXXXXXXXXX,,Delhi,IN,Seller,Generated
8c8fbd7c-4c94-4c80-ac02-1076f9accf45,Owner 5600,+91XXXXXXXXXX,,Mumbai,IN,Seller,Generated
7ef09891-1a06-4e9c-92a2-6468e7595a06,Owner 7796,+91XXXXXXXXXX,,Delhi,IN,Seller,Generated
dec2ea6c-a561-4584-baee-3bbf54b7474d,Owner 205,+91XXXXXXXXXX,,New York,IN,Seller,Generated
3f0151fd-0fe1-4cc6-95b8-aa1ba3540775,Owner 4868,+91XXXXXXXXXX,,Mumbai,IN,Seller,Generated
e2fa5d7f-7c25-4374-b9d6-6f5a29770774,Owner 8368,+91XXXXXXXXXX,,Mumbai,IN,Seller,Generated
a2864601-14a3-4c58-bccb-affb8d95fbe1,Owner 9589,+91XXXXXXXXXX,,Mumbai,IN,Seller,Generated
4ea77205-7946-49fe-949f-9dff0bbbbd6e,Owner 3266,+91XXXXXXXXXX,,New York,IN,Seller,Generated
40ed1631-e457-4f11-8c98-66bb4036881d,Owner 2377,+91XXXXXXXXXX,,Mumbai,IN,Seller,Generated
8cf61e48-2425-4e86-9438-8275c36c0064,Owner 6549,+91XXXXXXXXXX,,Delhi,IN,Seller,Generated
da01132e-906e-4eff-9fc2-4db875fb78bf,Owner 4919,+91XXXXXXXXXX,,Mumbai,IN,Seller,Generated
4f6760f7-17e9-4a55-a7c4-2f195a7ccf4e,Owner 5969,+91XXXXXXXXXX,,Mumbai,IN,Seller,Generated
22374963-17de-4f53-a490-0d947041ea75,Owner 3938,+91XXXXXXXXXX,,Mumbai,IN,Seller,Generated
dcf2ff01-e30a-45fa-90b6-fe16af4f6035,Owner 5945,+91XXXXXXXXXX,,London,IN,Seller,Generated
527b402a-0c75-44ca-97b1-632f9cb57e2b,Owner 4279,+91XXXXXXXXXX,,London,IN,Seller,Generated
01abb173-f9a3-4499-8d59-53e8bfbadc8c,Owner 3836,+91XXXXXXXXXX,,Delhi,IN,Seller,Generated
d6c3e37a-dfcd-42b1-b44e-9429f70c7ebf,Owner 6300,+91XXXXXXXXXX,,Delhi,IN,Seller,Generated
76bf6ef0-2857-40ad-ac4f-a01ae7a27ca2,Owner 8775,+91XXXXXXXXXX,,Mumbai,IN,Seller,Generated
87dbe4f6-d451-432e-8c53-19fc887f4917,Owner 760,+91XXXXXXXXXX,,Mumbai,IN,Seller,Generated
37d90855-b68e-4b93-b30e-0ccb629f0ee6,Owner 2699,+91XXXXXXXXXX,,New York,IN,Seller,Generated
99f018a5-e2e8-45fa-a89b-d86f8350b38f,Owner 5362,+91XXXXXXXXXX,,New York,IN,Seller,Generated
4dcbdcea-6ea3-482f-8a38-0923f495e1d5,Owner 5341,+91XXXXXXXXXX,,New York,IN,Seller,Generated
cddf9a44-8297-4a7f-b525-e7b4f14ecc59,Owner 190,+91XXXXXXXXXX,,London,IN,Seller,Generated
7f6b7a0f-b8cf-44f8-8190-c9359d2e4d69,Owner 2496,+91XXXXXXXXXX,,Mumbai,IN,Seller,Generated
c8c063ff-74a5-43db-af6a-643187011678,Owner 421,+91XXXXXXXXXX,,Mumbai,IN,Seller,Generated
bbf8c545-6f6a-4287-9ce3-310e4e4c3815,Owner 2786,+91XXXXXXXXXX,,Delhi,IN,Seller,Generated
5c5d23b5-af17-4b43-b0a5-ef21a8ed9568,Owner 2689,+91XXXXXXXXXX,,Delhi,IN,Seller,Generated
7402078a-6d98-4004-b0b5-6579591a57d3,Owner 9880,+91XXXXXXXXXX,,Mumbai,IN,Seller,Generated
50dcaebe-8b50-42d3-9109-b4dc6efaff85,Owner 8404,+91XXXXXXXXXX,,New York,IN,Seller,Generated
9bdd20d1-9d6a-4242-a5c3-3bd71c003dc7,Owner 1635,+91XXXXXXXXXX,,Mumbai,IN,Seller,Generated
8d1231e2-7f98-4d43-9df7-01fa327915b2,Owner 6134,+91XXXXXXXXXX,,New York,IN,Seller,Generated
5d217fdd-f694-4d7d-baf8-6668a0acb3f6,Owner 1056,+91XXXXXXXXXX,,Mumbai,IN,Seller,Generated
3d61cbf4-2e27-4040-a45c-bb7593457e4b,Owner 1628,+91XXXXXXXXXX,,New York,IN,Seller,Generated
10f686ae-a2c1-4a3c-a25f-f50b64af2bcf,Owner 7261,+91XXXXXXXXXX,,Mumbai,IN,Seller,Generated
b419e828-515f-4c49-be0b-7b926935bc01,Owner 1896,+91XXXXXXXXXX,,New York,IN,Seller,Generated
12b221f2-2e8b-434c-be2d-799bfa2424ea,Owner 3143,+91XXXXXXXXXX,,Mumbai,IN,Seller,Generated
e7b99ae1-04b2-4370-8a8f-18feb6cb8f11,Owner 284,+91XXXXXXXXXX,,Delhi,IN,Seller,Generated
0bb29a63-fcc2-4bca-ba99-505c933f9cb7,Owner 1199,+91XXXXXXXXXX,,New York,IN,Seller,Generated
1007dec1-85ed-40af-8343-60d34b6392d7,Owner 3485,+91XXXXXXXXXX,,New York,IN,Seller,Generated
f223b5e4-dcd4-49ef-bb97-a8f6883f6b2b,Owner 6287,+91XXXXXXXXXX,,Mumbai,IN,Seller,Generated
7a43694c-ff56-4989-8761-b86a0462d01f,Owner 2239,+91XXXXXXXXXX,,Delhi,IN,Seller,Generated
8856d9c2-f909-4164-91c0-dba5d046aabe,Owner 6532,+91XXXXXXXXXX,,New York,IN,Seller,Generated
ff3bae01-c7fd-49bb-9c82-53edb2da1621,Owner 6898,+91XXXXXXXXXX,,Delhi,IN,Seller,Generated
3c4b5f13-eba8-4273-9261-d4429d1f1db5,Owner 4318,+91XXXXXXXXXX,,London,IN,Seller,Generated
5a61e67c-f8ed-44ad-afa3-0d05a689ee5f,Owner 8913,+91XXXXXXXXXX,,New York,IN,Seller,Generated
05e00b73-fcee-4753-9b29-90c0f38f35c2,Owner 185,+91XXXXXXXXXX,,Delhi,IN,Seller,Generated
5e910a94-5b92-4c66-92e9-8296664bef25,Owner 7625,+91XXXXXXXXXX,,New York,IN,Seller,Generated
609177aa-dcb8-408b-9492-ca299440de71,Owner 5515,+91XXXXXXXXXX,,Mumbai,IN,Seller,Generated
d55d78f7-06ac-4531-ac00-b86b3cd16d38,Owner 6511,+91XXXXXXXXXX,,Delhi,IN,Seller,Generated
e6c8d22f-8fa7-432f-b4f8-6c824e3c4576,Owner 5870,+91XXXXXXXXXX,,London,IN,Seller,Generated
2fc5f9ba-477b-4af1-bce6-c9d362550ea1,Owner 1179,+91XXXXXXXXXX,,Mumbai,IN,Seller,Generated
ba3a1f33-e1b9-4c24-84c4-5b6cbeb63794,Owner 374,+91XXXXXXXXXX,,London,IN,Seller,Generated
b9ead7db-4ea9-4536-9e91-b0fba03eb568,Owner 8509,+91XXXXXXXXXX,,London,IN,Seller,Generated
7fc88d96-5e19-4a12-bd5c-2bfa1a668b7e,Owner 6901,+91XXXXXXXXXX,,London,IN,Seller,Generated
d96136d4-abfb-4b2d-83a2-5444edce09fd,Owner 7331,+91XXXXXXXXXX,,London,IN,Seller,Generated
2aa341b9-c98d-472d-af93-0aa08279164f,Owner 3282,+91XXXXXXXXXX,,Mumbai,IN,Seller,Generated
3128b836-61aa-42a0-9f91-386e2f18d572,Owner 6161,+91XXXXXXXXXX,,London,IN,Seller,Generated
abc2ea77-18d9-4542-9cfc-ad22b3fbf0dc,Owner 8077,+91XXXXXXXXXX,,London,IN,Seller,Generated
b9d644ac-0a87-4012-adae-9027667b9414,Owner 9551,+91XXXXXXXXXX,,London,IN,Seller,Generated
ed0e28a3-4d86-42b9-bd65-3d9e25469c4e,Owner 4312,+91XXXXXXXXXX,,Delhi,IN,Seller,Generated
9188a062-4447-42a3-b247-2e53ffa0d897,Owner 6987,+91XXXXXXXXXX,,Mumbai,IN,Seller,Generated
46d2d506-9590-462b-a6be-7289262c3a1a,Owner 7820,+91XXXXXXXXXX,,New York,IN,Seller,Generated
bae11216-8aab-4442-96ac-ec54706d25ab,Owner 6319,+91XXXXXXXXXX,,Delhi,IN,Seller,Generated
1ceb5892-5e91-4052-a222-e239111448a6,Owner 8288,+91XXXXXXXXXX,,London,IN,Seller,Generated
92b57dd8-e5ab-435e-81e9-f108c32a4b7d,Owner 7873,+91XXXXXXXXXX,,Mumbai,IN,Seller,Generated
6011b344-a839-4a1f-819f-552bcd0431ce,Owner 8371,+91XXXXXXXXXX,,New York,IN,Seller,Generated
154823cc-907c-48ca-8c1d-3e29df0c399e,Owner 9719,+91XXXXXXXXXX,,New York,IN,Seller,Generated
1730d0b5-6d05-49bc-9f7d-ca515c1a63f5,Owner 2059,+91XXXXXXXXXX,,Delhi,IN,Seller,Generated
22e53395-d28a-42fb-adaa-a4740235a5d5,Owner 7671,+91XXXXXXXXXX,,Mumbai,IN,Seller,Generated
f7837ca5-3022-4122-a13f-597e0e34ca36,Owner 4170,+91XXXXXXXXXX,,New York,IN,Seller,Generated
dbc6f55c-d9a7-4e49-bfbb-40dd6c991786,Owner 3670,+91XXXXXXXXXX,,New York,IN,Seller,Generated
605fb08d-2b9d-462e-a0cd-b6760e788f09,Owner 322,+91XXXXXXXXXX,,New York,IN,Seller,Generated
d52bd643-d4b5-42ac-b4c1-7a373a4636c3,Owner 6639,+91XXXXXXXXXX,,Delhi,IN,Seller,Generated
4e99a17c-df9e-4194-b950-e2fe3eb7f137,Owner 18,+91XXXXXXXXXX,,Mumbai,IN,Seller,Generated
2497ee65-468e-4aa2-95be-dec9e55834a6,Owner 462,+91XXXXXXXXXX,,Delhi,IN,Seller,Generated
3617e64f-fde6-4eba-b279-3baed1cdef55,Owner 4373,+91XXXXXXXXXX,,Delhi,IN,Seller,Generated
07e7ec71-b1ce-4433-9a3d-271152616ee0,Owner 6986,+91XXXXXXXXXX,,Delhi,IN,Seller,Generated
66f654e3-3686-4301-ad5d-ee0997b30246,Owner 9295,+91XXXXXXXXXX,,New York,IN,Seller,Generated
65b2bb88-06dc-4a90-8eaf-c2566ef0c249,Owner 8399,+91XXXXXXXXXX,,Mumbai,IN,Seller,Generated
6af92161-e537-44cb-ba92-3543e925d912,Owner 1123,+91XXXXXXXXXX,,London,IN,Seller,Generated
f97da3da-38e9-45a2-837c-6defa99d1f87,Owner 2492,+91XXXXXXXXXX,,Delhi,IN,Seller,Generated
d896128c-6c67-4ebe-81e2-2065deb99bd7,Owner 3474,+91XXXXXXXXXX,,Mumbai,IN,Seller,Generated
928091ef-44be-46ab-82c2-522c6063d249,Owner 2831,+91XXXXXXXXXX,,Delhi,IN,Seller,Generated
a99beb13-12a3-4984-b851-1a3ac23429ab,Owner 375,+91XXXXXXXXXX,,London,IN,Seller,Generated
6a45a05a-9f3f-4e73-88fc-ca3ff4b63f89,Owner 3642,+91XXXXXXXXXX,,London,IN,Seller,Generated
2d1cc5ec-95f3-4f1f-9603-70ebf925b1d1,Owner 4038,+91XXXXXXXXXX,,London,IN,Seller,Generated
5a2ea94d-8de6-47f8-9fac-9f7f8eeb9e3d,Owner 4911,+91XXXXXXXXXX,,London,IN,Seller,Generated
9c1924ae-ce29-4a5f-a9a0-f8e26905a8a2,Owner 5128,+91XXXXXXXXXX,,New York,IN,Seller,Generated
6ba5fd3c-ba91-4b6a-ab87-90deaebf1fc7,Owner 8612,+91XXXXXXXXXX,,New York,IN,Seller,Generated
378cd907-d75a-40cd-adb8-03a97e80a03a,Owner 3357,+91XXXXXXXXXX,,Delhi,IN,Seller,Generated
383b71eb-a576-4fca-a16d-76255fb8195e,Owner 126,+91XXXXXXXXXX,,New York,IN,Seller,Generated
98336567-b077-43b4-b699-a75cf032fa71,Owner 9129,+91XXXXXXXXXX,,Mumbai,IN,Seller,Generated
c52b7bda-7bbe-4400-ba04-1d6e1f4e37ce,Owner 9480,+91XXXXXXXXXX,,New York,IN,Seller,Generated
85fe88ca-c0de-4e4d-9b2c-43e1e86c3234,Owner 2700,+91XXXXXXXXXX,,London,IN,Seller,Generated
f3d1e5ac-53c2-485a-b60b-eb06e03f9bef,Owner 6042,+91XXXXXXXXXX,,Delhi,IN,Seller,Generated
2471d704-6b11-4fc5-a8b7-e11900491441,Owner 3305,+91XXXXXXXXXX,,Delhi,IN,Seller,Generated
b0e290e1-93f6-4e42-b91c-40a2ee5c1068,Owner 7947,+91XXXXXXXXXX,,Mumbai,IN,Seller,Generated
a9f1abb6-7569-4bbe-aeff-a85ebf66cf62,Owner 1337,+91XXXXXXXXXX,,New York,IN,Seller,Generated
9d1282fb-c75b-446d-a97a-bb0558b83faa,Owner 5530,+91XXXXXXXXXX,,London,IN,Seller,Generated
29518477-1ecd-4ff8-bf01-6c204cf995b4,Owner 5760,+91XXXXXXXXXX,,London,IN,Seller,Generated
da855f85-6189-4e4c-a076-d1e572abd115,Owner 2396,+91XXXXXXXXXX,,London,IN,Seller,Generated
dd634c63-c3fa-4117-af77-acb16b0937c7,Owner 9937,+91XXXXXXXXXX,,Mumbai,IN,Seller,Generated
0c9a3a28-2994-493f-aad3-86b23cd029f1,Owner 6828,+91XXXXXXXXXX,,Delhi,IN,Seller,Generated
ed988f87-0f4b-4ccb-ad47-2e9aca7c4136,Owner 1455,+91XXXXXXXXXX,,Mumbai,IN,Seller,Generated
09b530c9-3b7d-428e-b88d-9aa238e9271e,Owner 6153,+91XXXXXXXXXX,,New York,IN,Seller,Generated
b65bcd0b-090b-42ac-a3c7-044c5158f904,Owner 9957,+91XXXXXXXXXX,,New York,IN,Seller,Generated
ddce891a-2655-490d-81fa-2a5a0479fc79,Owner 5624,+91XXXXXXXXXX,,Mumbai,IN,Seller,Generated
10de8922-1ad2-4514-bef7-416e48588162,Owner 7649,+91XXXXXXXXXX,,New York,IN,Seller,Generated
468c7869-be0f-498d-a99a-0830fe13e113,Owner 6767,+91XXXXXXXXXX,,Mumbai,IN,Seller,Generated
ac749bfd-c12c-4d7b-83ac-4694e62b1a32,Owner 9864,+91XXXXXXXXXX,,New York,IN,Seller,Generated
260e7dcf-c290-4691-a751-f6a66cad5562,Owner 8811,+91XXXXXXXXXX,,Delhi,IN,Seller,Generated
1b439f81-deb0-4e2f-91cc-a9cc9f69d9b5,Owner 7505,+91XXXXXXXXXX,,London,IN,Seller,Generated
6a176063-71f7-428b-83f3-b47b6d6e0974,Owner 9565,+91XXXXXXXXXX,,New York,IN,Seller,Generated
3c1d30b8-6b5c-4ec8-9550-c4741385b301,Owner 3107,+91XXXXXXXXXX,,Delhi,IN,Seller,Generated
9103c579-a000-4a1a-b0cf-4112f39786e1,Owner 2444,+91XXXXXXXXXX,,Mumbai,IN,Seller,Generated
ef574851-650e-4bf9-84c9-cc4193f293d0,Owner 555,+91XXXXXXXXXX,,New York,IN,Seller,Generated
a5aca638-666b-4b8e-a57b-2187ec18e076,Owner 6742,+91XXXXXXXXXX,,Mumbai,IN,Seller,Generated
a8cde810-a8da-40ef-819d-5b5ac5e1873d,Owner 8635,+91XXXXXXXXXX,,Delhi,IN,Seller,Generated
29f15ce6-07cd-4927-b90d-2f6826ecbd31,Owner 5472,+91XXXXXXXXXX,,London,IN,Seller,Generated
7f5eba54-0f78-49e8-b9ea-840e2276a2ba,Owner 2873,+91XXXXXXXXXX,,New York,IN,Seller,Generated
23384843-2605-421f-883d-9c21793179d9,Owner 718,+91XXXXXXXXXX,,Mumbai,IN,Seller,Generated
ab459585-9bd8-4e3f-b3f0-5ae4c4f74f0c,Owner 575,+91XXXXXXXXXX,,New York,IN,Seller,Generated
8c6e546d-3013-4824-b268-77665bf7c946,Owner 7012,+91XXXXXXXXXX,,London,IN,Seller,Generated
d43239f3-cf52-4201-babd-b36158f2f756,Owner 9113,+91XXXXXXXXXX,,New York,IN,Seller,Generated
a35313eb-27d8-4745-a65a-69fea99744c3,Owner 1103,+91XXXXXXXXXX,,Delhi,IN,Seller,Generated
192c34da-c69f-4a68-a734-29da7c432d24,Owner 4591,+91XXXXXXXXXX,,Delhi,IN,Seller,Generated
36e40d84-023b-4f6d-9d36-ce9fe08b9c06,Owner 7305,+91XXXXXXXXXX,,Mumbai,IN,Seller,Generated
dde7c281-c8e3-4c46-9feb-f42fe2c195b9,Owner 3917,+91XXXXXXXXXX,,London,IN,Seller,Generated
1174b7af-3403-4c2e-817c-12fa29d7f9c5,Owner 7507,+91XXXXXXXXXX,,Delhi,IN,Seller,Generated
008cbf2f-deb1-43e8-acdf-576893bfd8ca,Owner 2886,+91XXXXXXXXXX,,Delhi,IN,Seller,Generated
2430167c-1e80-43bd-8355-c563685babd3,Owner 2873,+91XXXXXXXXXX,,Delhi,IN,Seller,Generated
44eb876a-ed0c-4d05-8a8a-341880796431,Owner 5822,+91XXXXXXXXXX,,New York,IN,Seller,Generated
9fc1d4c1-519e-4b13-94e7-2cd0b62d7275,Owner 810,+91XXXXXXXXXX,,Delhi,IN,Seller,Generated
1fd3f396-8dbf-4c67-aadd-c66df434ae5d,Owner 9072,+91XXXXXXXXXX,,Mumbai,IN,Seller,Generated
896f2528-8790-48e6-9a48-656269a9ab09,Owner 4983,+91XXXXXXXXXX,,London,IN,Seller,Generated
384082a8-0679-46fe-962e-792ad66cd1a5,Owner 5364,+91XXXXXXXXXX,,Delhi,IN,Seller,Generated
01923b39-8fe0-4a2f-8178-71b7be88951a,Owner 9487,+91XXXXXXXXXX,,New York,IN,Seller,Generated
16a3167b-c91a-4c8a-a650-94bfedac387c,Owner 3364,+91XXXXXXXXXX,,Delhi,IN,Seller,Generated
d5ccc047-e200-4169-a57d-340442fc7540,Owner 5435,+91XXXXXXXXXX,,New York,IN,Seller,Generated
a9f42eeb-1e17-425d-bb3e-a9189b4c8d8a,Owner 4375,+91XXXXXXXXXX,,London,IN,Seller,Generated
65fae76c-7793-4d02-83f2-56dc93e052a8,Owner 3283,+91XXXXXXXXXX,,Delhi,IN,Seller,Generated
36a5e51a-5568-4b3c-a7d0-b5efeeb74a38,Owner 3519,+91XXXXXXXXXX,,London,IN,Seller,Generated
e07455af-93a7-46b5-9154-b5a62ef18027,Owner 9597,+91XXXXXXXXXX,,London,IN,Seller,Generated
54a35c11-91d9-49dc-bf05-959c527f9663,Owner 7432,+91XXXXXXXXXX,,London,IN,Seller,Generated
2a6d5d49-fa05-4a58-8ce5-30364758ab3e,Owner 4589,+91XXXXXXXXXX,,Mumbai,IN,Seller,Generated
b2e14aac-40f2-421e-b00b-383074f145c8,Owner 4829,+91XXXXXXXXXX,,London,IN,Seller,Generated
033ab256-96f3-43b9-8e57-ddc5503939c1,Owner 780,+91XXXXXXXXXX,,Mumbai,IN,Seller,Generated
cfe154d7-6955-445b-9611-2af4774ae25f,Owner 861,+91XXXXXXXXXX,,Mumbai,IN,Seller,Generated
e382c210-5485-4ecc-8443-5d75c56d43ee,Owner 5991,+91XXXXXXXXXX,,Mumbai,IN,Seller,Generated
0d51b876-fcd5-48ac-8284-1b2931dcd1a9,Owner 3755,+91XXXXXXXXXX,,Delhi,IN,Seller,Generated
610ccb91-8d26-4bcf-81b3-0b7ff13a3d71,Owner 1655,+91XXXXXXXXXX,,Delhi,IN,Seller,Generated
856d921c-9c9f-485f-8123-ca0e72f3bf54,Owner 3586,+91XXXXXXXXXX,,Mumbai,IN,Seller,Generated
09f7aa64-b67f-4cd5-8e85-91541c6fb342,Owner 3987,+91XXXXXXXXXX,,Delhi,IN,Seller,Generated
ffc04309-e8a7-4cfb-8761-4fa61e6af0e0,Owner 356,+91XXXXXXXXXX,,Delhi,IN,Seller,Generated
e99eb1a3-1dd6-4753-aaf6-5655d6f55922,Owner 9336,+91XXXXXXXXXX,,New York,IN,Seller,Generated
5742cc1a-ce20-41cc-8322-2c5e379f33c5,Owner 7705,+91XXXXXXXXXX,,London,IN,Seller,Generated
1fe33f39-8907-442a-a8c6-996f7cf9fdc2,Owner 6365,+91XXXXXXXXXX,,New York,IN,Seller,Generated
4ecb715a-d000-4cf6-aabd-f38c4182694f,Owner 2573,+91XXXXXXXXXX,,Mumbai,IN,Seller,Generated
2006b363-5b04-4692-b81f-224d22a4a264,Owner 1887,+91XXXXXXXXXX,,Mumbai,IN,Seller,Generated
a2095814-698f-4580-9327-564ec329ba0f,Owner 887,+91XXXXXXXXXX,,Delhi,IN,Seller,Generated
6643bc89-29ae-4a7b-b441-b3968fe995ee,Owner 7064,+91XXXXXXXXXX,,London,IN,Seller,Generated
2f6b7282-012e-44bd-b05c-779df5101f26,Owner 4765,+91XXXXXXXXXX,,Delhi,IN,Seller,Generated
3146c31f-d66f-49ce-8f2a-7684788afe86,Owner 1574,+91XXXXXXXXXX,,Mumbai,IN,Seller,Generated
70ebb7b6-d60c-47a6-9adb-71386e2b0402,Owner 8512,+91XXXXXXXXXX,,London,IN,Seller,Generated
de188fb0-1f6f-4c19-8dfb-e2e10934323e,Owner 4145,+91XXXXXXXXXX,,New York,IN,Seller,Generated
6c41372b-0d92-4e3d-b6b1-7a78fb6ea0da,Owner 5268,+91XXXXXXXXXX,,Delhi,IN,Seller,Generated
6a609fc7-b7eb-4a89-97c3-9abb3d821446,Owner 8759,+91XXXXXXXXXX,,New York,IN,Seller,Generated
14662000-41ec-4678-8e08-fbe207783534,Owner 997,+91XXXXXXXXXX,,London,IN,Seller,Generated
da47a5b0-8c9b-49d1-8e6c-aa3f1e603565,Owner 6845,+91XXXXXXXXXX,,New York,IN,Seller,Generated
aae0553d-be6b-43e2-a899-1787daebcd14,Owner 6448,+91XXXXXXXXXX,,New York,IN,Seller,Generated
06ebb9ca-4221-484c-b397-24ae5f35c8c6,Owner 6545,+91XXXXXXXXXX,,London,IN,Seller,Generated
fc5793bd-5003-4355-9190-fd3fdb35a4b2,Owner 2865,+91XXXXXXXXXX,,Delhi,IN,Seller,Generated
888d66d8-95dd-44ca-91ab-252dbbc7a6af,Owner 2832,+91XXXXXXXXXX,,Delhi,IN,Seller,Generated
6a54649c-ae31-49f8-91c9-9f393d281451,Owner 5106,+91XXXXXXXXXX,,London,IN,Seller,Generated
b633f54b-bf94-4b70-8f25-1d19c5e2cedf,Owner 5424,+91XXXXXXXXXX,,London,IN,Seller,Generated
49a893b5-9ba3-4695-8a29-a813d4797a15,Owner 9676,+91XXXXXXXXXX,,Mumbai,IN,Seller,Generated
39068bc8-dfe6-4e51-be62-6e893572fd07,Owner 2735,+91XXXXXXXXXX,,New York,IN,Seller,Generated
00a4c3a6-2dc4-45fa-9e69-ef41be0533aa,Owner 8345,+91XXXXXXXXXX,,London,IN,Seller,Generated
3fa9ad52-be7a-4bdd-b558-c4b5636154dc,Owner 6782,+91XXXXXXXXXX,,Delhi,IN,Seller,Generated
66df2ebc-f299-4551-be04-e6943af2cd67,Owner 5060,+91XXXXXXXXXX,,New York,IN,Seller,Generated
243790ea-33fb-4a2d-ace0-6daab67cb685,Owner 3350,+91XXXXXXXXXX,,London,IN,Seller,Generated
364843e5-e5cc-4184-bd61-c006cfa482e7,Owner 1217,+91XXXXXXXXXX,,Delhi,IN,Seller,Generated
beefcf4f-7b80-4173-9090-bdfdae3bf15c,Owner 7056,+91XXXXXXXXXX,,Delhi,IN,Seller,Generated
c140e6e8-498e-49ac-9899-07916121a677,Owner 3437,+91XXXXXXXXXX,,Mumbai,IN,Seller,Generated
ec6e9269-7eb2-4e90-a5de-bf8742900b44,Owner 8890,+91XXXXXXXXXX,,London,IN,Seller,Generated
251bcf0c-be55-4cbf-b179-28808c49545a,Owner 5179,+91XXXXXXXXXX,,New York,IN,Seller,Generated
1ab5190f-429c-479b-92d5-94f0298ec43b,Owner 4732,+91XXXXXXXXXX,,London,IN,Seller,Generated
f90105cc-ef5c-494f-ada5-4451c3375f83,Owner 1590,+91XXXXXXXXXX,,Delhi,IN,Seller,Generated
df5a3c0d-d1d5-4240-966c-929cf9bc3566,Owner 370,+91XXXXXXXXXX,,London,IN,Seller,Generated
90df10bd-d249-4b17-95f6-552a17aca0c3,Owner 4478,+91XXXXXXXXXX,,Delhi,IN,Seller,Generated
25f8553c-239c-4714-9c39-80715e98d7b0,Owner 1265,+91XXXXXXXXXX,,Mumbai,IN,Seller,Generated
5a25afae-7128-4e41-a837-90409eac1e6e,Owner 8885,+91XXXXXXXXXX,,London,IN,Seller,Generated
39dd9af1-f038-480b-b53d-17cede51bbc4,Owner 8740,+91XXXXXXXXXX,,Delhi,IN,Seller,Generated
c750940e-d507-4530-ae50-276b5d7a418a,Owner 8919,+91XXXXXXXXXX,,Delhi,IN,Seller,Generated
c64d22c4-1324-4774-9275-7983b2984a78,Owner 746,+91XXXXXXXXXX,,Mumbai,IN,Seller,Generated
03f7387e-d944-443b-8863-5c937cd9bf43,Owner 1594,+91XXXXXXXXXX,,Mumbai,IN,Seller,Generated
c4b27823-cfd2-4e53-b1c0-8e0050083425,Owner 4822,+91XXXXXXXXXX,,New York,IN,Seller,Generated
1ecbfcaf-79ab-433d-a11e-4b4444059aed,Owner 9580,+91XXXXXXXXXX,,Mumbai,IN,Seller,Generated
c4614b12-2304-44c2-8fd1-1651e4d1a244,Owner 1807,+91XXXXXXXXXX,,London,IN,Seller,Generated
fe9ed1c7-076b-4c30-9c81-bc77468594f5,Owner 8292,+91XXXXXXXXXX,,London,IN,Seller,Generated
61186efa-9c58-4562-82c9-eb01207c3059,Owner 9484,+91XXXXXXXXXX,,Delhi,IN,Seller,Generated
f64e0a12-da03-44bf-8a5f-6a32a2916f6b,Owner 3751,+91XXXXXXXXXX,,Delhi,IN,Seller,Generated
79eb65a5-33dd-4cc6-9b60-e890ac3e8904,Owner 1517,+91XXXXXXXXXX,,Delhi,IN,Seller,Generated
d6cee149-75bc-4667-890f-f580a344e197,Owner 957,+91XXXXXXXXXX,,London,IN,Seller,Generated
6e7c4c15-1f27-465d-968e-4e02a51ac85d,Owner 9647,+91XXXXXXXXXX,,Delhi,IN,Seller,Generated
27bb3c87-b2c1-41ea-830f-b875e14a2f8e,Owner 4564,+91XXXXXXXXXX,,Mumbai,IN,Seller,Generated
667bc084-629a-42d1-8e68-aad209c686bc,Owner 8622,+91XXXXXXXXXX,,Mumbai,IN,Seller,Generated
9521d09f-4abd-4bed-ae7c-b55811a5900f,Owner 4059,+91XXXXXXXXXX,,Mumbai,IN,Seller,Generated
9195b8b5-74f5-4bf5-b5d9-b65fa503b542,Owner 6975,+91XXXXXXXXXX,,London,IN,Seller,Generated
4de138d1-d7bf-4355-a660-a2b01166087c,Owner 6489,+91XXXXXXXXXX,,London,IN,Seller,Generated
a0eeff19-a29c-464b-a82a-580cfd121a63,Owner 2689,+91XXXXXXXXXX,,Mumbai,IN,Seller,Generated
6d0d1f24-2aa2-4d3e-808e-9cba6bd1f834,Owner 446,+91XXXXXXXXXX,,Delhi,IN,Seller,Generated
3f648a20-d7ff-4339-90a6-3103947c0710,Owner 1437,+91XXXXXXXXXX,,Mumbai,IN,Seller,Generated
1ef43e21-307f-4174-9344-0096da2f8749,Owner 1770,+91XXXXXXXXXX,,London,IN,Seller,Generated
7d27c2fb-9a47-4ce6-8fb3-60fa5a389532,Owner 7922,+91XXXXXXXXXX,,Mumbai,IN,Seller,Generated
74f0ba9b-c500-4daa-95be-b4108f0a0caa,Owner 947,+91XXXXXXXXXX,,Delhi,IN,Seller,Generated
64734fe8-e380-4202-8f71-16d33f723906,Owner 2819,+91XXXXXXXXXX,,London,IN,Seller,Generated
590c4e95-95dd-464d-9d6e-85fcb6cc36c6,Owner 817,+91XXXXXXXXXX,,Delhi,IN,Seller,Generated
6a463831-8977-4cc1-a764-9ae486977355,Owner 3666,+91XXXXXXXXXX,,Delhi,IN,Seller,Generated
bcc835bb-08fb-440b-9c1c-6b51962fe0f8,Owner 645,+91XXXXXXXXXX,,New York,IN,Seller,Generated
12737972-c191-463e-a8e9-5b9b653be675,Owner 1034,+91XXXXXXXXXX,,London,IN,Seller,Generated
97423657-d6a0-459c-b30e-bb172c91f115,Owner 1557,+91XXXXXXXXXX,,New York,IN,Seller,Generated
e4904c33-7c2c-4f3a-a4ac-d793462b0632,Owner 6221,+91XXXXXXXXXX,,Mumbai,IN,Seller,Generated
6b4bf966-a1f9-427d-911e-6eea7654447f,Owner 4924,+91XXXXXXXXXX,,Delhi,IN,Seller,Generated
