lead_id,name,phone,email,city,country,type,notes
19db2cad-822e-4cc9-af2c-582705708e82,Owner 2378,+91XXXXXXXXXX,,Delhi,IN,Seller,Generated
b69b6c93-5ab4-4de9-9fd1-02bcfc3bfc80,Owner 1410,+91XXXXXXXXXX,,Delhi,IN,Seller,Generated
ccc1d460-e55f-48e1-8df9-917b3d44a262,Owner 6380,+91XXXXXXXXXX,,New York,IN,Seller,Generated
05804cbe-84eb-46b1-be85-b55acb035751,Owner 1421,+91XXXXXXXXXX,,Delhi,IN,Seller,Generated
d8ab7056-98a1-4ede-b0d0-ec3d9cb82087,Owner 4513,+91XXXXXXXXXX,,London,IN,Seller,Generated
6e426f6d-58b6-41e0-90db-d10e58153a59,Owner 9579,+91XXXXXXXXXX,,London,IN,Seller,Generated
303db3db-10de-47de-93c1-7915fb685c3e,Owner 85,+91XXXXXXXXXX,,London,IN,Seller,Generated
6061fb44-2bf9-4bfb-b791-c25c008dd4f1,Owner 4340,+91XXXXXXXXXX,,Delhi,IN,Seller,Generated
0070165e-7c4e-49d3-bc6b-2c01c980d2a9,Owner 7249,+91XXXXXXXXXX,,London,IN,Seller,Generated
b17b00bc-d555-43ad-9cb5-0c8fecb8008c,Owner 5606,+91XXXXXXXXXX,,New York,IN,Seller,Generated
8cedbde9-7308-4d70-99ae-f5741acec60f,Owner 3826,+91XXXXXXXXXX,,New York,IN,Seller,Generated
ef1a40f1-9441-46e4-844d-98f243411491,Owner 829,+91XXXXXXXXXX,,London,IN,Seller,Generated
0b366ae6-eec6-428a-8949-1f844452f3c7,Owner 6277,+91XXXXXXXXXX,,London,IN,Seller,Generated
884407d3-f4db-47dd-8f32-20a33e0d294e,Owner 7886,+91XXXXXXXXXX,,New York,IN,Seller,Generated
cce04ae9-465d-41ca-a1ca-93cc85b526e4,Owner 4865,+91XXXXXXXXXX,,London,IN,Seller,Generated
f7c8dadd-f2e7-4b85-8383-074cdb3a5ecc,Owner 9103,+91XXXXXXXXXX,,New York,IN,Seller,Generated
ec48e618-7cf3-4461-b161-0a960a174991,Owner 2731,+91XXXXXXXXXX,,Delhi,IN,Seller,Generated
a135235f-3d08-4665-bbed-5572215966e7,Owner 8026,+91XXXXXXXXXX,,Delhi,IN,Seller,Generated
95c9b4c9-2017-4107-bb4a-1038bc77442f,Owner 7471,+91XXXXXXXXXX,,Mumbai,IN,Seller,Generated
cd7ed908-6959-494b-83ce-8c8cf06c8b66,Owner 9990,+91XXXXXXXXXX,,Mumbai,IN,Seller,Generated
86e2aa16-cd7c-4135-ae5a-123055356412,Owner 5890,+91XXXXXXXXXX,,Delhi,IN,Seller,Generated
feba60b4-9a39-44a3-9aac-0f449e728ef3,Owner 5481,+91XXXXXXXXXX,,London,IN,Seller,Generated
39d084bb-8eed-4c15-b941-abf6ff1b31a7,Owner 4070,+91XXXXXXXXXX,,New York,IN,Seller,Generated
4d491326-974c-4a32-9a4a-88dcae6b37f3,Owner 4963,+91XXXXXXXXXX,,London,IN,Seller,Generated
e48aeb6e-a0a8-438b-b811-7ef69eb6e456,Owner 4601,+91XXXXXXXXXX,,New York,IN,Seller,Generated
f1165efc-a397-4dc3-adec-7ead57d59e1d,Owner 2561,+91XXXXXXXXXX,,London,IN,Seller,Generated
2093874f-d9c8-47f4-ab8c-9f8d129ce036,Owner 7960,+91XXXXXXXXXX,,London,IN,Seller,Generated
ef693550-8b9d-4796-a1c3-d1590b140de8,Owner 4845,+91XXXXXXXXXX,,New York,IN,Seller,Generated
eb4c78f8-82e1-4756-8e3d-498f6dd892b4,Owner 3140,+91XXXXXXXXXX,,New York,IN,Seller,Generated
02b8e1cf-1675-4ff0-891c-db990220d3f3,Owner 893,+91XXXXXXXXXX,,Mumbai,IN,Seller,Generated
aa301b44-395c-44b9-996c-769ed5084436,Owner 8001,+91XXXXXXXXXX,,London,IN,Seller,Generated
8e8cdce3-a45e-44d3-bce4-6f2436a55ba4,Owner 3629,+91XXXXXXXXXX,,New York,IN,Seller,Generated
9cf8a8d5-1c3f-45b4-923a-ef3f34721fdc,Owner 5827,+91XXXXXXXXXX,,Delhi,IN,Seller,Generated
c6695d9a-66e4-42ee-9604-3d7fd989abc2,Owner 1246,+91XXXXXXXXXX,,New York,IN,Seller,Generated
e8131382-10b9-4cec-b27e-5d7064f16592,Owner 3932,+91XXXXXXXXXX,,London,IN,Seller,Generated
bc823c0e-94e7-4f94-ab27-f310613fafe9,Owner 9248,+91XXXXXXXXXX,,Delhi,IN,Seller,Generated
59193e80-a826-4c26-a8a0-0f6701bd6258,Owner 7378,+91XXXXXXXXXX,,Delhi,IN,Seller,Generated
f786fa42-9050-4628-ad85-5e7799bec404,Owner 5913,+91XXXXXXXXXX,,Delhi,IN,Seller,Generated
7c6d6cfb-8bda-4333-96b4-f213a5eb36ac,Owner 71,+91XXXXXXXXXX,,London,IN,Seller,Generated
4633d3cc-875d-4513-bfed-e0d652e46bfa,Owner 9688,+91XXXXXXXXXX,,London,IN,Seller,Generated
ed995963-9136-426a-af61-07a72a4ab6b3,Owner 2602,+91XXXXXXXXXX,,Delhi,IN,Seller,Generated
ed3b5658-01cd-4e99-9df3-1653d76e543a,Owner 9722,+91XXXXXXXXXX,,New York,IN,Seller,Generated
fdcd56ef-ae3c-44aa-bed2-7732a84510be,Owner 583,+91XXXXXXXXXX,,London,IN,Seller,Generated
00d2a080-9dee-44fa-96f7-34577ddded41,Owner 6072,+91XXXXXXXXXX,,London,IN,Seller,Generated
25003e07-8db7-45ce-b1b9-85cc3cabc124,Owner 5389,+91XXXXXXXXXX,,Delhi,IN,Seller,Generated
8bbe0849-1f4f-4e1d-bb08-225587c9fe13,Owner 8034,+91XXXXXXXXXX,,Mumbai,IN,Seller,Generated
23ed5ea5-be01-4f22-b32b-9640fcc33be7,Owner 4919,+91XXXXXXXXXX,,Mumbai,IN,Seller,Generated
c62ac827-f236-48a7-80a3-c25975f962c2,Owner 9558,+91XXXXXXXXXX,,Delhi,IN,Seller,Generated
a30712d9-6768-48d6-b91f-ac54951282fb,Owner 671,+91XXXXXXXXXX,,London,IN,Seller,Generated
d6135710-0d6c-483c-a4c5-fe9e47af817c,Owner 3749,+91XXXXXXXXXX,,Delhi,IN,Seller,Generated
eb613726-70c8-417b-aaf2-957a874e2b5d,Owner 7853,+91XXXXXXXXXX,,New York,IN,Seller,Generated
4f9fcbb7-df73-4509-833e-395c39d74b7a,Owner 7510,+91XXXXXXXXXX,,London,IN,Seller,Generated
0ca70e4c-359a-46b5-8fd7-19f858ddceef,Owner 1227,+91XXXXXXXXXX,,New York,IN,Seller,Generated
8a04b45c-9b3f-407c-b17f-d5e0f4e8da5c,Owner 6293,+91XXXXXXXXXX,,Delhi,IN,Seller,Generated
94de59a3-7ecc-414b-abac-b5b1d792f646,Owner 7110,+91XXXXXXXXXX,,London,IN,Seller,Generated
9f1d6929-2b25-4012-87b6-9398cfaecab7,Owner 7944,+91XXXXXXXXXX,,Mumbai,IN,Seller,Generated
c67ea84c-88ef-4fd1-a213-731f461790bb,Owner 3362,+91XXXXXXXXXX,,New York,IN,Seller,Generated
ed6b6547-6619-4cd9-8e20-409b6c32af28,Owner 3311,+91XXXXXXXXXX,,Delhi,IN,Seller,Generated
1f62ef77-b5f1-4267-8b71-5fe82423a31a,Owner 6337,+91XXXXXXXXXX,,London,IN,Seller,Generated
c8769f68-cd0e-454c-bbaf-8640aa296df0,Owner 1890,+91XXXXXXXXXX,,New York,IN,Seller,Generated
7ece42d5-c177-4fc5-a3de-074afc7c1a58,Owner 9523,+91XXXXXXXXXX,,London,IN,Seller,Generated
df06b073-c87f-4968-8295-19bae8ee154c,Owner 8572,+91XXXXXXXXXX,,Mumbai,IN,Seller,Generated
1181ba24-c945-425b-9856-b40ac4f54d03,Owner 1560,+91XXXXXXXXXX,,Delhi,IN,Seller,Generated
0fba2490-f6d6-4e34-b8c3-2bbc33307623,Owner 8966,+91XXXXXXXXXX,,Delhi,IN,Seller,Generated
e5c0a286-2973-4863-95ff-92b7eff33055,Owner 915,+91XXXXXXXXXX,,New York,IN,Seller,Generated
e9cc6414-9c28-41c8-a0f2-6199b21c00fa,Owner 9650,+91XXXXXXXXXX,,London,IN,Seller,Generated
0bdb5c8a-4cb8-4517-81b2-1bd8a1070a5c,Owner 8820,+91XXXXXXXXXX,,Delhi,IN,Seller,Generated
ededdede-47f5-4e92-ab7b-62d1f139a975,Owner 4364,+91XXXXXXXXXX,,New York,IN,Seller,Generated
c890b9cc-9d23-422d-9471-e0964ee742fc,Owner 5591,+91XXXXXXXXXX,,Delhi,IN,Seller,Generated
e27d5ec4-69bd-42ef-bd5d-7a3887798238,Owner 5088,+91XXXXXXXXXX,,Mumbai,IN,Seller,Generated
09093020-488e-4cbf-8571-63e876f306f3,Owner 3842,+91XXXXXXXXXX,,New York,IN,Seller,Generated
acc15b50-ef6a-48b4-915a-9fc05a5b8bd7,Owner 8576,+91XXXXXXXXXX,,New York,IN,Seller,Generated
49ced52a-57ea-4e0d-b1bc-9437001bdb9a,Owner 2038,+91XXXXXXXXXX,,Mumbai,IN,Seller,Generated
12d8072b-a526-4f99-aabe-e8d290e1c5f2,Owner 2016,+91XXXXXXXXXX,,Mumbai,IN,Seller,Generated
5fa797b2-4a16-46c7-9d89-ba390aa13d3a,Owner 5706,+91XXXXXXXXXX,,Delhi,IN,Seller,Generated
0c93ad6d-c3b7-4d74-8270-f51ea9f360d9,Owner 5028,+91XXXXXXXXXX,,Mumbai,IN,Seller,Generated
a6925330-967e-4ca4-9b3c-837b4962c021,Owner 4231,+91XXXXXXXXXX,,Mumbai,IN,Seller,Generated
a42d7c9b-13a2-48b0-a7d4-cee1775abcb2,Owner 873,+91XXXXXXXXXX,,London,IN,Seller,Generated
934affa2-549f-4022-ba3d-bad4091f3d33,Owner 7708,+91XXXXXXXXXX,,Delhi,IN,Seller,Generated
390b4b8a-125e-49a1-8b36-93d9a3824ee7,Owner 350,+91XXXXXXXXXX,,Delhi,IN,Seller,Generated
208d07e5-5f5f-4983-b3f5-11d05f32e28e,Owner 265,+91XXXXXXXXXX,,New York,IN,Seller,Generated
b9c5fb19-9f7a-455b-a91e-b3058c3764d8,Owner 5468,+91XXXXXXXXXX,,Mumbai,IN,Seller,Generated
1cce1ad7-da70-4b38-aad1-2aa608b1c09f,Owner 2283,+91XXXXXXXXXX,,New York,IN,Seller,Generated
d49e2621-4c2a-4595-9a8a-a45fb25be00d,Owner 7838,+91XXXXXXXXXX,,London,IN,Seller,Generated
a4cca8fa-0a54-40a1-be46-1b2f25127100,Owner 5050,+91XXXXXXXXXX,,Delhi,IN,Seller,Generated
94e7f2a5-9562-4ab4-95d5-6e2daa542bfb,Owner 6298,+91XXXXXXXXXX,,London,IN,Seller,Generated
f27bb93c-6f89-424a-8fb4-3df661a08bc7,Owner 8795,+91XXXXXXXXXX,,New York,IN,Seller,Generated
36deeeb4-3c98-4a0a-88aa-d33f7b4feac8,Owner 681,+91XXXXXXXXXX,,New York,IN,Seller,Generated
23efe48b-30ce-4c28-a1fc-d40986cd1d3f,Owner 9565,+91XXXXXXXXXX,,New York,IN,Seller,Generated
2b0bfdff-04b8-4dd0-bf81-8ae4101a56b6,Owner 5059,+91XXXXXXXXXX,,London,IN,Seller,Generated
f8d88ef3-e6dd-4157-a5c3-a5e1da9bdb78,Owner 6639,+91XXXXXXXXXX,,London,IN,Seller,Generated
ee961181-b3c9-4e6e-a773-c65ad00b6c18,Owner 3579,+91XXXXXXXXXX,,Delhi,IN,Seller,Generated
ef69dc30-177a-4349-be37-985f3fe8a11b,Owner 1973,+91XXXXXXXXXX,,London,IN,Seller,Generated
a6ccac07-0f66-450e-ac4c-254fe7a5163b,Owner 5890,+91XXXXXXXXXX,,Delhi,IN,Seller,Generated
aa12f98a-b49e-4631-b445-72e8ee512533,Owner 4565,+91XXXXXXXXXX,,New York,IN,Seller,Generated
92a3c74e-1f48-40f7-a7cd-4cb20352e38d,Owner 6626,+91XXXXXXXXXX,,Mumbai,IN,Seller,Generated
95233a87-4264-4fe0-94fc-023fd20a8602,Owner 7659,+91XXXXXXXXXX,,Delhi,IN,Seller,Generated
1491cf67-9a39-495f-ad45-cf4759c56298,Owner 4471,+91XXXXXXXXXX,,Mumbai,IN,Seller,Generated
67d23584-b3f6-4577-8c91-fe08c4aca0db,Owner 1851,+91XXXXXXXXXX,,London,IN,Seller,Generated
d1c4d73f-1f79-4745-9ab1-7fc679d2fa7f,Owner 7521,+91XXXXXXXXXX,,New York,IN,Seller,Generated
0aae1139-ee6a-4bad-a7f7-4e014e9f77a5,Owner 7185,+91XXXXXXXXXX,,New York,IN,Seller,Generated
cf5897ce-dd4b-43c6-b346-5e0fe06405d9,Owner 2781,+91XXXXXXXXXX,,Delhi,IN,Seller,Generated
fe210db5-3d81-4fab-8985-c42373a51a50,Owner 8291,+91XXXXXXXXXX,,London,IN,Seller,Generated
0bf75ff6-8df5-415a-a08d-7157bf4b3605,Owner 1140,+91XXXXXXXXXX,,Mumbai,IN,Seller,Generated
4870cc0f-241d-4b23-a420-4cbd00fad80e,Owner 7027,+91XXXXXXXXXX,,Delhi,IN,Seller,Generated
83db60b7-7ebc-4da7-b6b0-907fc00f2acc,Owner 9139,+91XXXXXXXXXX,,London,IN,Seller,Generated
29f8e5cb-18ae-4f4e-98bf-cacd1c525516,Owner 4248,+91XXXXXXXXXX,,New York,IN,Seller,Generated
09db3c8a-1ce0-4483-9c29-cf08b4ff9b4e,Owner 8125,+91XXXXXXXXXX,,Mumbai,IN,Seller,Generated
f508d2e6-662d-43bc-b9b9-3552e412f544,Owner 1728,+91XXXXXXXXXX,,Delhi,IN,Seller,Generated
22132ae2-1b12-4fcd-83ab-f03aec0ef6ca,Owner 4462,+91XXXXXXXXXX,,Mumbai,IN,Seller,Generated
d1e53c5d-8fb1-412b-9b55-8ece9c827c4e,Owner 4961,+91XXXXXXXXXX,,Mumbai,IN,Seller,Generated
a1813440-1fab-4480-859b-5994ff26566a,Owner 6658,+91XXXXXXXXXX,,Mumbai,IN,Seller,Generated
d1de2fc9-d571-4515-9a63-b91e0af48ad6,Owner 4460,+91XXXXXXXXXX,,Delhi,IN,Seller,Generated
0512e79f-1b55-4ba3-a217-7c17e82b2fa6,Owner 2925,+91XXXXXXXXXX,,Delhi,IN,Seller,Generated
34ee997e-eca8-4fcc-a694-1a510c87bc06,Owner 3913,+91XXXXXXXXXX,,New York,IN,Seller,Generated
b6131e50-f281-4525-86bf-86b89b078ea6,Owner 7139,+91XXXXXXXXXX,,London,IN,Seller,Generated
5c62e6ab-72a2-49ee-9475-7ba5b3eed4b6,Owner 8754,+91XXXXXXXXXX,,Mumbai,IN,Seller,Generated
d2cb5cbc-3c92-472d-8808-3a7b324d45c8,Owner 1812,+91XXXXXXXXXX,,New York,IN,Seller,Generated
a6a0056a-8e0a-4987-ab44-498e1f06ebf0,Owner 2198,+91XXXXXXXXXX,,Mumbai,IN,Seller,Generated
5d7ad18a-60fa-4efa-8448-033205f3a00e,Owner 9993,+91XXXXXXXXXX,,London,IN,Seller,Generated
0b474a76-e35e-4f1b-b22e-eb09a3fd6b57,Owner 4775,+91XXXXXXXXXX,,New York,IN,Seller,Generated
02350bb4-69e8-4a1f-a04b-5a6f74e17268,Owner 3793,+91XXXXXXXXXX,,Mumbai,IN,Seller,Generated
a2af0fda-fc84-49d3-b0f7-6e855334caf9,Owner 2242,+91XXXXXXXXXX,,Delhi,IN,Seller,Generated
19f91dfc-997b-48ad-9609-c810e831920f,Owner 5414,+91XXXXXXXXXX,,Mumbai,IN,Seller,Generated
32a9b3a2-9037-47f4-b8b1-f34bbe23087c,Owner 1508,+91XXXXXXXXXX,,London,IN,Seller,Generated
1aaa8a94-5769-4a2f-9056-fc3da5e1e3f7,Owner 9890,+91XXXXXXXXXX,,New York,IN,Seller,Generated
9ae09664-85b2-4b40-af73-24415f5eb95a,Owner 4641,+91XXXXXXXXXX,,London,IN,Seller,Generated
717f2c3d-16f6-46d2-ad82-14b87d9ba06a,Owner 1446,+91XXXXXXXXXX,,Mumbai,IN,Seller,Generated
403aea00-31cb-4d18-bdb4-97f829f708da,Owner 4518,+91XXXXXXXXXX,,New York,IN,Seller,Generated
f2e4d632-337e-4d0d-9456-c3e5d518d0e9,Owner 8806,+91XXXXXXXXXX,,Delhi,IN,Seller,Generated
433918a6-9b00-4488-b1dd-463494dbd6eb,Owner 3152,+91XXXXXXXXXX,,Delhi,IN,Seller,Generated
de2f9555-5802-42a6-a336-baff2c361910,Owner 4429,+91XXXXXXXXXX,,London,IN,Seller,Generated
ccc01b8a-2592-438f-9542-bb0f81aeeed1,Owner 4177,+91XXXXXXXXXX,,Mumbai,IN,Seller,Generated
292b25fa-44cb-43ca-bf63-4c88fabf84f5,Owner 5688,+91XXXXXXXXXX,,Mumbai,IN,Seller,Generated
6e41a8d5-ee96-4185-93eb-1c24ed1afa37,Owner 4094,+91XXXXXXXXXX,,London,IN,Seller,Generated
d2e493f5-6113-489e-8300-4e55bcd7c8ff,Owner 4091,+91XXXXXXXXXX,,Mumbai,IN,Seller,Generated
5b4663be-dbe7-45bc-b4bb-bddbe38fd758,Owner 6739,+91XXXXXXXXXX,,New York,IN,Seller,Generated
5bc7732e-15ef-4a40-b138-ab18614b7652,Owner 7982,+91XXXXXXXXXX,,New York,IN,Seller,Generated
a94fb1de-1fff-43b5-b01d-7440da422312,Owner 3056,+91XXXXXXXXXX,,New York,IN,Seller,Generated
939ed518-e9a6-4b46-a99e-1b58b2902659,Owner 1819,+91XXXXXXXXXX,,Delhi,IN,Seller,Generated
3d6b518b-2354-46a5-9f1b-c8d6d71d23ca,Owner 9301,+91XXXXXXXXXX,,New York,IN,Seller,Generated
53794eba-92b7-46f3-ac57-37c5e3d60c6e,Owner 1476,+91XXXXXXXXXX,,Delhi,IN,Seller,Generated
c8dc52e5-bf95-4e35-94ed-a029d41deee1,Owner 8001,+91XXXXXXXXXX,,London,IN,Seller,Generated
0daf48b5-9908-43ae-8299-7ae9d7079982,Owner 6672,+91XXXXXXXXXX,,Mumbai,IN,Seller,Generated
7e9bea67-a637-46dd-9d0c-797d77570a21,Owner 8430,+91XXXXXXXXXX,,Delhi,IN,Seller,Generated
95008cdb-612f-4a46-91c3-e394672fb87b,Owner 328,+91XXXXXXXXXX,,New York,IN,Seller,Generated
6414a091-7a26-42b2-b93d-23b912751ac0,Owner 9210,+91XXXXXXXXXX,,New York,IN,Seller,Generated
d02532f5-8366-482d-b011-80b3954b7abf,Owner 2065,+91XXXXXXXXXX,,New York,IN,Seller,Generated
bd5d955c-440c-421b-9058-363588eebace,Owner 5859,+91XXXXXXXXXX,,Mumbai,IN,Seller,Generated
f0c2a955-00a0-49ad-a619-06f127f5def7,Owner 8049,+91XXXXXXXXXX,,New York,IN,Seller,Generated
6eadf5fa-6b2c-447c-a15f-03d22028652c,Owner 5983,+91XXXXXXXXXX,,New York,IN,Seller,Generated
2349112b-0b64-44a0-920a-8f8e19a0a070,Owner 8032,+91XXXXXXXXXX,,New York,IN,Seller,Generated
898dd258-78e6-409e-ae7a-69d6ef0989c5,Owner 6930,+91XXXXXXXXXX,,London,IN,Seller,Generated
56bd26e6-5eac-424f-90dd-18148c44afed,Owner 982,+91XXXXXXXXXX,,London,IN,Seller,Generated
8ad680de-ba5d-4530-bcf1-570b4dadb2f3,Owner 5119,+91XXXXXXXXXX,,New York,IN,Seller,Generated
9473173f-79b1-4690-ab74-e1441648100e,Owner 9314,+91XXXXXXXXXX,,New York,IN,Seller,Generated
d6905e82-cc1b-461b-861c-50d5ce5eda1b,Owner 2724,+91XXXXXXXXXX,,London,IN,Seller,Generated
2411b5d8-2525-400c-a073-a7cf22c0bb0d,Owner 6837,+91XXXXXXXXXX,,Mumbai,IN,Seller,Generated
92e496d7-5756-45ee-963b-61975b4ceaa3,Owner 368,+91XXXXXXXXXX,,London,IN,Seller,Generated
9b99b37d-6439-4d8b-9592-94bb9b39b096,Owner 2928,+91XXXXXXXXXX,,Mumbai,IN,Seller,Generated
677d37ca-85c9-456d-ad99-27e83302ba76,Owner 2200,+91XXXXXXXXXX,,Delhi,IN,Seller,Generated
93be4d36-a36b-474b-9228-9efc0066328d,Owner 8330,+91XXXXXXXXXX,,New York,IN,Seller,Generated
3805abb0-07fc-4a66-a0e5-01a16617a8e7,Owner 7695,+91XXXXXXXXXX,,Mumbai,IN,Seller,Generated
47ac6666-0e3d-46cf-b2f4-5fe6f36bc225,Owner 3861,+91XXXXXXXXXX,,Delhi,IN,Seller,Generated
80e38795-bbb2-45f0-b7cd-70055d5d5598,Owner 7461,+91XXXXXXXXXX,,London,IN,Seller,Generated
3b261c50-375a-43b5-a016-c6d3cb475dbc,Owner 1435,+91XXXXXXXXXX,,London,IN,Seller,Generated
d5d4d71a-4fdf-4ab7-854d-21cc330bc6b8,Owner 7707,+91XXXXXXXXXX,,New York,IN,Seller,Generated
c942cf53-afca-4874-93c6-c02c5f7fd67b,Owner 5029,+91XXXXXXXXXX,,Mumbai,IN,Seller,Generated
c59ccaf2-6cb4-4a8d-a2fd-593f184d8fcf,Owner 2653,+91XXXXXXXXXX,,New York,IN,Seller,Generated
35156c34-0878-4b79-89a7-39b44d5ed5f0,Owner 820,+91XXXXXXXXXX,,New York,IN,Seller,Generated
58a772df-b7f1-491f-bb06-5ac12422aa12,Owner 824,+91XXXXXXXXXX,,London,IN,Seller,Generated
94aba3be-0fbf-402f-97f7-659177a66c4f,Owner 8259,+91XXXXXXXXXX,,Mumbai,IN,Seller,Generated
ab22b257-6a86-4481-9237-73dfc79a5c84,Owner 5548,+91XXXXXXXXXX,,London,IN,Seller,Generated
ea487100-148e-4757-b909-da87e1d1168d,Owner 6856,+91XXXXXXXXXX,,New York,IN,Seller,Generated
3c1644fc-fa43-4d5d-915f-109b0aa2d29b,Owner 7279,+91XXXXXXXXXX,,Delhi,IN,Seller,Generated
a97c99ca-ba25-4f31-ad8c-679bb0597b5b,Owner 2665,+91XXXXXXXXXX,,Delhi,IN,Seller,Generated
254bc860-ef91-4fb3-8b9e-d447425cf637,Owner 1594,+91XXXXXXXXXX,,Mumbai,IN,Seller,Generated
33f6fe3d-202c-492c-b39d-8d6edb2fd8ae,Owner 2214,+91XXXXXXXXXX,,New York,IN,Seller,Generated
97fde842-057d-4984-830d-ae3c71f83ac7,Owner 6210,+91XXXXXXXXXX,,New York,IN,Seller,Generated
cf33449f-dfeb-44ce-a4c2-a9631d528fe6,Owner 8862,+91XXXXXXXXXX,,Delhi,IN,Seller,Generated
8c4de99b-9b05-4825-b533-504aa5a8dd0a,Owner 7873,+91XXXXXXXXXX,,New York,IN,Seller,Generated
95a06af1-a644-4796-85ad-f0f1bc135366,Owner 9998,+91XXXXXXXXXX,,Mumbai,IN,Seller,Generated
e4fd9ceb-50aa-4c72-b754-3b387b9bb5af,Owner 4383,+91XXXXXXXXXX,,Delhi,IN,Seller,Generated
7797ebb9-a62f-4fdd-b81d-5c4d19c3a599,Owner 6951,+91XXXXXXXXXX,,Delhi,IN,Seller,Generated
7e7c632d-8448-4cbb-8f22-716190c476c4,Owner 9031,+91XXXXXXXXXX,,Delhi,IN,Seller,Generated
dd672e2d-2ccd-4177-8561-2fd7e0a343ca,Owner 7863,+91XXXXXXXXXX,,London,IN,Seller,Generated
6503ef14-da11-4f79-872c-2b15f17b880b,Owner 4261,+91XXXXXXXXXX,,Delhi,IN,Seller,Generated
5807d862-e5fa-4af7-aab5-4685ec5ac069,Owner 6236,+91XXXXXXXXXX,,London,IN,Seller,Generated
118f98f3-bce4-4040-b7a2-6d96bdb56155,Owner 8091,+91XXXXXXXXXX,,New York,IN,Seller,Generated
7b915b6a-74fd-4b97-a66c-f959120a887c,Owner 7241,+91XXXXXXXXXX,,Mumbai,IN,Seller,Generated
de39b5c5-0562-4eb9-809c-d24719deebf8,Owner 333,+91XXXXXXXXXX,,Mumbai,IN,Seller,Generated
5e812067-8a2c-43be-b923-cd6bda508bc2,Owner 5538,+91XXXXXXXXXX,,New York,IN,Seller,Generated
3d34c1f2-4d91-42e9-bdfa-22c4eaae3a33,Owner 3437,+91XXXXXXXXXX,,New York,IN,Seller,Generated
66b0dffe-d353-414d-a752-f6c980d99836,Owner 2617,+91XXXXXXXXXX,,New York,IN,Seller,Generated
6be08cfd-40ae-4873-8a9b-53b59b8f0467,Owner 70,+91XXXXXXXXXX,,Mumbai,IN,Seller,Generated
ccd5b49b-0d0e-4e4a-b4a9-0f607079feee,Owner 7324,+91XXXXXXXXXX,,Delhi,IN,Seller,Generated
07888a99-0fce-4fb0-90ca-e6dec9f19600,Owner 8057,+91XXXXXXXXXX,,Delhi,IN,Seller,Generated
bef69abe-57a9-41c2-9a71-23b3c20981db,Owner 9681,+91XXXXXXXXXX,,Delhi,IN,Seller,Generated
40ae1866-e78b-4664-b09f-30c4c84048b9,Owner 9838,+91XXXXXXXXXX,,London,IN,Seller,Generated
b8c53ce2-dbc4-44d6-bee2-ffb79eb3b49b,Owner 7944,+91XXXXXXXXXX,,London,IN,Seller,Generated
83048363-ccbc-40af-a5ca-e3fefb0c93cb,Owner 8751,+91XXXXXXXXXX,,Mumbai,IN,Seller,Generated
84c2d006-564f-424c-8a15-2d59925fa971,Owner 1124,+91XXXXXXXXXX,,London,IN,Seller,Generated
147d9449-7599-4eff-83e7-d1b0d19d468e,Owner 8942,+91XXXXXXXXXX,,New York,IN,Seller,Generated
aaee740c-9b31-45d9-b958-221e5e54f2e2,Owner 7990,+91XXXXXXXXXX,,Delhi,IN,Seller,Generated
3636240b-683e-4bb0-8a08-1274ceac75ee,Owner 3464,+91XXXXXXXXXX,,London,IN,Seller,Generated
a2ae4ccb-4bd3-4b2a-b431-42e75e017a15,Owner 5071,+91XXXXXXXXXX,,Mumbai,IN,Seller,Generated
4678a96b-a877-44ea-af50-5926cbb16ee1,Owner 4576,+91XXXXXXXXXX,,London,IN,Seller,Generated
8a9011e7-8ad0-4a4a-aa33-f8f105bad077,Owner 6560,+91XXXXXXXXXX,,Mumbai,IN,Seller,Generated
89ef15b0-96f1-4393-80a5-f7643e3fdabe,Owner 7189,+91XXXXXXXXXX,,London,IN,Seller,Generated
63d48d6b-9fbf-4f6c-8fff-f3deebdb9a9a,Owner 8156,+91XXXXXXXXXX,,New York,IN,Seller,Generated
cca40488-69ef-4c81-801d-44f673f240af,Owner 9108,+91XXXXXXXXXX,,New York,IN,Seller,Generated
07192b09-6087-4582-8818-e67dabdb2eb9,Owner 7784,+91XXXXXXXXXX,,London,IN,Seller,Generated
ca3d2c8c-fec0-463d-8835-7107a2916fe0,Owner 8450,+91XXXXXXXXXX,,New York,IN,Seller,Generated
9f74c3e9-76dd-4e67-911a-50770b3ef331,Owner 4328,+91XXXXXXXXXX,,Mumbai,IN,Seller,Generated
5ef7d972-e2bb-4435-81fa-64fa952a8da3,Owner 7770,+91XXXXXXXXXX,,Delhi,IN,Seller,Generated
172e9954-2786-4420-8fd0-080d74409354,Owner 5730,+91XXXXXXXXXX,,Delhi,IN,Seller,Generated
8776f413-fdd3-4e02-a004-92cc89156f7f,Owner 5880,+91XXXXXXXXXX,,London,IN,Seller,Generated
7adc9145-4646-4117-a594-486358b602bf,Owner 9629,+91XXXXXXXXXX,,Mumbai,IN,Seller,Generated
bfca8a9d-7f4a-47d2-b106-5adaf8b68e44,Owner 6903,+91XXXXXXXXXX,,New York,IN,Seller,Generated
e2d6df2b-ec71-466f-a963-3e76e0f25098,Owner 7572,+91XXXXXXXXXX,,Mumbai,IN,Seller,Generated
eaa3db13-55a2-4aee-875f-1a8341a070b3,Owner 304,+91XXXXXXXXXX,,London,IN,Seller,Generated
11ed3126-6f75-4193-8c6c-a7e7f76286c5,Owner 9919,+91XXXXXXXXXX,,Mumbai,IN,Seller,Generated
954485d8-4174-4a06-9b6c-c862b5efd127,Owner 9495,+91XXXXXXXXXX,,New York,IN,Seller,Generated
0e42a7bd-79c8-465e-8a9a-d5baf6b16644,Owner 4510,+91XXXXXXXXXX,,Delhi,IN,Seller,Generated
fde0e5a8-008e-4ac9-9add-7b53e8b86428,Owner 166,+91XXXXXXXXXX,,Mumbai,IN,Seller,Generated
92f29dbc-403e-4e77-8c09-c55b8ac81701,Owner 6758,+91XXXXXXXXXX,,New York,IN,Seller,Generated
73bf3be1-513a-4d64-8834-30f9beee2392,Owner 3659,+91XXXXXXXXXX,,Mumbai,IN,Seller,Generated
4ba9e93a-6b00-4f62-b9dd-9133a8aae39c,Owner 1923,+91XXXXXXXXXX,,London,IN,Seller,Generated
d7e6158e-4248-4a3c-88fa-dd20783e20e5,Owner 7051,+91XXXXXXXXXX,,Mumbai,IN,Seller,Generated
174ece79-2360-476e-b0e0-a6580d6bea86,Owner 7454,+91XXXXXXXXXX,,Delhi,IN,Seller,Generated
d74307ff-9d3c-4ab9-9b00-60d8d40931a9,Owner 9775,+91XXXXXXXXXX,,New York,IN,Seller,Generated
ce951f3c-1191-4ba3-adfb-444a54602eb6,Owner 3589,+91XXXXXXXXXX,,New York,IN,Seller,Generated
68c8c1cf-ef64-4e2e-bb39-cd30c226b7a3,Owner 6543,+91XXXXXXXXXX,,Mumbai,IN,Seller,Generated
66f9a4db-be7e-4eba-bb77-15a54fcab28b,Owner 3158,+91XXXXXXXXXX,,Mumbai,IN,Seller,Generated
6ecbe57d-2c57-4fbd-b294-52897b22a6d5,Owner 7312,+91XXXXXXXXXX,,Mumbai,IN,Seller,Generated
82e65814-c8dc-4cef-843c-a671efbf843e,Owner 7407,+91XXXXXXXXXX,,Mumbai,IN,Seller,Generated
7a94ce2f-8f38-49e1-99b5-005ebce371c1,Owner 636,+91XXXXXXXXXX,,Delhi,IN,Seller,Generated
eecf2655-44ef-4204-9a47-bea64a08855c,Owner 317,+91XXXXXXXXXX,,London,IN,Seller,Generated
9ddcf874-ee1a-4736-9091-a043e6c3afce,Owner 5868,+91XXXXXXXXXX,,New York,IN,Seller,Generated
6f3b81cc-df4f-4145-b8df-c5f66f80ccaf,Owner 909,+91XXXXXXXXXX,,New York,IN,Seller,Generated
979628d8-eb84-4501-a6ce-53011026a1d0,Owner 7007,+91XXXXXXXXXX,,Delhi,IN,Seller,Generated
04f66f58-1c1c-4cc7-b33f-f060f75de197,Owner 102,+91XXXXXXXXXX,,Mumbai,IN,Seller,Generated
9cd8c5f2-bccf-4a3f-9e1d-c636d43f99c7,Owner 2399,+91XXXXXXXXXX,,London,IN,Seller,Generated
8de60bc5-eb40-40dc-a680-9be75c09030b,Owner 9033,+91XXXXXXXXXX,,Delhi,IN,Seller,Generated
babce4da-08cc-4dc5-ad8e-5f788395444d,Owner 6389,+91XXXXXXXXXX,,New York,IN,Seller,Generated
715333d0-bce6-40a8-ba8d-96be6163164c,Owner 5927,+91XXXXXXXXXX,,Mumbai,IN,Seller,Generated
f427fffd-a389-4ab3-b34e-ef2880bd1977,Owner 2565,+91XXXXXXXXXX,,London,IN,Seller,Generated
5472e6f5-1cf6-4a25-98ca-0541c23ec77d,Owner 1507,+91XXXXXXXXXX,,Mumbai,IN,Seller,Generated
8329bef3-c016-48ff-ad68-0f6743946928,Owner 3340,+91XXXXXXXXXX,,London,IN,Seller,Generated
bce385d8-17c1-4147-bf65-563d1c5d63e1,Owner 3289,+91XXXXXXXXXX,,Delhi,IN,Seller,Generated
ac119ecd-4c02-4178-b88a-951afce71a59,Owner 8178,+91XXXXXXXXXX,,Mumbai,IN,Seller,Generated
a1b47598-5498-4c09-8022-dc0455ded675,Owner 6573,+91XXXXXXXXXX,,Delhi,IN,Seller,Generated
ab76a675-b021-475d-97eb-87dd78d147cc,Owner 2497,+91XXXXXXXXXX,,Delhi,IN,Seller,Generated
22d2260a-833b-48e1-a0d1-caee9fd38be4,Owner 5425,+91XXXXXXXXXX,,Delhi,IN,Seller,Generated
db749a47-6208-4502-a52e-000a24bfa7c4,Owner 671,+91XXXXXXXXXX,,New York,IN,Seller,Generated
83059eca-51da-40fe-ad94-25edab2449b3,Owner 3222,+91XXXXXXXXXX,,London,IN,Seller,Generated
142506eb-d77f-4c10-8bac-2b425e1ab4ec,Owner 5431,+91XXXXXXXXXX,,Delhi,IN,Seller,Generated
af1ff7d7-7961-43af-ab2d-87073e3ba876,Owner 5583,+91XXXXXXXXXX,,New York,IN,Seller,Generated
ba9fcb18-76f5-4a35-9db9-27c0962da8b5,Owner 7166,+91XXXXXXXXXX,,Mumbai,IN,Seller,Generated
75c82e10-3f7c-449c-88cd-19a34ce2fbd7,Owner 5633,+91XXXXXXXXXX,,Mumbai,IN,Seller,Generated
9f67d7bb-cd95-4f4e-a518-87b1091995d9,Owner 2246,+91XXXXXXXXXX,,New York,IN,Seller,Generated
7b927ed9-3cd3-4997-97ac-8f068e96ae9d,Owner 2549,+91XXXXXXXXXX,,Delhi,IN,Seller,Generated
c0479632-45f5-4acf-a82a-44be5cd64e2a,Owner 3414,+91XXXXXXXXXX,,New York,IN,Seller,Generated
b82670fd-8223-4bae-a62f-330a0f8a7a19,Owner 1775,+91XXXXXXXXXX,,Delhi,IN,Seller,Generated
4f0bf9be-2e04-4923-949f-55c92da3dee2,Owner 8690,+91XXXXXXXXXX,,New York,IN,Seller,Generated
79f69482-d9c0-4d35-ad61-f0ed8917a68c,Owner 7303,+91XXXXXXXXXX,,New York,IN,Seller,Generated
77dd217c-c1c8-4f1c-b788-5376ce92894e,Owner 1872,+91XXXXXXXXXX,,New York,IN,Seller,Generated
a4b5edb9-6c45-4e58-bc8d-a1f078a93a57,Owner 1378,+91XXXXXXXXXX,,London,IN,Seller,Generated
152e1d09-11eb-48ee-a60b-076f35d9e707,Owner 4878,+91XXXXXXXXXX,,Mumbai,IN,Seller,Generated
df7e94c5-7de6-4652-a27b-12673e7b8ba3,Owner 4092,+91XXXXXXXXXX,,Mumbai,IN,Seller,Generated
f8ded195-3a62-483d-99e7-3b75cd85cf1c,Owner 5951,+91XXXXXXXXXX,,London,IN,Seller,Generated
2b783cbd-24eb-431a-b0c3-545d1b8a0bc6,Owner 8856,+91XXXXXXXXXX,,Delhi,IN,Seller,Generated
a2b0a008-5016-4cef-ac5e-76481220d029,Owner 1158,+91XXXXXXXXXX,,Mumbai,IN,Seller,Generated
4fc8646f-a132-4513-ac97-804e6a1bf9b2,Owner 2892,+91XXXXXXXXXX,,Mumbai,IN,Seller,Generated
987c11c6-b516-44c6-b7ee-c6222ad570dd,Owner 7498,+91XXXXXXXXXX,,Mumbai,IN,Seller,Generated
e052f4f0-dd1d-4bf1-bcd1-c95da59449e1,Owner 7188,+91XXXXXXXXXX,,Mumbai,IN,Seller,Generated
421d8527-e78a-4dca-b918-5b49daa595f9,Owner 2225,+91XXXXXXXXXX,,Delhi,IN,Seller,Generated
25e7c55d-78af-45b8-9a94-1bbc4eadd13a,Owner 7465,+91XXXXXXXXXX,,New York,IN,Seller,Generated
6cbb661a-ea4e-4630-921c-04e0c550e4fe,Owner 5775,+91XXXXXXXXXX,,London,IN,Seller,Generated
500e0641-d65c-46b5-b641-7284bd9f59a8,Owner 1269,+91XXXXXXXXXX,,Delhi,IN,Seller,Generated
1e18b49d-778e-41c2-9359-255d39efef03,Owner 5783,+91XXXXXXXXXX,,Delhi,IN,Seller,Generated
ea596e09-621b-4f18-8e22-d10bda70dbbd,Owner 8550,+91XXXXXXXXXX,,London,IN,Seller,Generated
65ea91ed-2f42-4679-974d-8b938c5ba628,Owner 5286,+91XXXXXXXXXX,,Mumbai,IN,Seller,Generated
a373ec69-ef82-47c3-8ed6-a07ab3164780,Owner 1425,+91XXXXXXXXXX,,Delhi,IN,Seller,Generated
65be8615-d6c8-4ae6-939c-56072e78023a,Owner 7202,+91XXXXXXXXXX,,New York,IN,Seller,Generated
c06f4d7e-7ab8-4121-b3d8-b0589c199724,Owner 9259,+91XXXXXXXXXX,,Mumbai,IN,Seller,Generated
a67f0dec-9402-4550-88a5-ce50bfeea432,Owner 5961,+91XXXXXXXXXX,,New York,IN,Seller,Generated
11f79b40-4791-44c0-aee3-a6f82c2ce71a,Owner 7962,+91XXXXXXXXXX,,New York,IN,Seller,Generated
a4e2bc5d-a12d-4214-996a-04f7dbefac40,Owner 7201,+91XXXXXXXXXX,,London,IN,Seller,Generated
c9a0a201-eef8-4164-af3b-fef2ba6ad9cb,Owner 6092,+91XXXXXXXXXX,,London,IN,Seller,Generated
6df71737-71a8-425d-893b-d9d8640985e6,Owner 5749,+91XXXXXXXXXX,,London,IN,Seller,Generated
583f7391-0bd0-4873-a41f-9bee3c3a0600,Owner 6592,+91XXXXXXXXXX,,New York,IN,Seller,Generated
99a12f98-3cce-4e52-bba6-857790256df0,Owner 2506,+91XXXXXXXXXX,,Mumbai,IN,Seller,Generated
ab2ad013-0113-4a68-9508-c5de3d845658,Owner 3795,+91XXXXXXXXXX,,London,IN,Seller,Generated
f7a8749a-df34-4af0-8b22-d0bf29200792,Owner 5344,+91XXXXXXXXXX,,New York,IN,Seller,Generated
6b934572-629d-4cd6-930f-8d6ff014e352,Owner 4887,+91XXXXXXXXXX,,New York,IN,Seller,Generated
f95c8e6b-ee56-4d57-ac15-8f0f9345f955,Owner 9233,+91XXXXXXXXXX,,Mumbai,IN,Seller,Generated
e195659e-c36f-43ac-b3b3-39aea00a46a0,Owner 355,+91XXXXXXXXXX,,New York,IN,Seller,Generated
91ea9bd7-76ae-4dff-9809-1e4b6102ddf8,Owner 379,+91XXXXXXXXXX,,New York,IN,Seller,Generated
d9fb1564-447d-4f98-9b7b-54d1accd6b88,Owner 9058,+91XXXXXXXXXX,,Delhi,IN,Seller,Generated
de5c5b6b-7f1f-41d2-9e48-73678ac32d0d,Owner 2535,+91XXXXXXXXXX,,Mumbai,IN,Seller,Generated
bc0f65a2-483d-4c41-b7bb-7aa481b77f88,Owner 2193,+91XXXXXXXXXX,,London,IN,Seller,Generated
2e618ba0-ca59-4af2-8a69-ab7e89d1c2a8,Owner 130,+91XXXXXXXXXX,,New York,IN,Seller,Generated
3f6023ab-d3b6-4f4c-8401-beb28e3e21d3,Owner 6502,+91XXXXXXXXXX,,Mumbai,IN,Seller,Generated
195a2e59-f648-4f02-8e5e-f39a101eaaa7,Owner 5652,+91XXXXXXXXXX,,New York,IN,Seller,Generated
55012fcb-62dd-40c9-ab9b-7be80dd785ae,Owner 4619,+91XXXXXXXXXX,,Delhi,IN,Seller,Generated
6408cf6a-8d07-4b63-9541-eff34e980e78,Owner 7638,+91XXXXXXXXXX,,London,IN,Seller,Generated
973e85a2-0fb7-4d53-919b-06ca06f4169c,Owner 489,+91XXXXXXXXXX,,London,IN,Seller,Generated
2937fdbd-a492-4bd2-8816-088d0cf8f993,Owner 4838,+91XXXXXXXXXX,,Delhi,IN,Seller,Generated
5cf634ec-fd52-438f-a532-9f31ce251dcc,Owner 4709,+91XXXXXXXXXX,,Mumbai,IN,Seller,Generated
99711bc9-dc46-4e1d-b7c4-ecf0dea318b1,Owner 3372,+91XXXXXXXXXX,,Mumbai,IN,Seller,Generated
f6339734-3f53-4129-b03f-91d679d331e6,Owner 1452,+91XXXXXXXXXX,,London,IN,Seller,Generated
b7c283ea-0735-4518-99fb-29263cd50dfa,Owner 8757,+91XXXXXXXXXX,,London,IN,Seller,Generated
c48eaeb5-dda8-4fa2-83ef-e0b8f025293e,Owner 4883,+91XXXXXXXXXX,,London,IN,Seller,Generated
03925922-534c-43b7-a955-7d86e9ad49b9,Owner 3440,+91XXXXXXXXXX,,Mumbai,IN,Seller,Generated
22b8126b-41d9-4643-a288-fdf01a5dc437,Owner 7585,+91XXXXXXXXXX,,New York,IN,Seller,Generated
c2166d55-fa5a-4fe7-ad3c-c35ddd5fa739,Owner 9934,+91XXXXXXXXXX,,London,IN,Seller,Generated
59d30a9e-cb8f-4048-a1db-89dfdb1eaf97,Owner 6571,+91XXXXXXXXXX,,Delhi,IN,Seller,Generated
52f9bddd-37cc-46e7-892f-b488e47c42e1,Owner 2318,+91XXXXXXXXXX,,New York,IN,Seller,Generated
edca7642-b971-4b19-844f-65af86fef2d1,Owner 836,+91XXXXXXXXXX,,New York,IN,Seller,Generated
2588f9f5-2aa0-4c8c-88e0-89cda49ab8fb,Owner 5006,+91XXXXXXXXXX,,London,IN,Seller,Generated
c0b6a213-dfd6-4568-9e52-c1eb9d97602e,Owner 4933,+91XXXXXXXXXX,,London,IN,Seller,Generated
7082a272-3b06-44e8-a3d5-8f16f44f26cd,Owner 7077,+91XXXXXXXXXX,,London,IN,Seller,Generated
a1d02486-1e4a-429c-be4c-21e607de9751,Owner 5998,+91XXXXXXXXXX,,Mumbai,IN,Seller,Generated
4da743d4-9af4-4e87-87ac-50058c58d88e,Owner 2436,+91XXXXXXXXXX,,Mumbai,IN,Seller,Generated
1f6d27bf-0c18-4505-aa91-9eed778a95ee,Owner 6227,+91XXXXXXXXXX,,New York,IN,Seller,Generated
149e0bf9-9db8-4852-8521-75b00cc7444e,Owner 3899,+91XXXXXXXXXX,,Mumbai,IN,Seller,Generated
38dd4143-5405-4ebd-997f-43a375702ed1,Owner 4334,+91XXXXXXXXXX,,Mumbai,IN,Seller,Generated
69d754b9-e237-4233-9947-4663e341709a,Owner 8887,+91XXXXXXXXXX,,New York,IN,Seller,Generated
e3a3ae62-6197-4cb7-a83f-1b9f50657b41,Owner 9829,+91XXXXXXXXXX,,Mumbai,IN,Seller,Generated
cc14063b-f815-4ce8-b9d2-e67362b7461c,Owner 8381,+91XXXXXXXXXX,,New York,IN,Seller,Generated
373c04e4-7377-4778-8680-24c209fbb471,Owner 8942,+91XXXXXXXXXX,,Delhi,IN,Seller,Generated
194b6237-e568-4e5f-bf5a-e0f67e4fac8c,Owner 6171,+91XXXXXXXXXX,,Mumbai,IN,Seller,Generated
0d654984-db99-43a6-b096-0e435b1d712b,Owner 215,+91XXXXXXXXXX,,New York,IN,Seller,Generated
933e6b5b-02fe-4ead-82e3-aab64b2229ec,Owner 3861,+91XXXXXXXXXX,,London,IN,Seller,Generated
1c44847c-c0fa-425f-8069-bb19c5434e38,Owner 3077,+91XXXXXXXXXX,,Mumbai,IN,Seller,Generated
a46a9668-e92e-470e-a5e1-e47aa4d49120,Owner 8861,+91XXXXXXXXXX,,New York,IN,Seller,Generated
ff6a257e-27a7-4e7d-a56e-3e68a44b1624,Owner 3398,+91XXXXXXXXXX,,New York,IN,Seller,Generated
b2266218-8903-49f8-a419-caaf7a1743f0,Owner 8704,+91XXXXXXXXXX,,London,IN,Seller,Generated
2bccad47-d1af-46cb-bc4c-4db03f9241a0,Owner 3156,+91XXXXXXXXXX,,Mumbai,IN,Seller,Generated
2057d4b3-4a58-4dd8-80c9-30d106d70706,Owner 932,+91XXXXXXXXXX,,New York,IN,Seller,Generated
eb83546f-18ff-477b-b35b-d35b4909ac1a,Owner 9181,+91XXXXXXXXXX,,Delhi,IN,Seller,Generated
52eb0985-a063-4aa5-9085-8b1b83656366,Owner 6423,+91XXXXXXXXXX,,Delhi,IN,Seller,Generated
f1543914-57d9-4524-b92a-fd26defbc2ce,Owner 2156,+91XXXXXXXXXX,,London,IN,Seller,Generated
95f71418-099e-4b77-ad37-78938841e8ef,Owner 5549,+91XXXXXXXXXX,,Delhi,IN,Seller,Generated
27c403c4-4242-49dc-9a17-7f343759e482,Owner 816,+91XXXXXXXXXX,,Delhi,IN,Seller,Generated
d293ae6b-a58d-4b80-99ce-7bdbcedf7b86,Owner 3560,+91XXXXXXXXXX,,New York,IN,Seller,Generated
94099b53-2ee8-4ea5-a8b6-0570a21ffd95,Owner 3778,+91XXXXXXXXXX,,Mumbai,IN,Seller,Generated
8bbe3412-6769-4e90-aac6-b84508091eee,Owner 2149,+91XXXXXXXXXX,,Delhi,IN,Seller,Generated
3c8adf71-9dfd-49c5-ae84-4fe2e610eabd,Owner 2218,+91XXXXXXXXXX,,Mumbai,IN,Seller,Generated
398d230b-2427-4dd9-a437-300240422c17,Owner 8595,+91XXXXXXXXXX,,Delhi,IN,Seller,Generated
05b09aee-da82-477c-ad21-3d23b23b0b0a,Owner 9794,+91XXXXXXXXXX,,Delhi,IN,Seller,Generated
c086a509-c275-4bbe-85d9-32c5ccdb8c55,Owner 9669,+91XXXXXXXXXX,,New York,IN,Seller,Generated
5a4a8a16-d2a1-4429-9cb9-331a432bf43f,Owner 9091,+91XXXXXXXXXX,,New York,IN,Seller,Generated
d1e997ba-9397-4c6d-8a00-67831605ffd9,Owner 8075,+91XXXXXXXXXX,,Mumbai,IN,Seller,Generated
d54e8833-f8d2-46d3-8c54-6d3258fd0b91,Owner 8544,+91XXXXXXXXXX,,London,IN,Seller,Generated
e21757c0-88ba-414d-866b-3a6602b5635d,Owner 9831,+91XXXXXXXXXX,,Delhi,IN,Seller,Generated
e36d5bce-abb6-4763-834a-4ac77472439d,Owner 4038,+91XXXXXXXXXX,,Delhi,IN,Seller,Generated
18cf376e-572d-46df-90d5-489f29194796,Owner 229,+91XXXXXXXXXX,,Delhi,IN,Seller,Generated
2c6a5d95-0d2a-4c66-945d-45441060efe7,Owner 9617,+91XXXXXXXXXX,,London,IN,Seller,Generated
1af3bec3-3df4-409a-ae16-959855d3af7c,Owner 7067,+91XXXXXXXXXX,,Delhi,IN,Seller,Generated
5f650509-b75a-448a-82b3-bfd91735e786,Owner 5081,+91XXXXXXXXXX,,New York,IN,Seller,Generated
06bb6bdc-5039-4d0c-b526-471dc83e8570,Owner 1065,+91XXXXXXXXXX,,Delhi,IN,Seller,Generated
e290258a-78f7-43f5-96c1-356fb14352b6,Owner 8726,+91XXXXXXXXXX,,London,IN,Seller,Generated
ae13add4-44c0-4a0c-b04f-9715262de4db,Owner 8579,+91XXXXXXXXXX,,Mumbai,IN,Seller,Generated
6f2e2333-1d21-46c6-a4ad-ba8e10b9b8cc,Owner 8640,+91XXXXXXXXXX,,New York,IN,Seller,Generated
6bb71df4-3c45-4172-8e74-e6b1280dc6e6,Owner 767,+91XXXXXXXXXX,,London,IN,Seller,Generated
f6c093e1-9af8-49e7-a766-aec5a67daafe,Owner 9516,+91XXXXXXXXXX,,Mumbai,IN,Seller,Generated
2c36e9f0-5431-4a6f-b40d-4f7895760d52,Owner 4853,+91XXXXXXXXXX,,London,IN,Seller,Generated
6ef3bb20-72d7-4fad-b0a0-2aadec617eca,Owner 2940,+91XXXXXXXXXX,,Delhi,IN,Seller,Generated
ebd54609-3315-4127-89b1-a88adc803982,Owner 8236,+91XXXXXXXXXX,,London,IN,Seller,Generated
82074304-f9bf-4b4a-83c5-24c7a947a1f8,Owner 760,+91XXXXXXXXXX,,Delhi,IN,Seller,Generated
cea97a58-ec5c-4153-bbad-6df9e856eabd,Owner 6220,+91XXXXXXXXXX,,New York,IN,Seller,Generated
a58fe8c6-9667-4a12-98e0-b09378a24bc8,Owner 2535,+91XXXXXXXXXX,,New York,IN,Seller,Generated
02422bb8-1e38-4c13-a8d6-d1281ad37d50,Owner 4976,+91XXXXXXXXXX,,Delhi,IN,Seller,Generated
dfd3ddb4-8da8-45f5-addf-fd73faca24f1,Owner 3673,+91XXXXXXXXXX,,Mumbai,IN,Seller,Generated
ddb4e94d-3b81-48e3-9a59-6c1812096763,Owner 4580,+91XXXXXXXXXX,,Mumbai,IN,Seller,Generated
9044557d-418d-4f0d-8402-709c4d110bb6,Owner 7396,+91XXXXXXXXXX,,London,IN,Seller,Generated
f1fe4846-8bfc-4461-a62e-f9142cef6f7b,Owner 8490,+91XXXXXXXXXX,,Mumbai,IN,Seller,Generated
c5d6da48-87b8-4674-812f-4e4960a0533b,Owner 9200,+91XXXXXXXXXX,,Mumbai,IN,Seller,Generated
10190ee9-f20e-41c9-816a-770a8e0d3209,Owner 2779,+91XXXXXXXXXX,,Delhi,IN,Seller,Generated
3714c2f2-acb5-4698-80ca-0bb3eb1b9e56,Owner 7212,+91XXXXXXXXXX,,Delhi,IN,Seller,Generated
edea7e70-a1f2-45a7-a728-3f99e1fac71f,Owner 9533,+91XXXXXXXXXX,,London,IN,Seller,Generated
cab56b02-2861-4670-a385-30e02ad6edf6,Owner 5196,+91XXXXXXXXXX,,New York,IN,Seller,Generated
7463e844-8a91-44ee-bdcd-b288be72b59f,Owner 1990,+91XXXXXXXXXX,,New York,IN,Seller,Generated
78dbd8a2-ce90-4199-a4b5-7de8a58a04cd,Owner 4720,+91XXXXXXXXXX,,Mumbai,IN,Seller,Generated
8446a72d-d117-44a9-8185-83d58040dbc5,Owner 6375,+91XXXXXXXXXX,,Delhi,IN,Seller,Generated
9599d23d-830c-4389-8eaa-23cacd6b456f,Owner 5460,+91XXXXXXXXXX,,Mumbai,IN,Seller,Generated
88231686-29ed-4e8d-95e2-13f6ceb6944e,Owner 2215,+91XXXXXXXXXX,,Mumbai,IN,Seller,Generated
f76bf161-e079-4974-90d8-1814c2c594d6,Owner 8236,+91XXXXXXXXXX,,Delhi,IN,Seller,Generated
4db4c05d-6d77-4307-96bd-bcc0d8336efb,Owner 5077,+91XXXXXXXXXX,,London,IN,Seller,Generated
583fbbe7-3654-4f8d-a848-383c124c3c9b,Owner 5949,+91XXXXXXXXXX,,Mumbai,IN,Seller,Generated
ab1d09cb-9d5f-49ec-9cef-2e70546335c8,Owner 4302,+91XXXXXXXXXX,,Delhi,IN,Seller,Generated
959daee6-bada-403b-a9ca-bae9898a5ce9,Owner 9659,+91XXXXXXXXXX,,Delhi,IN,Seller,Generated
7beeed9c-25af-473e-b3e0-aaf08d4dfd6f,Owner 869,+91XXXXXXXXXX,,London,IN,Seller,Generated
b393f677-5eeb-403c-8724-91bdbd1c0aaf,Owner 8248,+91XXXXXXXXXX,,Delhi,IN,Seller,Generated
26cd8b6b-44e3-4740-af61-d88545fdf22b,Owner 1458,+91XXXXXXXXXX,,Mumbai,IN,Seller,Generated
1a4096dc-0f29-4307-af38-ce418b684119,Owner 1926,+91XXXXXXXXXX,,New York,IN,Seller,Generated
77fecd2c-2393-451a-92b3-3cd6bb3b689f,Owner 1191,+91XXXXXXXXXX,,Mumbai,IN,Seller,Generated
14b3851e-cc43-433c-8324-50749285ed83,Owner 6354,+91XXXXXXXXXX,,New York,IN,Seller,Generated
5ad3c4e8-b3b7-46d8-828b-03480deacf1e,Owner 7527,+91XXXXXXXXXX,,London,IN,Seller,Generated
4741a0ea-fd37-4e3f-9a79-2d909ed6db3a,Owner 3939,+91XXXXXXXXXX,,Delhi,IN,Seller,Generated
838a34a0-5a30-42fb-bf88-461c7f4ed9b7,Owner 6643,+91XXXXXXXXXX,,London,IN,Seller,Generated
db21db99-2f41-400b-902e-907e8d8e891d,Owner 1155,+91XXXXXXXXXX,,Mumbai,IN,Seller,Generated
1ade6882-731b-42aa-9c6d-dcace8a5db21,Owner 4834,+91XXXXXXXXXX,,New York,IN,Seller,Generated
75181e72-22d1-41c2-b325-e08ebd629ff9,Owner 1829,+91XXXXXXXXXX,,Mumbai,IN,Seller,Generated
bc5fab0c-1a3a-4979-8c7b-367a34651b22,Owner 3356,+91XXXXXXXXXX,,London,IN,Seller,Generated
1f3209d0-df0b-408c-85a6-d3506a9fce88,Owner 3738,+91XXXXXXXXXX,,New York,IN,Seller,Generated
280aba13-2a89-4846-9bdf-ce1caa33374b,Owner 9711,+91XXXXXXXXXX,,London,IN,Seller,Generated
d6414ff5-b1e9-4119-b2fe-4c45d89fc112,Owner 5945,+91XXXXXXXXXX,,New York,IN,Seller,Generated
52b922a4-d3ec-445b-9777-8944c44378d2,Owner 8749,+91XXXXXXXXXX,,Mumbai,IN,Seller,Generated
b86e9e77-3433-4eff-a33e-931e80715f7f,Owner 2593,+91XXXXXXXXXX,,Delhi,IN,Seller,Generated
5f3d68e4-5776-457c-b1d7-672487b95e03,Owner 8887,+91XXXXXXXXXX,,Mumbai,IN,Seller,Generated
a3e669e2-12ce-466d-995e-6a45aa442740,Owner 6658,+91XXXXXXXXXX,,Mumbai,IN,Seller,Generated
7f12c3ee-efcb-4100-814f-69b6e467c298,Owner 2375,+91XXXXXXXXXX,,Mumbai,IN,Seller,Generated
9d6a9ff6-8fdc-433f-ab70-e8364117ff1a,Owner 7681,+91XXXXXXXXXX,,London,IN,Seller,Generated
ee73cbe7-bbd7-4e9b-8e7b-c9f86085e013,Owner 4489,+91XXXXXXXXXX,,Delhi,IN,Seller,Generated
ff484492-411c-4940-b14a-2291d8fafff9,Owner 7682,+91XXXXXXXXXX,,London,IN,Seller,Generated
fae80ea2-536d-4e54-86bd-7f5b471383bf,Owner 5253,+91XXXXXXXXXX,,London,IN,Seller,Generated
567e414f-97d0-4678-80df-50edb33969c3,Owner 9611,+91XXXXXXXXXX,,Delhi,IN,Seller,Generated
6cdd29a6-8b6a-41b1-9364-62703db5bfc7,Owner 2931,+91XXXXXXXXXX,,London,IN,Seller,Generated
5ad4913e-63ec-4b3a-90b6-ba433fa57943,Owner 2839,+91XXXXXXXXXX,,New York,IN,Seller,Generated
2094030d-803d-4fc0-9f01-0f9631c57200,Owner 8568,+91XXXXXXXXXX,,London,IN,Seller,Generated
657dfae7-00f9-4303-9523-fd419f5a4236,Owner 5845,+91XXXXXXXXXX,,New York,IN,Seller,Generated
342f6d18-bac1-49f0-92c5-50d4dd74a971,Owner 4138,+91XXXXXXXXXX,,London,IN,Seller,Generated
fbc934e7-8c9c-457e-8b1d-7d50be28d067,Owner 4473,+91XXXXXXXXXX,,Mumbai,IN,Seller,Generated
05b4d988-22f9-49d7-811f-bf2da87a107b,Owner 466,+91XXXXXXXXXX,,London,IN,Seller,Generated
aec05fd7-ad9e-4ca1-945e-e32d908ec2b7,Owner 8026,+91XXXXXXXXXX,,London,IN,Seller,Generated
611b0715-d511-47eb-b6bc-847c20d64ece,Owner 8,+91XXXXXXXXXX,,New York,IN,Seller,Generated
d407e077-a330-4d58-b52e-d63d7ce9ba81,Owner 938,+91XXXXXXXXXX,,Mumbai,IN,Seller,Generated
1385f76b-b744-4937-99e2-2a49a91054c8,Owner 8832,+91XXXXXXXXXX,,Mumbai,IN,Seller,Generated
bce09397-5110-41bc-aa7c-a636222554f3,Owner 8781,+91XXXXXXXXXX,,Mumbai,IN,Seller,Generated
634f4a17-8fa0-433f-98ea-3b843eea2f0c,Owner 4742,+91XXXXXXXXXX,,London,IN,Seller,Generated
50df9016-944a-4a09-b075-7cbe83a8356e,Owner 1720,+91XXXXXXXXXX,,London,IN,Seller,Generated
2f6a9e57-76ea-49ba-8e25-783239f147ef,Owner 7206,+91XXXXXXXXXX,,New York,IN,Seller,Generated
485a86f2-fec8-43ba-b7f6-643cbfeee851,Owner 5803,+91XXXXXXXXXX,,New York,IN,Seller,Generated
00ab6148-c7a9-496c-aec8-2e95e6fd4d7a,Owner 6901,+91XXXXXXXXXX,,Delhi,IN,Seller,Generated
956c9337-c58f-496d-ad20-b51afb9adbe0,Owner 8122,+91XXXXXXXXXX,,Mumbai,IN,Seller,Generated
0ea06625-e864-46cf-b307-0e8e6cbbf568,Owner 8082,+91XXXXXXXXXX,,New York,IN,Seller,Generated
44f34202-96f7-42cc-aff4-d1d0100a3cac,Owner 994,+91XXXXXXXXXX,,London,IN,Seller,Generated
451cd9ca-7528-4d78-9c16-5571b24b2168,Owner 5280,+91XXXXXXXXXX,,New York,IN,Seller,Generated
1be9bbde-83e2-42fc-891f-af7034f4fe39,Owner 1959,+91XXXXXXXXXX,,London,IN,Seller,Generated
b368d277-8e2b-4cbc-b436-65111b671b0f,Owner 1248,+91XXXXXXXXXX,,New York,IN,Seller,Generated
9b2dade4-1526-4a83-89a3-7193fa8ee555,Owner 1002,+91XXXXXXXXXX,,Delhi,IN,Seller,Generated
ed237c12-a156-4129-bac8-6bbae47caced,Owner 5107,+91XXXXXXXXXX,,Mumbai,IN,Seller,Generated
e35e0da9-0350-4fce-ab2f-e891038aa80f,Owner 3295,+91XXXXXXXXXX,,New York,IN,Seller,Generated
08b83e44-967c-4acf-a4c3-e2e9cd0c1e9f,Owner 5744,+91XXXXXXXXXX,,New York,IN,Seller,Generated
5a91b854-9f4b-4be8-b20d-2003dd2f24e6,Owner 51,+91XXXXXXXXXX,,Delhi,IN,Seller,Generated
309983cd-19b4-431c-92ae-c9d474c25ea4,Owner 6428,+91XXXXXXXXXX,,New York,IN,Seller,Generated
87d4ba64-1fe4-45e8-b988-8b6cbc3f26fa,Owner 8725,+91XXXXXXXXXX,,London,IN,Seller,Generated
84d114cd-b0d9-47cb-909e-22df98a8ecf0,Owner 6303,+91XXXXXXXXXX,,London,IN,Seller,Generated
4e6e470a-41d8-413e-bb72-ee4674c1b4b6,Owner 1221,+91XXXXXXXXXX,,New York,IN,Seller,Generated
598d5c14-c297-4120-91f5-685dac6e0305,Owner 3350,+91XXXXXXXXXX,,Delhi,IN,Seller,Generated
e3b48e32-00e2-4324-a9f5-bf420fe3171b,Owner 5739,+91XXXXXXXXXX,,New York,IN,Seller,Generated
5aeb238f-4f6b-4318-9952-c783f6b3ed4e,Owner 1615,+91XXXXXXXXXX,,New York,IN,Seller,Generated
9d5f24e1-bee2-4546-a8f4-b664aba77b51,Owner 2552,+91XXXXXXXXXX,,London,IN,Seller,Generated
4a99211e-e027-4e2b-a543-a0030b4778e5,Owner 8327,+91XXXXXXXXXX,,London,IN,Seller,Generated
df3afad8-06d8-498c-8813-e93ef900ce7b,Owner 8454,+91XXXXXXXXXX,,Mumbai,IN,Seller,Generated
b5545f68-528b-45f4-a621-82ce1037fff7,Owner 9045,+91XXXXXXXXXX,,Delhi,IN,Seller,Generated
47fe1bf9-8322-4c35-ac66-e3745b869316,Owner 6042,+91XXXXXXXXXX,,New York,IN,Seller,Generated
12d9a004-a0bc-414f-88eb-dc4f7efc20bd,Owner 5009,+91XXXXXXXXXX,,London,IN,Seller,Generated
ff31c8e3-cc5c-45ce-9f0d-9900f56cf062,Owner 7001,+91XXXXXXXXXX,,Delhi,IN,Seller,Generated
196dcc14-5206-4d96-b262-e06eba9e95ed,Owner 1340,+91XXXXXXXXXX,,New York,IN,Seller,Generated
c56674f9-8277-4c31-8ee2-5afecc20569d,Owner 6387,+91XXXXXXXXXX,,Delhi,IN,Seller,Generated
e739e50c-c641-49e0-888a-c50311845dd9,Owner 6755,+91XXXXXXXXXX,,Delhi,IN,Seller,Generated
3436c6b7-daab-4b7f-8063-fef304d60994,Owner 5262,+91XXXXXXXXXX,,Mumbai,IN,Seller,Generated
e73c5893-3559-41ec-8487-22aa894499eb,Owner 481,+91XXXXXXXXXX,,Delhi,IN,Seller,Generated
570d0249-652f-49eb-8762-b60e2683b460,Owner 197,+91XXXXXXXXXX,,Mumbai,IN,Seller,Generated
05033322-642d-4289-b6ba-dfff0aa2f9fa,Owner 5148,+91XXXXXXXXXX,,New York,IN,Seller,Generated
4534f90f-4c37-4c94-8909-82bf0fa58dce,Owner 9232,+91XXXXXXXXXX,,Delhi,IN,Seller,Generated
85661626-b383-4895-a708-0d584c035022,Owner 479,+91XXXXXXXXXX,,Delhi,IN,Seller,Generated
6014db2e-0ac0-4fe4-a44d-7dd25017b21c,Owner 2475,+91XXXXXXXXXX,,Delhi,IN,Seller,Generated
008b1ee0-efba-489d-b1b7-67e85317575a,Owner 4035,+91XXXXXXXXXX,,Delhi,IN,Seller,Generated
5782ca34-e589-4ac6-991d-064fbcf21330,Owner 5863,+91XXXXXXXXXX,,Delhi,IN,Seller,Generated
19eb2635-6ea7-4bda-8035-ce2f75936ad7,Owner 8735,+91XXXXXXXXXX,,Mumbai,IN,Seller,Generated
ede52304-b2e3-4ba4-90f9-36e15929f88a,Owner 3246,+91XXXXXXXXXX,,New York,IN,Seller,Generated
f4006072-0d91-45e2-b8ff-4c6faea5564d,Owner 2150,+91XXXXXXXXXX,,Delhi,IN,Seller,Generated
478781a7-48b8-4d87-9e05-af71edfb5418,Owner 9045,+91XXXXXXXXXX,,London,IN,Seller,Generated
c6c57810-2d95-41c9-bcf5-4cd02f76f30e,Owner 5235,+91XXXXXXXXXX,,London,IN,Seller,Generated
51ba2baa-1130-40cf-a116-d9b4ad9ac474,Owner 7664,+91XXXXXXXXXX,,Delhi,IN,Seller,Generated
80d7700f-484d-491a-8bd9-5d70234c870f,Owner 7633,+91XXXXXXXXXX,,New York,IN,Seller,Generated
49374284-6bd0-4648-b99d-4e545164d7d6,Owner 6070,+91XXXXXXXXXX,,London,IN,Seller,Generated
4565c1fa-fdf4-4538-8150-6883699389d2,Owner 4908,+91XXXXXXXXXX,,London,IN,Seller,Generated
a170703b-ac4c-4937-9611-81c2c4d5e10b,Owner 8118,+91XXXXXXXXXX,,London,IN,Seller,Generated
d15e35f6-43aa-4ef8-812d-7b5a081b1666,Owner 2809,+91XXXXXXXXXX,,Mumbai,IN,Seller,Generated
a867379e-8f46-424e-b981-2847e6250348,Owner 1952,+91XXXXXXXXXX,,Mumbai,IN,Seller,Generated
29f93aee-bab7-43cd-9df7-39badfa4c38e,Owner 2358,+91XXXXXXXXXX,,London,IN,Seller,Generated
545166d3-8580-4aa4-8475-0351e4ab98d8,Owner 8452,+91XXXXXXXXXX,,New York,IN,Seller,Generated
626fdc20-0fa8-4cae-9ea5-ae620b793580,Owner 167,+91XXXXXXXXXX,,London,IN,Seller,Generated
de59ab5f-a51f-4065-bd01-0dc8104d6cb5,Owner 6196,+91XXXXXXXXXX,,Delhi,IN,Seller,Generated
5abbf9c4-2ff8-499f-a7d8-f92ee88d5980,Owner 3927,+91XXXXXXXXXX,,London,IN,Seller,Generated
d29cbc90-3a9e-4337-bb45-eea0fab8a240,Owner 2790,+91XXXXXXXXXX,,Delhi,IN,Seller,Generated
6a3392a6-c905-4b76-991c-3dba02527ede,Owner 4989,+91XXXXXXXXXX,,New York,IN,Seller,Generated
832166ab-0114-47db-9211-20a34b3f96d4,Owner 767,+91XXXXXXXXXX,,New York,IN,Seller,Generated
3d0f1608-8049-4fb5-950e-241b043ba670,Owner 3462,+91XXXXXXXXXX,,London,IN,Seller,Generated
48f70106-8640-40ee-be46-1915710ea7a2,Owner 8554,+91XXXXXXXXXX,,London,IN,Seller,Generated
8362e7e4-1608-4efb-a4bd-cbbc66decef3,Owner 7152,+91XXXXXXXXXX,,London,IN,Seller,Generated
d2328531-a09f-44c7-ac80-6d02e58b21f7,Owner 6423,+91XXXXXXXXXX,,Delhi,IN,Seller,Generated
f2bff7ac-812f-42ec-9d04-0a995e87e494,Owner 2294,+91XXXXXXXXXX,,London,IN,Seller,Generated
9c2c5b64-5c6c-46a3-9bfb-e6206df2d980,Owner 9746,+91XXXXXXXXXX,,Delhi,IN,Seller,Generated
