lead_id,name,phone,email,city,country,type,notes
755b9e5f-3810-4cbf-bf8b-878b042a8291,Owner 4643,+91XXXXXXXXXX,,London,IN,Seller,Generated
c028f26d-b5a2-4eb5-ba61-a4e89be1ea80,Owner 5807,+91XXXXXXXXXX,,New York,IN,Seller,Generated
87af63e9-434d-41d0-9c34-9b2f0597e9f5,Owner 4265,+91XXXXXXXXXX,,New York,IN,Seller,Generated
1cc9e0cc-1d77-4e9f-80e0-8586c65426da,Owner 8351,+91XXXXXXXXXX,,Mumbai,IN,Seller,Generated
832a08e2-0ba2-4707-a463-e46c02122320,Owner 7548,+91XXXXXXXXXX,,New York,IN,Seller,Generated
bcf1b330-5bdc-434d-8118-b468b8db63e8,Owner 4770,+91XXXXXXXXXX,,Mumbai,IN,Seller,Generated
09632618-b4ec-4d9c-abe3-fde48a3fa898,Owner 2326,+91XXXXXXXXXX,,Mumbai,IN,Seller,Generated
8fb3da20-53d1-4375-9892-b2ccb5f7b491,Owner 5262,+91XXXXXXXXXX,,London,IN,Seller,Generated
0e003242-c030-4636-9830-a1325e5bd5be,Owner 4666,+91XXXXXXXXXX,,Delhi,IN,Seller,Generated
ee2d1f3c-6b03-4c2a-8c68-47bed18dc38e,Owner 5986,+91XXXXXXXXXX,,Delhi,IN,Seller,Generated
3a706204-ee55-4726-a080-2f450ab2d39d,Owner 4005,+91XXXXXXXXXX,,Delhi,IN,Seller,Generated
3db37860-6869-4a38-aaa6-4cefbf8eecf7,Owner 7030,+91XXXXXXXXXX,,Delhi,IN,Seller,Generated
8e0921e5-0632-4f95-8e80-5f7029a4b1c3,Owner 2178,+91XXXXXXXXXX,,London,IN,Seller,Generated
4eb3361e-f3f1-47ab-bad7-0655a99dcb6d,Owner 5791,+91XXXXXXXXXX,,New York,IN,Seller,Generated
4ec78638-ba99-4565-8738-8be2d0bcbb76,Owner 9554,+91XXXXXXXXXX,,New York,IN,Seller,Generated
866d598a-4f1e-4557-9c7b-504334986eb5,Owner 6351,+91XXXXXXXXXX,,Mumbai,IN,Seller,Generated
8f1afa21-88d3-4f46-96b3-6ba1ac384deb,Owner 4840,+91XXXXXXXXXX,,New York,IN,Seller,Generated
e4935721-4bbf-4eb5-bda8-96cc70e38d13,Owner 4101,+91XXXXXXXXXX,,London,IN,Seller,Generated
981442b7-ffdc-40a5-bd82-4fce4cd5866b,Owner 6159,+91XXXXXXXXXX,,Delhi,IN,Seller,Generated
016a4d1b-945c-42bd-885b-57eaf6ca0aea,Owner 3008,+91XXXXXXXXXX,,Delhi,IN,Seller,Generated
0851b4f9-b016-48e6-95f2-4eaad052bbab,Owner 4218,+91XXXXXXXXXX,,Delhi,IN,Seller,Generated
eda34fc4-84fd-458e-9d05-4e00c8da1d55,Owner 6219,+91XXXXXXXXXX,,New York,IN,Seller,Generated
bc407067-b7ff-40fd-b3b3-dee8ba149c6e,Owner 196,+91XXXXXXXXXX,,Mumbai,IN,Seller,Generated
f222ac38-aa23-4362-8800-21882f0eebd4,Owner 1502,+91XXXXXXXXXX,,Delhi,IN,Seller,Generated
6f6350b5-970c-46e8-bc9f-5cf9ee0e7580,Owner 4121,+91XXXXXXXXXX,,London,IN,Seller,Generated
bd503141-5ee9-43c9-95bf-828fa33ab81f,Owner 1323,+91XXXXXXXXXX,,Delhi,IN,Seller,Generated
c481387c-4add-43a7-a459-4ca381796825,Owner 3642,+91XXXXXXXXXX,,Mumbai,IN,Seller,Generated
08d9ef6f-651e-4eb8-9d0f-4985d409885e,Owner 3327,+91XXXXXXXXXX,,Delhi,IN,Seller,Generated
3d5e8f56-9ea6-4f20-8361-c57971eb05c8,Owner 4435,+91XXXXXXXXXX,,Mumbai,IN,Seller,Generated
44d671d7-b3f9-40fd-925d-f17350ccf8b7,Owner 9436,+91XXXXXXXXXX,,New York,IN,Seller,Generated
e6578a21-f4f6-4533-bf28-e397bc31384b,Owner 194,+91XXXXXXXXXX,,New York,IN,Seller,Generated
349e7767-f63a-4479-98bf-68916151c47f,Owner 5972,+91XXXXXXXXXX,,Mumbai,IN,Seller,Generated
3ae3cdb4-d870-40ed-a16b-88079250daaa,Owner 5983,+91XXXXXXXXXX,,Delhi,IN,Seller,Generated
138f7282-5cf7-4dcc-a996-3ad4dead3ece,Owner 5123,+91XXXXXXXXXX,,London,IN,Seller,Generated
87f1b4e9-cd25-4b39-91b1-3963ac8676ad,Owner 3822,+91XXXXXXXXXX,,Mumbai,IN,Seller,Generated
cea4ce64-ea99-4ea1-9f0d-facad3c5aa7d,Owner 4754,+91XXXXXXXXXX,,New York,IN,Seller,Generated
af87e5c1-e2c9-4ddb-becb-7750c452a25d,Owner 1595,+91XXXXXXXXXX,,Mumbai,IN,Seller,Generated
adc153dd-4eac-4069-81d1-ccb5e90315c0,Owner 8912,+91XXXXXXXXXX,,London,IN,Seller,Generated
e480d2c5-c2ef-45c7-95d2-944027c9dca9,Owner 3141,+91XXXXXXXXXX,,London,IN,Seller,Generated
b5bce7a0-ea48-4931-86b1-85eb00f6933a,Owner 4587,+91XXXXXXXXXX,,New York,IN,Seller,Generated
2d46c643-8886-4453-b7ed-7d846e04c2ad,Owner 2850,+91XXXXXXXXXX,,Delhi,IN,Seller,Generated
e50221d3-2033-4cd7-8bce-95b7f51f16b0,Owner 9244,+91XXXXXXXXXX,,New York,IN,Seller,Generated
ec18437e-7d53-40aa-8a6b-80ced48f4822,Owner 4488,+91XXXXXXXXXX,,Mumbai,IN,Seller,Generated
f96face2-75cb-419e-85f1-c44cf0d660d2,Owner 1562,+91XXXXXXXXXX,,New York,IN,Seller,Generated
03679bb4-0905-47b0-8d74-7491ecb57536,Owner 7421,+91XXXXXXXXXX,,Delhi,IN,Seller,Generated
fc6c8f6e-64c7-4dac-8868-e3699716353a,Owner 7876,+91XXXXXXXXXX,,Delhi,IN,Seller,Generated
50667877-616f-4c74-8eab-38e012ab8187,Owner 5319,+91XXXXXXXXXX,,Delhi,IN,Seller,Generated
6481b7ba-4b00-4c70-a456-40fa9fd5ffbf,Owner 5350,+91XXXXXXXXXX,,Mumbai,IN,Seller,Generated
12f10afa-5007-43da-b3e2-67fc6145ce0a,Owner 8120,+91XXXXXXXXXX,,London,IN,Seller,Generated
019cb99a-bf62-4279-8471-ed6c66bd79c8,Owner 2555,+91XXXXXXXXXX,,Delhi,IN,Seller,Generated
e1b9687b-1202-4bdb-986a-dc7fa4ef6d25,Owner 4894,+91XXXXXXXXXX,,New York,IN,Seller,Generated
efdafea1-f6e3-43c8-ba1e-23396eee470d,Owner 6559,+91XXXXXXXXXX,,London,IN,Seller,Generated
57fa9593-80af-4c42-a958-83098134276c,Owner 7432,+91XXXXXXXXXX,,Mumbai,IN,Seller,Generated
8b083ba4-b92e-4557-959a-4c6c162b8391,Owner 848,+91XXXXXXXXXX,,London,IN,Seller,Generated
30c34a3c-8fa4-4fd2-8548-cedaaf83b472,Owner 8626,+91XXXXXXXXXX,,Mumbai,IN,Seller,Generated
2ca318e4-399a-4793-8f0c-cfcf748545f7,Owner 9269,+91XXXXXXXXXX,,New York,IN,Seller,Generated
192a9deb-7b67-4406-a3e5-7a23abe330d3,Owner 6147,+91XXXXXXXXXX,,Mumbai,IN,Seller,Generated
4d3d9f8b-c9bf-428a-8359-8de073866a0a,Owner 683,+91XXXXXXXXXX,,Delhi,IN,Seller,Generated
9db089d8-b250-4304-b40e-23587b0aeebe,Owner 2039,+91XXXXXXXXXX,,New York,IN,Seller,Generated
977faf3a-53cc-48a5-aacf-bc2933c13247,Owner 8604,+91XXXXXXXXXX,,Mumbai,IN,Seller,Generated
41f68b29-2e4d-4a51-84fa-9ed2db6ebf7c,Owner 6755,+91XXXXXXXXXX,,New York,IN,Seller,Generated
4ae056a3-3413-44c2-a994-1877bef0191b,Owner 2377,+91XXXXXXXXXX,,Delhi,IN,Seller,Generated
a3a55a41-b345-4be6-9159-6e887a1ab0e7,Owner 460,+91XXXXXXXXXX,,Delhi,IN,Seller,Generated
29b6d422-caff-4241-9e5f-dea50c77fe9b,Owner 5916,+91XXXXXXXXXX,,London,IN,Seller,Generated
ab8153a6-5b8d-40a4-b354-d03fd8d9e8b2,Owner 3811,+91XXXXXXXXXX,,New York,IN,Seller,Generated
d3c42de0-d773-4c2f-bfd6-2bd4a94c2dad,Owner 7686,+91XXXXXXXXXX,,New York,IN,Seller,Generated
e94fead0-049d-448e-9d26-068504c582a1,Owner 5859,+91XXXXXXXXXX,,London,IN,Seller,Generated
b6dbf50c-635f-4862-9635-79d3e7aa08b2,Owner 788,+91XXXXXXXXXX,,Delhi,IN,Seller,Generated
88db743e-30d7-43a5-acdc-f1f7f1adddef,Owner 4057,+91XXXXXXXXXX,,New York,IN,Seller,Generated
86406959-20a1-4d6b-801c-3726a7a548d8,Owner 9131,+91XXXXXXXXXX,,Mumbai,IN,Seller,Generated
f8f7483e-d0a1-49c7-a819-fe78db2dc90a,Owner 9947,+91XXXXXXXXXX,,Delhi,IN,Seller,Generated
14d69e0d-6f72-43ad-9c37-73b89bd0df64,Owner 1423,+91XXXXXXXXXX,,Delhi,IN,Seller,Generated
bbfa2939-2e05-4803-9d15-6018629cd85b,Owner 8402,+91XXXXXXXXXX,,New York,IN,Seller,Generated
5fdb31e6-f157-411a-a761-cdfbe4b2fdd6,Owner 2335,+91XXXXXXXXXX,,Delhi,IN,Seller,Generated
c3b3cb11-4978-4d2c-a960-d0915f7a95b7,Owner 5380,+91XXXXXXXXXX,,Delhi,IN,Seller,Generated
c08fc1b7-4af9-4646-9add-06c5c670eed0,Owner 921,+91XXXXXXXXXX,,Mumbai,IN,Seller,Generated
e72fd513-727d-49cf-ab70-2dcecae40547,Owner 630,+91XXXXXXXXXX,,Mumbai,IN,Seller,Generated
aacd35e4-6856-4cce-bee4-66304cb724d3,Owner 3935,+91XXXXXXXXXX,,New York,IN,Seller,Generated
ad522d86-545a-4ffc-85b1-6f1145850c99,Owner 3766,+91XXXXXXXXXX,,Delhi,IN,Seller,Generated
6492d2d1-a58b-45a5-89e0-30ed4e4766cb,Owner 6403,+91XXXXXXXXXX,,London,IN,Seller,Generated
48cc8649-96a4-4e65-90f0-614334b8d1d2,Owner 725,+91XXXXXXXXXX,,Mumbai,IN,Seller,Generated
ad007b73-0c00-4239-beb7-5241d771f69e,Owner 2296,+91XXXXXXXXXX,,Mumbai,IN,Seller,Generated
7188b5b5-f19c-4a3c-a789-b0890b27955b,Owner 5366,+91XXXXXXXXXX,,London,IN,Seller,Generated
ce3ee2c5-b8a4-4648-9255-e04378319ef3,Owner 7625,+91XXXXXXXXXX,,Delhi,IN,Seller,Generated
5d2069fa-8894-4abd-91f5-9c7e7a00066f,Owner 4960,+91XXXXXXXXXX,,Delhi,IN,Seller,Generated
cec129e4-944d-4d08-a985-4c788a1031ec,Owner 184,+91XXXXXXXXXX,,London,IN,Seller,Generated
99c59950-dcc6-45b2-87f8-acfe3d0f5b68,Owner 803,+91XXXXXXXXXX,,New York,IN,Seller,Generated
7e3adef8-3501-40d1-9208-103cc21c4608,Owner 8457,+91XXXXXXXXXX,,New York,IN,Seller,Generated
8b753eb6-3ea9-4617-974b-48ee4f01fd41,Owner 4825,+91XXXXXXXXXX,,New York,IN,Seller,Generated
154b6403-7561-4df8-a81d-9d65bf4525f9,Owner 6438,+91XXXXXXXXXX,,New York,IN,Seller,Generated
bc868c09-0b89-4e18-a196-53cd8ecca6d1,Owner 8804,+91XXXXXXXXXX,,London,IN,Seller,Generated
fc387d16-d049-4668-a9d7-5cfb054d6e58,Owner 4920,+91XXXXXXXXXX,,Mumbai,IN,Seller,Generated
ffb211c7-b10c-4fe3-9b23-e59ee6257dab,Owner 3753,+91XXXXXXXXXX,,Delhi,IN,Seller,Generated
14cc06fb-38f0-43c9-9cd2-2edb963006d6,Owner 9609,+91XXXXXXXXXX,,London,IN,Seller,Generated
2c4d7335-bb89-4b53-9570-cbd6f14d7bb6,Owner 4788,+91XXXXXXXXXX,,Delhi,IN,Seller,Generated
9a40a038-f846-43e4-9a16-03063d6f9aec,Owner 2982,+91XXXXXXXXXX,,New York,IN,Seller,Generated
633c09c6-731c-4d4f-94dc-0ee69513ad20,Owner 3077,+91XXXXXXXXXX,,New York,IN,Seller,Generated
8137f95e-80eb-4e5b-9d24-7bedc1aab481,Owner 3182,+91XXXXXXXXXX,,Mumbai,IN,Seller,Generated
1953e38f-cb12-4611-8d38-3cc45d5ebd63,Owner 2705,+91XXXXXXXXXX,,New York,IN,Seller,Generated
58bffdf8-3b73-4c4e-a791-258d5fd30c3a,Owner 1031,+91XXXXXXXXXX,,Mumbai,IN,Seller,Generated
2ff4868d-33b7-4cdf-b2f5-f9ef440271f5,Owner 675,+91XXXXXXXXXX,,Delhi,IN,Seller,Generated
aa4324e0-16f6-4b49-92e9-0d3ab969efe5,Owner 6549,+91XXXXXXXXXX,,London,IN,Seller,Generated
21bb20ac-1330-4236-8ba4-9f0f52ac2226,Owner 5671,+91XXXXXXXXXX,,Mumbai,IN,Seller,Generated
6ad1f2e1-a4ec-4079-b372-66885b70e8fb,Owner 6706,+91XXXXXXXXXX,,London,IN,Seller,Generated
e79ba8b3-f703-4494-9e18-b6b67286d80d,Owner 7440,+91XXXXXXXXXX,,Delhi,IN,Seller,Generated
76157074-6d21-47cb-a33d-5b7a0151f745,Owner 478,+91XXXXXXXXXX,,New York,IN,Seller,Generated
4d0859f8-acb8-430d-98b4-caa681b0feae,Owner 5266,+91XXXXXXXXXX,,London,IN,Seller,Generated
dd0774be-92d3-413a-a5a0-d3993ba4a0a2,Owner 5834,+91XXXXXXXXXX,,Delhi,IN,Seller,Generated
74e3852c-0c39-411a-ad90-60e3dc3142a1,Owner 7813,+91XXXXXXXXXX,,Mumbai,IN,Seller,Generated
83206d4c-495a-486b-978b-358ed5373b54,Owner 916,+91XXXXXXXXXX,,London,IN,Seller,Generated
d3e2e7fb-ab35-4d3f-b739-39021908b58d,Owner 5071,+91XXXXXXXXXX,,London,IN,Seller,Generated
3ef3844e-c9dc-4258-bcfc-ec8eacc37d91,Owner 1712,+91XXXXXXXXXX,,Mumbai,IN,Seller,Generated
ac402bbe-c18e-4864-a48e-3056b4e9fdb2,Owner 3886,+91XXXXXXXXXX,,Mumbai,IN,Seller,Generated
99f4e01e-6a8c-423c-9351-16e7eb71096a,Owner 3145,+91XXXXXXXXXX,,Delhi,IN,Seller,Generated
ae886b8f-fdfb-4cf6-b5b1-40e20224e9d9,Owner 9644,+91XXXXXXXXXX,,London,IN,Seller,Generated
c406c145-5954-466f-ad9f-465717fa6048,Owner 6139,+91XXXXXXXXXX,,Mumbai,IN,Seller,Generated
f04749d1-a67c-4483-9414-1f7b52e650aa,Owner 4907,+91XXXXXXXXXX,,London,IN,Seller,Generated
69e099cb-8b1e-4e77-a04d-aae5230dcf09,Owner 32,+91XXXXXXXXXX,,Delhi,IN,Seller,Generated
8435aeca-9f34-46de-84da-0af9ef74ca5d,Owner 5748,+91XXXXXXXXXX,,Mumbai,IN,Seller,Generated
10234cf7-8ab7-43a8-9841-00da280ddea9,Owner 4809,+91XXXXXXXXXX,,Mumbai,IN,Seller,Generated
dbf7577d-7de2-4b02-b8f0-2fb78d831be3,Owner 6983,+91XXXXXXXXXX,,Mumbai,IN,Seller,Generated
f0bad934-5942-4c42-bc80-fdef9dfe0290,Owner 4661,+91XXXXXXXXXX,,New York,IN,Seller,Generated
cf2b0413-4052-4b1f-9429-80b654564549,Owner 9267,+91XXXXXXXXXX,,New York,IN,Seller,Generated
d70ab049-b05f-4ba4-a680-effbff15e1ca,Owner 6402,+91XXXXXXXXXX,,Delhi,IN,Seller,Generated
5a5ca3ed-488a-4e7b-8837-18242a171796,Owner 9412,+91XXXXXXXXXX,,New York,IN,Seller,Generated
13a7866a-1f92-422c-8561-9e2e201f23b6,Owner 6370,+91XXXXXXXXXX,,Mumbai,IN,Seller,Generated
373a8e66-aacd-476d-9cbe-2cb661007447,Owner 797,+91XXXXXXXXXX,,New York,IN,Seller,Generated
791954a2-1ebf-4d86-a47f-e2af8afa5d45,Owner 5398,+91XXXXXXXXXX,,New York,IN,Seller,Generated
8e1ea664-7a2e-4a4b-9c48-90936042a0d7,Owner 3606,+91XXXXXXXXXX,,Delhi,IN,Seller,Generated
eddced22-4b93-4b7c-8c1d-4bd408a60ca3,Owner 6695,+91XXXXXXXXXX,,London,IN,Seller,Generated
175bd712-323d-472a-a071-d6a1c46b2d71,Owner 9122,+91XXXXXXXXXX,,London,IN,Seller,Generated
0f30e116-bec3-4744-9e01-b16df6e85656,Owner 1663,+91XXXXXXXXXX,,Delhi,IN,Seller,Generated
0470a702-3add-464a-9266-3f16858b3d21,Owner 6376,+91XXXXXXXXXX,,New York,IN,Seller,Generated
41417e8d-66e2-4ea3-9830-f2b647a2c024,Owner 1314,+91XXXXXXXXXX,,New York,IN,Seller,Generated
edec0985-da0b-4477-97fd-f0a411b755d1,Owner 2465,+91XXXXXXXXXX,,Mumbai,IN,Seller,Generated
39bff261-583a-4197-9919-365d01d7b67e,Owner 1121,+91XXXXXXXXXX,,Mumbai,IN,Seller,Generated
fc471807-8999-4f5b-95d9-26fa0b0e727c,Owner 4327,+91XXXXXXXXXX,,New York,IN,Seller,Generated
e6142076-e33b-4175-b202-a5ab20c70482,Owner 7192,+91XXXXXXXXXX,,Delhi,IN,Seller,Generated
9ba5c347-7c70-4d50-a2c9-14e3fbd00b95,Owner 952,+91XXXXXXXXXX,,New York,IN,Seller,Generated
91fa2fa4-5050-4d96-9aa6-df351300ca59,Owner 5979,+91XXXXXXXXXX,,Delhi,IN,Seller,Generated
a0d8b4f2-cdf9-43e7-930a-1311e4d9d7a8,Owner 9005,+91XXXXXXXXXX,,London,IN,Seller,Generated
3b083f71-7896-4fcb-97d6-a4bd887e8367,Owner 9106,+91XXXXXXXXXX,,London,IN,Seller,Generated
fba96e59-3d0e-4b03-88f0-70a247bde0a0,Owner 6160,+91XXXXXXXXXX,,Delhi,IN,Seller,Generated
d7db7ccd-32fc-4060-a736-79b6dbcd7692,Owner 1070,+91XXXXXXXXXX,,Mumbai,IN,Seller,Generated
bfd091ad-24dc-4787-9469-d18a400ef788,Owner 8980,+91XXXXXXXXXX,,New York,IN,Seller,Generated
f1e19cf1-61c5-454e-90b1-ae48a21c0944,Owner 3841,+91XXXXXXXXXX,,London,IN,Seller,Generated
bb5cb048-f5ec-4dd0-8591-145f1a0474d5,Owner 8070,+91XXXXXXXXXX,,New York,IN,Seller,Generated
2d0c3567-225a-451c-b020-2c94135994ee,Owner 2861,+91XXXXXXXXXX,,London,IN,Seller,Generated
f0d7ce35-400b-48d2-a0f1-8234c8fd2f2d,Owner 9558,+91XXXXXXXXXX,,London,IN,Seller,Generated
6ef1826a-1efa-47b2-a9ea-d3567ee9f7c2,Owner 3826,+91XXXXXXXXXX,,Delhi,IN,Seller,Generated
e6baa6de-4d98-4597-8ca0-2cb06a19d953,Owner 131,+91XXXXXXXXXX,,London,IN,Seller,Generated
7070f8be-6f8a-4295-ab32-1fd1821e3e7d,Owner 2559,+91XXXXXXXXXX,,London,IN,Seller,Generated
4c07fbfc-6c05-414f-ab9b-4166a4a06d3f,Owner 39,+91XXXXXXXXXX,,New York,IN,Seller,Generated
7de101e4-bb60-467f-9f0f-252164b02287,Owner 9282,+91XXXXXXXXXX,,New York,IN,Seller,Generated
adde4dc6-cda9-496b-b033-6d56f2bcc8b4,Owner 4579,+91XXXXXXXXXX,,London,IN,Seller,Generated
d59d7159-2097-4e1e-ab2d-11bec1dcebe7,Owner 720,+91XXXXXXXXXX,,Mumbai,IN,Seller,Generated
279cb4c3-4e49-4105-9310-174bbf7f03f0,Owner 9333,+91XXXXXXXXXX,,London,IN,Seller,Generated
4a9e6282-6207-4aee-9912-d1fb0ac18509,Owner 1132,+91XXXXXXXXXX,,London,IN,Seller,Generated
c0b38cf0-d50e-4f97-ae44-712630f35fc4,Owner 8463,+91XXXXXXXXXX,,Delhi,IN,Seller,Generated
7a804bc7-9ef8-4170-aeee-bdc1f53a19e1,Owner 6623,+91XXXXXXXXXX,,New York,IN,Seller,Generated
20b0b224-1053-4a67-9ee6-f9212006da01,Owner 4387,+91XXXXXXXXXX,,New York,IN,Seller,Generated
2d6d62d8-aa3b-46f4-9bc3-eca9d6b5b3b9,Owner 429,+91XXXXXXXXXX,,London,IN,Seller,Generated
2f15db28-1248-4168-a414-1af0395ba372,Owner 624,+91XXXXXXXXXX,,Delhi,IN,Seller,Generated
9effe866-5c16-4a99-b7e2-b6a823c6bb31,Owner 464,+91XXXXXXXXXX,,Delhi,IN,Seller,Generated
1c4a5c46-7c45-40d4-8b4f-e56913d83d86,Owner 9933,+91XXXXXXXXXX,,Mumbai,IN,Seller,Generated
0a588b97-cb78-43ef-b4ce-d737b66ae113,Owner 5292,+91XXXXXXXXXX,,Mumbai,IN,Seller,Generated
6818cc72-9793-46b0-96b2-2c69604b10b5,Owner 9304,+91XXXXXXXXXX,,Delhi,IN,Seller,Generated
6e5d644d-16f1-4f08-b6fb-f968b70bed78,Owner 5123,+91XXXXXXXXXX,,London,IN,Seller,Generated
ecf5ba4c-1f74-4098-88aa-29b6cdb67630,Owner 4355,+91XXXXXXXXXX,,New York,IN,Seller,Generated
9e108845-171d-4326-90cd-cb69bca07370,Owner 2353,+91XXXXXXXXXX,,Delhi,IN,Seller,Generated
b08413e3-4894-42ea-b6d1-f74d0e578e95,Owner 5721,+91XXXXXXXXXX,,Delhi,IN,Seller,Generated
79d082b4-749d-4dbb-ac3f-22154b07292f,Owner 920,+91XXXXXXXXXX,,Mumbai,IN,Seller,Generated
3f32e6e8-74a1-47cf-adf2-ebe74476ab41,Owner 1288,+91XXXXXXXXXX,,London,IN,Seller,Generated
7af165b2-ba3c-4206-b31b-544563cd5406,Owner 2649,+91XXXXXXXXXX,,London,IN,Seller,Generated
6ba83ebc-437c-418a-916c-2ce1f98bb852,Owner 7546,+91XXXXXXXXXX,,Delhi,IN,Seller,Generated
1e19fd46-dd4b-46e0-beeb-3ee9a280853c,Owner 8214,+91XXXXXXXXXX,,London,IN,Seller,Generated
a72f3bdd-57e7-4d9f-be05-ea046affa744,Owner 6882,+91XXXXXXXXXX,,Mumbai,IN,Seller,Generated
0bbcf161-d76e-4c12-9f81-1468d967290e,Owner 7216,+91XXXXXXXXXX,,Delhi,IN,Seller,Generated
5bd882ee-2794-4c5c-85f9-3a47bba07b32,Owner 2146,+91XXXXXXXXXX,,New York,IN,Seller,Generated
a0f309c4-ec63-466e-9eed-7fee50f964c1,Owner 1910,+91XXXXXXXXXX,,New York,IN,Seller,Generated
ea546854-8bf1-44e4-bac2-801e01c311b9,Owner 8995,+91XXXXXXXXXX,,Delhi,IN,Seller,Generated
e851f853-060a-4ae9-aef3-17d5f80fccdc,Owner 9165,+91XXXXXXXXXX,,New York,IN,Seller,Generated
31e91037-8aa5-495c-be7e-e3dfb82c0194,Owner 9690,+91XXXXXXXXXX,,Mumbai,IN,Seller,Generated
e1a74ad7-ca9d-49d7-9e35-f07f9fe338d3,Owner 2975,+91XXXXXXXXXX,,Delhi,IN,Seller,Generated
2e1703cc-2ba6-44d2-b2c0-944c97c11af5,Owner 3652,+91XXXXXXXXXX,,London,IN,Seller,Generated
bf9c9324-8346-4607-8657-66d21260c5d3,Owner 3997,+91XXXXXXXXXX,,London,IN,Seller,Generated
0e14c0d2-9777-4c7f-b011-9596f8c8efae,Owner 975,+91XXXXXXXXXX,,Mumbai,IN,Seller,Generated
25c45aa6-5bdc-40d9-87b7-d76eb64e12c8,Owner 9433,+91XXXXXXXXXX,,Delhi,IN,Seller,Generated
23cad69a-83e7-422b-aac8-a8f31abc4624,Owner 4973,+91XXXXXXXXXX,,Mumbai,IN,Seller,Generated
0581a133-d409-4159-9ddb-11366a6c130f,Owner 1556,+91XXXXXXXXXX,,London,IN,Seller,Generated
db29eac9-2cb7-4b7c-bb6f-5d7f0478913e,Owner 7480,+91XXXXXXXXXX,,New York,IN,Seller,Generated
126e7bb2-3235-485e-a5c9-39624600b7ff,Owner 1434,+91XXXXXXXXXX,,New York,IN,Seller,Generated
eb27423d-69df-480b-8706-0832e77585ce,Owner 3608,+91XXXXXXXXXX,,London,IN,Seller,Generated
09605c60-b958-4f4c-bf34-78ddcfff60a1,Owner 5246,+91XXXXXXXXXX,,New York,IN,Seller,Generated
e8b7e9d3-6f1a-4e88-9ce0-e2dd27c6e6c6,Owner 2829,+91XXXXXXXXXX,,Mumbai,IN,Seller,Generated
08763c01-d007-4dab-9764-0cb0704a1b89,Owner 3640,+91XXXXXXXXXX,,Mumbai,IN,Seller,Generated
06d9e057-b834-4de3-91ac-dc522e4591d7,Owner 1451,+91XXXXXXXXXX,,Delhi,IN,Seller,Generated
456c38a7-1979-4c8a-8698-e7222c4e83a4,Owner 9354,+91XXXXXXXXXX,,New York,IN,Seller,Generated
5d5ee44f-f6ec-490e-876d-f38c1d9baa2d,Owner 9629,+91XXXXXXXXXX,,New York,IN,Seller,Generated
1ac213fc-1e8b-40ff-a043-33134be14981,Owner 2197,+91XXXXXXXXXX,,Delhi,IN,Seller,Generated
79cfc12b-331c-47a8-a296-4f6e24e0be2d,Owner 8232,+91XXXXXXXXXX,,New York,IN,Seller,Generated
b9f633e8-1d1d-4f50-9aa3-b42a1de26a41,Owner 1489,+91XXXXXXXXXX,,New York,IN,Seller,Generated
2dbb1c0d-8dc3-4560-a909-f891a168cd91,Owner 8138,+91XXXXXXXXXX,,Delhi,IN,Seller,Generated
fd930910-32d1-4689-9347-34d80484987d,Owner 3581,+91XXXXXXXXXX,,London,IN,Seller,Generated
eb842bf0-51dd-49d1-b6a8-9137cfefae24,Owner 8376,+91XXXXXXXXXX,,New York,IN,Seller,Generated
4e03ad13-3f2d-4e60-ac56-c84d69a94d96,Owner 8697,+91XXXXXXXXXX,,New York,IN,Seller,Generated
6fe039ec-96a2-4b9f-b320-91238dd0c807,Owner 8709,+91XXXXXXXXXX,,Mumbai,IN,Seller,Generated
60a82271-78ab-4a49-92b7-b63605aaac20,Owner 772,+91XXXXXXXXXX,,Mumbai,IN,Seller,Generated
bbd22523-056c-46bf-80b3-af8bd51909c2,Owner 9789,+91XXXXXXXXXX,,New York,IN,Seller,Generated
a8c00183-9d89-4d99-81c8-aab8d5f87647,Owner 4158,+91XXXXXXXXXX,,London,IN,Seller,Generated
19872a4d-6155-4a06-9f71-273f08c1019f,Owner 6872,+91XXXXXXXXXX,,Delhi,IN,Seller,Generated
5a1fdb15-fac7-49fe-9fef-d6196b02c004,Owner 1897,+91XXXXXXXXXX,,London,IN,Seller,Generated
e577d4a5-6030-4ab3-9aba-6ce46a5e6ce2,Owner 8648,+91XXXXXXXXXX,,New York,IN,Seller,Generated
f6974da0-9e8e-4bbf-a44a-c6eb9d80cedc,Owner 2957,+91XXXXXXXXXX,,Mumbai,IN,Seller,Generated
537f07dc-c1ba-4356-95ca-983b1dddda96,Owner 7049,+91XXXXXXXXXX,,New York,IN,Seller,Generated
f3f6f7fa-ecbc-455f-9fa3-cf98d13c170b,Owner 8924,+91XXXXXXXXXX,,London,IN,Seller,Generated
4939518b-5173-4dd5-b85d-c5c8090c5f9c,Owner 7486,+91XXXXXXXXXX,,New York,IN,Seller,Generated
2daa0700-27e7-4bf0-a5cc-b5fd37993876,Owner 4064,+91XXXXXXXXXX,,London,IN,Seller,Generated
196bef7c-c02e-4ef3-a96d-656809514773,Owner 5772,+91XXXXXXXXXX,,Mumbai,IN,Seller,Generated
729c2b1e-64a2-435f-a215-e6c22d013f5b,Owner 4550,+91XXXXXXXXXX,,New York,IN,Seller,Generated
77a01b97-f76a-439b-b5d2-371daaa29128,Owner 6117,+91XXXXXXXXXX,,Delhi,IN,Seller,Generated
9f8e06f5-15ec-4ee9-85d9-0520809b4388,Owner 7717,+91XXXXXXXXXX,,Mumbai,IN,Seller,Generated
f02d1dbe-4318-4515-9722-a22ff1ddab00,Owner 2983,+91XXXXXXXXXX,,New York,IN,Seller,Generated
b855c39b-108c-4091-bc6f-d1fbf7926e22,Owner 6351,+91XXXXXXXXXX,,Mumbai,IN,Seller,Generated
4958706c-07e3-4984-ba38-144aab01ba0e,Owner 8054,+91XXXXXXXXXX,,New York,IN,Seller,Generated
9c6e2274-c7d2-4239-bde9-3fbbfcf9602e,Owner 141,+91XXXXXXXXXX,,New York,IN,Seller,Generated
5fd756a7-52d8-4bca-81cc-f85c1a7e5d25,Owner 4449,+91XXXXXXXXXX,,Mumbai,IN,Seller,Generated
323a8666-48dc-4532-8bdf-5d517a24e4c0,Owner 8110,+91XXXXXXXXXX,,Mumbai,IN,Seller,Generated
d478b2d8-20e7-4d9c-92fb-dedba1845418,Owner 6250,+91XXXXXXXXXX,,London,IN,Seller,Generated
4af10fa6-37e2-463a-b962-15cb032171ef,Owner 9362,+91XXXXXXXXXX,,Mumbai,IN,Seller,Generated
883625cc-4a4c-4235-b8ee-4bb7dd8e9fe8,Owner 4679,+91XXXXXXXXXX,,Delhi,IN,Seller,Generated
79f676b3-2912-493a-b70d-ba22b4c3fe6c,Owner 7104,+91XXXXXXXXXX,,London,IN,Seller,Generated
80b929e0-2657-40f4-95f4-35cbbe091fb7,Owner 9131,+91XXXXXXXXXX,,Mumbai,IN,Seller,Generated
16b4301d-5f5b-4e72-8cef-6d35211f4ae4,Owner 3185,+91XXXXXXXXXX,,New York,IN,Seller,Generated
d435acc4-3706-4193-aa53-c1c22d633189,Owner 8716,+91XXXXXXXXXX,,Mumbai,IN,Seller,Generated
389b7b5b-6330-406d-af29-a823284e94e5,Owner 3764,+91XXXXXXXXXX,,London,IN,Seller,Generated
68411ce1-94a8-4ea6-a610-91f9214b63e6,Owner 8550,+91XXXXXXXXXX,,Delhi,IN,Seller,Generated
5d82f75c-6f34-44de-9a97-5a99f3614b56,Owner 71,+91XXXXXXXXXX,,New York,IN,Seller,Generated
34764613-af97-48e4-8084-57e1a6b866b0,Owner 2800,+91XXXXXXXXXX,,Mumbai,IN,Seller,Generated
a85ebbf4-5564-45ab-8447-51c200f34963,Owner 8909,+91XXXXXXXXXX,,New York,IN,Seller,Generated
b9157e74-c1b9-4258-aeb5-c05279b48eff,Owner 5137,+91XXXXXXXXXX,,Mumbai,IN,Seller,Generated
fab8276c-0a76-43b2-a340-fcf55db9616f,Owner 7923,+91XXXXXXXXXX,,New York,IN,Seller,Generated
b03a2127-4375-4a80-ac94-a1434d3dc9a2,Owner 5693,+91XXXXXXXXXX,,New York,IN,Seller,Generated
718f7606-daf6-41fb-840f-b3ce1bd32364,Owner 1445,+91XXXXXXXXXX,,New York,IN,Seller,Generated
f3dd1cad-03cd-4ee9-bbe3-a0e1e8de0d06,Owner 247,+91XXXXXXXXXX,,Delhi,IN,Seller,Generated
efc63cc9-caa1-4453-a7f0-a0a9493910b0,Owner 6507,+91XXXXXXXXXX,,Mumbai,IN,Seller,Generated
b95eeefb-b0c5-413c-8b25-2e43ef6c8c31,Owner 7588,+91XXXXXXXXXX,,London,IN,Seller,Generated
8f3f0d27-80a9-4fe2-8d38-25587513a28f,Owner 339,+91XXXXXXXXXX,,Delhi,IN,Seller,Generated
8bb24c08-257d-416b-a536-0029ff9f046c,Owner 7289,+91XXXXXXXXXX,,New York,IN,Seller,Generated
019048bc-ee41-48ab-8dd9-29a6215cd728,Owner 3315,+91XXXXXXXXXX,,New York,IN,Seller,Generated
4b21869d-5831-4ec1-bddf-232c4131f786,Owner 1312,+91XXXXXXXXXX,,New York,IN,Seller,Generated
71f64e88-4dc1-42e0-9dbc-b69bfe5887ea,Owner 6116,+91XXXXXXXXXX,,Delhi,IN,Seller,Generated
ebcc9d44-0c01-4929-9597-9a55e680ab7d,Owner 7963,+91XXXXXXXXXX,,Delhi,IN,Seller,Generated
d3c616f5-dd56-479a-9a93-40ea1c7ab608,Owner 9700,+91XXXXXXXXXX,,New York,IN,Seller,Generated
58f4aa85-c5b9-46a6-a497-d5e180f8c811,Owner 4864,+91XXXXXXXXXX,,Mumbai,IN,Seller,Generated
6ea4da07-59be-47f9-b7e8-c825b30cf99d,Owner 360,+91XXXXXXXXXX,,New York,IN,Seller,Generated
152d7d77-57ab-4903-b1d3-2706d0a4f25b,Owner 5997,+91XXXXXXXXXX,,Delhi,IN,Seller,Generated
50cd944e-9e23-4c14-86f1-d5a8e77a746e,Owner 6502,+91XXXXXXXXXX,,Mumbai,IN,Seller,Generated
7a5a33b3-e63f-48e9-a410-5da7474cd7fd,Owner 4284,+91XXXXXXXXXX,,London,IN,Seller,Generated
b5bbaa3b-40d4-42e9-8e85-0651590b571d,Owner 989,+91XXXXXXXXXX,,New York,IN,Seller,Generated
57ee6468-94d7-4649-996d-4e54d48c59d7,Owner 4324,+91XXXXXXXXXX,,New York,IN,Seller,Generated
09909646-7c9b-4c1e-bc4b-78172b14ca5d,Owner 2688,+91XXXXXXXXXX,,London,IN,Seller,Generated
d0a39ddb-5823-4dae-a085-51d3b85ee1fd,Owner 3239,+91XXXXXXXXXX,,Mumbai,IN,Seller,Generated
1f63145b-07b2-4446-9ef0-c501f8376832,Owner 3998,+91XXXXXXXXXX,,London,IN,Seller,Generated
5b229883-fcbc-4602-b734-ebd82967bb6c,Owner 1727,+91XXXXXXXXXX,,New York,IN,Seller,Generated
dba66ce6-8618-4ff3-83d8-9918ab01a16d,Owner 7733,+91XXXXXXXXXX,,Delhi,IN,Seller,Generated
34fe2250-993c-4d75-aa74-eb49fb8026c4,Owner 2611,+91XXXXXXXXXX,,London,IN,Seller,Generated
a6c5cd87-34a9-4e34-99e8-ed7a0db764c0,Owner 4136,+91XXXXXXXXXX,,New York,IN,Seller,Generated
a11c22dc-98d8-4ce5-8832-cbfa5adc3795,Owner 2800,+91XXXXXXXXXX,,Mumbai,IN,Seller,Generated
13bfb2dd-dbfc-43ff-933a-7ed8d9ab3c31,Owner 9023,+91XXXXXXXXXX,,Delhi,IN,Seller,Generated
36600bc4-03dd-4bec-998f-88e9f21cb540,Owner 6334,+91XXXXXXXXXX,,Mumbai,IN,Seller,Generated
948b2462-6e39-40dd-b95d-c0d3af8665ae,Owner 7625,+91XXXXXXXXXX,,Delhi,IN,Seller,Generated
b7d4e4e3-275c-4876-9367-6d78a05435a1,Owner 8964,+91XXXXXXXXXX,,Delhi,IN,Seller,Generated
3bb6800d-e6ba-4a5f-a68c-6ca083292182,Owner 1552,+91XXXXXXXXXX,,New York,IN,Seller,Generated
777ba64f-723f-43e7-acea-7e660c442a2a,Owner 1950,+91XXXXXXXXXX,,Mumbai,IN,Seller,Generated
4a1fb993-9e34-4ce8-a34d-b555f4e192ba,Owner 9022,+91XXXXXXXXXX,,Mumbai,IN,Seller,Generated
dcd723f1-beca-45ec-861d-6d01efa81b7a,Owner 5054,+91XXXXXXXXXX,,London,IN,Seller,Generated
bbae40a1-cead-4ca6-ba00-b496e19d2d07,Owner 7168,+91XXXXXXXXXX,,Mumbai,IN,Seller,Generated
5691bf50-dbc4-431d-8f6d-f4276592bee0,Owner 1239,+91XXXXXXXXXX,,Mumbai,IN,Seller,Generated
38a3addf-7cc9-491a-bd54-95842034bd8a,Owner 2974,+91XXXXXXXXXX,,London,IN,Seller,Generated
c0127fee-7ef4-4338-a29e-6f6eb8e338af,Owner 3882,+91XXXXXXXXXX,,Mumbai,IN,Seller,Generated
d56df546-ebb7-471b-b96b-6692e4bc6ce1,Owner 4580,+91XXXXXXXXXX,,Delhi,IN,Seller,Generated
0cb5836d-802b-4883-9ea7-c79b790bfc2f,Owner 7012,+91XXXXXXXXXX,,Mumbai,IN,Seller,Generated
62711571-77bb-404f-a99b-8cef2d81f1c5,Owner 2386,+91XXXXXXXXXX,,London,IN,Seller,Generated
79961c99-b7a0-4bc2-88e1-0a019e168007,Owner 805,+91XXXXXXXXXX,,Mumbai,IN,Seller,Generated
a0da1460-ae3a-4dc9-a782-73b24a1d4bf8,Owner 7994,+91XXXXXXXXXX,,Delhi,IN,Seller,Generated
fc43a72f-334f-4c55-903a-fa66d745a915,Owner 186,+91XXXXXXXXXX,,London,IN,Seller,Generated
068a6991-884c-4cc3-b75d-d786d9930d04,Owner 3943,+91XXXXXXXXXX,,Delhi,IN,Seller,Generated
c4f266d3-68a2-469d-a2f7-d3342f10fcec,Owner 8376,+91XXXXXXXXXX,,New York,IN,Seller,Generated
b5a32ff5-656c-479c-bd17-12ac1904e24d,Owner 2136,+91XXXXXXXXXX,,London,IN,Seller,Generated
cf2e0523-99c9-44d3-bcb6-337b84ae065d,Owner 7118,+91XXXXXXXXXX,,London,IN,Seller,Generated
5dd89fdc-bc56-4e3f-9837-eb388f9cab60,Owner 5277,+91XXXXXXXXXX,,Delhi,IN,Seller,Generated
f32a5e48-c26b-49b9-ac39-0b9737c38d0b,Owner 1351,+91XXXXXXXXXX,,Delhi,IN,Seller,Generated
48c6c729-43b1-4534-9629-a46f58be3a3d,Owner 9985,+91XXXXXXXXXX,,Mumbai,IN,Seller,Generated
f57eefdb-ffba-4cda-8913-827bacb12e10,Owner 6492,+91XXXXXXXXXX,,Delhi,IN,Seller,Generated
0baa9b3c-ba86-4dee-9fa3-9bdcded9e335,Owner 3398,+91XXXXXXXXXX,,Mumbai,IN,Seller,Generated
09324bca-6080-4737-866e-8427a19deaf3,Owner 9212,+91XXXXXXXXXX,,Delhi,IN,Seller,Generated
cbeae04a-a427-4b84-afaa-d8f8ffe388fb,Owner 773,+91XXXXXXXXXX,,New York,IN,Seller,Generated
9c5c50af-6dc7-4bc6-842e-fbf5beb54b05,Owner 2377,+91XXXXXXXXXX,,Delhi,IN,Seller,Generated
8745ee91-2556-466d-9514-46677579f4b9,Owner 3948,+91XXXXXXXXXX,,Delhi,IN,Seller,Generated
06a1884d-4180-4422-8d65-3080d1c7a6a3,Owner 4339,+91XXXXXXXXXX,,London,IN,Seller,Generated
ccce9c38-d6b3-4f4c-b731-cacfb511e66e,Owner 6667,+91XXXXXXXXXX,,London,IN,Seller,Generated
faafbaec-eef1-4468-8aca-6b851b1026b7,Owner 7340,+91XXXXXXXXXX,,Delhi,IN,Seller,Generated
b3f8ce4b-4719-47e7-86f1-510161c9fc5e,Owner 8360,+91XXXXXXXXXX,,New York,IN,Seller,Generated
d40ecfb5-42bc-42a1-a962-31e9fff29bdc,Owner 417,+91XXXXXXXXXX,,Mumbai,IN,Seller,Generated
ede91777-fb75-4904-8231-22939b4c2873,Owner 9981,+91XXXXXXXXXX,,Delhi,IN,Seller,Generated
048e656f-ebe7-42c3-a773-7dee50b5ee69,Owner 1927,+91XXXXXXXXXX,,New York,IN,Seller,Generated
92f05630-e9a7-473c-a198-ad8d49ffe68a,Owner 8153,+91XXXXXXXXXX,,London,IN,Seller,Generated
8836a99b-e0a7-44d5-adcb-984b8b771db4,Owner 1295,+91XXXXXXXXXX,,Delhi,IN,Seller,Generated
ecdd7535-44be-4e48-b606-6e2639762fce,Owner 4244,+91XXXXXXXXXX,,Mumbai,IN,Seller,Generated
a1b635b9-9bfd-4685-80fb-633d089dea0e,Owner 30,+91XXXXXXXXXX,,Delhi,IN,Seller,Generated
379ae66a-96a4-48f0-a790-8469cd05443e,Owner 7910,+91XXXXXXXXXX,,Mumbai,IN,Seller,Generated
9c6b6a12-b3ae-4f95-ae1b-324baf1d0a0f,Owner 72,+91XXXXXXXXXX,,London,IN,Seller,Generated
2ca29fc6-97ad-4c32-a32b-e3dcee61eadb,Owner 8000,+91XXXXXXXXXX,,Mumbai,IN,Seller,Generated
b67c27d3-1c73-4d9d-a6bd-8c285a77982d,Owner 5311,+91XXXXXXXXXX,,Delhi,IN,Seller,Generated
58ddf68e-a941-4a11-a874-cb8c86a3d36e,Owner 5572,+91XXXXXXXXXX,,London,IN,Seller,Generated
7734a627-53a0-41cd-976f-ff31a3ed04a5,Owner 7925,+91XXXXXXXXXX,,London,IN,Seller,Generated
0df552f6-e758-4e8b-b2a5-8c7b7099946b,Owner 692,+91XXXXXXXXXX,,New York,IN,Seller,Generated
a63af211-f98a-4174-adf7-cf944c89386c,Owner 2346,+91XXXXXXXXXX,,Mumbai,IN,Seller,Generated
7cf69282-c62e-4275-b388-6775d8c2c729,Owner 8035,+91XXXXXXXXXX,,Mumbai,IN,Seller,Generated
81cc2718-c692-48ea-8827-919ead8f86f5,Owner 8810,+91XXXXXXXXXX,,New York,IN,Seller,Generated
a2b237a0-899a-47c2-a902-0aaeb637e14d,Owner 8967,+91XXXXXXXXXX,,New York,IN,Seller,Generated
1d7882e9-1b20-4893-9820-0af57e9086f5,Owner 3791,+91XXXXXXXXXX,,Mumbai,IN,Seller,Generated
5360415e-2de3-410b-b6a1-165d0fbf37f6,Owner 4462,+91XXXXXXXXXX,,New York,IN,Seller,Generated
2e1c8df5-1b5b-4752-a42b-eb7453ae3b84,Owner 4421,+91XXXXXXXXXX,,New York,IN,Seller,Generated
8369c9ee-e95b-445c-a79f-50afdbd282af,Owner 1905,+91XXXXXXXXXX,,Delhi,IN,Seller,Generated
c2549372-f581-45a9-bed9-9beecd863c31,Owner 8762,+91XXXXXXXXXX,,New York,IN,Seller,Generated
cf695ccc-4d2d-425e-84f3-13ec384137d9,Owner 2312,+91XXXXXXXXXX,,Delhi,IN,Seller,Generated
b80b6496-f44a-463a-b63b-32da03836582,Owner 6541,+91XXXXXXXXXX,,Mumbai,IN,Seller,Generated
60bb9d9b-fa2f-41f3-83f7-613863118cdb,Owner 7319,+91XXXXXXXXXX,,London,IN,Seller,Generated
79969288-c442-42d7-b072-caf44421a179,Owner 3348,+91XXXXXXXXXX,,London,IN,Seller,Generated
d96c3649-42a1-4b63-b564-8e6f396f0c20,Owner 769,+91XXXXXXXXXX,,Mumbai,IN,Seller,Generated
9898fe12-5086-4216-b823-983b37762dfe,Owner 2437,+91XXXXXXXXXX,,Mumbai,IN,Seller,Generated
067e22d4-b002-4015-9872-e288b1c4b964,Owner 3669,+91XXXXXXXXXX,,London,IN,Seller,Generated
e2ea8d1c-6188-433b-b7b8-8898d2ad6352,Owner 939,+91XXXXXXXXXX,,New York,IN,Seller,Generated
e26fbe82-20ee-4825-b5ac-4a0cb197da57,Owner 4856,+91XXXXXXXXXX,,Mumbai,IN,Seller,Generated
37a43b7a-da63-43f7-b9bb-f6f22a59c105,Owner 2933,+91XXXXXXXXXX,,Delhi,IN,Seller,Generated
434ff201-2dff-4737-b7a6-deb36b3551ed,Owner 6280,+91XXXXXXXXXX,,Mumbai,IN,Seller,Generated
6505c0bc-2437-4274-adbe-403f7a297b86,Owner 6547,+91XXXXXXXXXX,,New York,IN,Seller,Generated
37d5b672-9d09-497c-a9a4-d3ee367dc886,Owner 263,+91XXXXXXXXXX,,New York,IN,Seller,Generated
c374dda6-4695-421c-b434-c5b9891ba8c5,Owner 8216,+91XXXXXXXXXX,,Mumbai,IN,Seller,Generated
e73ded33-1bf3-4a4c-a8e8-43458e128a35,Owner 4286,+91XXXXXXXXXX,,London,IN,Seller,Generated
f0b3d6a5-143e-47e5-a85d-37b24902a5eb,Owner 8264,+91XXXXXXXXXX,,Mumbai,IN,Seller,Generated
dcc1d15d-9647-407b-8664-8c465ba13758,Owner 5876,+91XXXXXXXXXX,,Mumbai,IN,Seller,Generated
e9010daf-8807-492b-9d73-af994309f257,Owner 8557,+91XXXXXXXXXX,,Delhi,IN,Seller,Generated
b6f7d5f8-30d3-496e-b6d2-cb06a09202d0,Owner 4580,+91XXXXXXXXXX,,Delhi,IN,Seller,Generated
421cf770-4da5-4736-ae3f-a25807daf21e,Owner 576,+91XXXXXXXXXX,,Delhi,IN,Seller,Generated
9cab240f-0897-4ab6-a998-525d06e8a9bd,Owner 9754,+91XXXXXXXXXX,,Mumbai,IN,Seller,Generated
36602da2-a432-4ada-86e4-9a68e883fdfb,Owner 759,+91XXXXXXXXXX,,Mumbai,IN,Seller,Generated
e17f293a-e674-448f-8fbf-c958668a9e19,Owner 8603,+91XXXXXXXXXX,,London,IN,Seller,Generated
76f962bc-845d-49c8-87e1-ee24266ca70c,Owner 159,+91XXXXXXXXXX,,New York,IN,Seller,Generated
1277379a-87ef-45e0-ad7f-bca70b22ea1a,Owner 179,+91XXXXXXXXXX,,New York,IN,Seller,Generated
8479a1dd-7f3f-432e-a01f-6bd527d38297,Owner 7345,+91XXXXXXXXXX,,Delhi,IN,Seller,Generated
174edde1-77db-4522-8221-ae1c56af3758,Owner 4672,+91XXXXXXXXXX,,Mumbai,IN,Seller,Generated
91a307fa-4df9-40b9-8607-91df9407d2e7,Owner 90,+91XXXXXXXXXX,,New York,IN,Seller,Generated
e4550bce-42da-485b-87cb-03bfadc61193,Owner 4641,+91XXXXXXXXXX,,New York,IN,Seller,Generated
a087638e-3b45-4162-85fd-457e3c581045,Owner 6878,+91XXXXXXXXXX,,London,IN,Seller,Generated
d1689271-514c-48df-a453-3f96e3d4b6ae,Owner 9557,+91XXXXXXXXXX,,New York,IN,Seller,Generated
1711a847-8d52-449e-baea-e9db1c875b22,Owner 8246,+91XXXXXXXXXX,,New York,IN,Seller,Generated
cfac1b1d-f74e-4db9-b263-f416345f7802,Owner 1953,+91XXXXXXXXXX,,Mumbai,IN,Seller,Generated
c38fdd7a-c0e7-448a-8c65-0c20d3e6cde8,Owner 2742,+91XXXXXXXXXX,,London,IN,Seller,Generated
1be1c1f4-f3d6-4f63-9b1b-2cdbaeb57aa2,Owner 1946,+91XXXXXXXXXX,,Mumbai,IN,Seller,Generated
533b94cc-5337-4c28-9cf0-3b1eb89dfaf1,Owner 8166,+91XXXXXXXXXX,,London,IN,Seller,Generated
bd41f6c0-59f2-4c60-8887-fa812da6f2c6,Owner 2120,+91XXXXXXXXXX,,New York,IN,Seller,Generated
2e338987-e99b-4df7-9700-9f11a6e2d174,Owner 926,+91XXXXXXXXXX,,Delhi,IN,Seller,Generated
724a68fa-08fc-448c-b995-8402ebc68260,Owner 7724,+91XXXXXXXXXX,,New York,IN,Seller,Generated
f9cf8adf-5e2c-4398-b30c-093e83fc4006,Owner 8950,+91XXXXXXXXXX,,Delhi,IN,Seller,Generated
68384416-7f37-419b-bbc8-e9546e0c513a,Owner 8573,+91XXXXXXXXXX,,New York,IN,Seller,Generated
3407a7b4-3583-4d3c-9d37-27409ecd2517,Owner 1200,+91XXXXXXXXXX,,London,IN,Seller,Generated
ba965c97-8dde-4fad-8e28-d826ea1ea029,Owner 5993,+91XXXXXXXXXX,,New York,IN,Seller,Generated
63c5ab58-5810-4a69-8327-0660a6f9832f,Owner 8861,+91XXXXXXXXXX,,New York,IN,Seller,Generated
f7df5402-85ca-48ac-86de-1712e0efe5a7,Owner 9260,+91XXXXXXXXXX,,New York,IN,Seller,Generated
fbb254a5-1be3-4edd-8f7b-96d3e5e72dd7,Owner 617,+91XXXXXXXXXX,,London,IN,Seller,Generated
8d0169c9-c4a5-487a-b275-877c2eeb42fb,Owner 2635,+91XXXXXXXXXX,,London,IN,Seller,Generated
ccd340cd-2a74-4dd7-907c-73a2bdb5f2e2,Owner 6484,+91XXXXXXXXXX,,New York,IN,Seller,Generated
cb4bbe7f-7e87-4d30-824c-02af4ac608e8,Owner 9917,+91XXXXXXXXXX,,Mumbai,IN,Seller,Generated
d8df9905-ef9e-4481-ba9a-26504da4ec54,Owner 5943,+91XXXXXXXXXX,,London,IN,Seller,Generated
44dc7529-7734-40f4-9fa1-0aa25c9266c0,Owner 2447,+91XXXXXXXXXX,,New York,IN,Seller,Generated
c39f9f4d-0410-4013-8a87-0683de061561,Owner 693,+91XXXXXXXXXX,,Delhi,IN,Seller,Generated
5ebc8a69-abaa-4917-8729-0c3d285d7413,Owner 5605,+91XXXXXXXXXX,,London,IN,Seller,Generated
179f9304-cd9b-4922-a22c-8ebb25650fc2,Owner 1721,+91XXXXXXXXXX,,London,IN,Seller,Generated
89107494-7e39-48b1-9ed0-53a11404f203,Owner 5188,+91XXXXXXXXXX,,London,IN,Seller,Generated
d734dff8-a71f-4ff1-b024-daeab704dbec,Owner 5720,+91XXXXXXXXXX,,London,IN,Seller,Generated
f72303ba-c85d-45be-a8ba-9c3b4a234f62,Owner 2833,+91XXXXXXXXXX,,Mumbai,IN,Seller,Generated
7f0a6e63-4c67-4efe-b3c8-f5804bfd2d0f,Owner 9381,+91XXXXXXXXXX,,New York,IN,Seller,Generated
a5cf00d8-ff07-4215-adbe-54ed98e79741,Owner 6466,+91XXXXXXXXXX,,Mumbai,IN,Seller,Generated
1d81f4c1-d8c4-4599-9c22-6e91af14df75,Owner 3165,+91XXXXXXXXXX,,Mumbai,IN,Seller,Generated
b5a8c645-7410-4548-b4c5-93ad1e45d410,Owner 2458,+91XXXXXXXXXX,,Delhi,IN,Seller,Generated
4e75dffb-bda8-44d5-ace4-72e408066b66,Owner 8231,+91XXXXXXXXXX,,New York,IN,Seller,Generated
5807839d-02db-43da-9236-af79693c2ca0,Owner 8581,+91XXXXXXXXXX,,London,IN,Seller,Generated
10fd7ba8-1c3f-4a4d-bf50-c6f98d7b17ca,Owner 7636,+91XXXXXXXXXX,,London,IN,Seller,Generated
84ba9e92-28b1-490c-bba1-15c7a21a8cda,Owner 7458,+91XXXXXXXXXX,,London,IN,Seller,Generated
d87c446a-03e7-4594-aba3-b0ebd3766896,Owner 1452,+91XXXXXXXXXX,,London,IN,Seller,Generated
01edba4f-7afd-4035-b354-acdf4ef7779c,Owner 8349,+91XXXXXXXXXX,,London,IN,Seller,Generated
ebe2d43f-ef0b-491e-a02c-61db54550862,Owner 1030,+91XXXXXXXXXX,,New York,IN,Seller,Generated
626c1189-d4d9-4c40-8a1b-7d5ce7b3fe7c,Owner 9853,+91XXXXXXXXXX,,Mumbai,IN,Seller,Generated
baca04f4-b187-4610-aad6-c9481bc71efb,Owner 753,+91XXXXXXXXXX,,New York,IN,Seller,Generated
96d763a2-70db-464a-bf49-982fc1c4e17c,Owner 4687,+91XXXXXXXXXX,,London,IN,Seller,Generated
4e269119-5a32-4fb7-9d59-40026aad4cb3,Owner 6897,+91XXXXXXXXXX,,Mumbai,IN,Seller,Generated
b68364f8-bf28-4dcb-ad11-0170e197a23a,Owner 53,+91XXXXXXXXXX,,London,IN,Seller,Generated
7ecd790d-0ee1-4104-ab9d-40397c56a88f,Owner 4593,+91XXXXXXXXXX,,Delhi,IN,Seller,Generated
389ff4be-9e8d-4734-9fcb-8d7fb90a0db0,Owner 4830,+91XXXXXXXXXX,,Delhi,IN,Seller,Generated
2e65075d-dc82-4893-ae10-8c110ee1d208,Owner 4918,+91XXXXXXXXXX,,London,IN,Seller,Generated
374f4428-06c8-487b-8c81-bd55ced597ab,Owner 6925,+91XXXXXXXXXX,,New York,IN,Seller,Generated
bfbdfcf9-a611-40ce-96d7-213ff38a8c88,Owner 6255,+91XXXXXXXXXX,,New York,IN,Seller,Generated
5f879cba-ae5f-4e3a-a503-8d324f8ee2a1,Owner 6259,+91XXXXXXXXXX,,Mumbai,IN,Seller,Generated
6c36c0a2-fb79-44d4-ae66-ee8dbdac4c5e,Owner 9611,+91XXXXXXXXXX,,Delhi,IN,Seller,Generated
d3162252-8f21-4f7f-899e-78def8d135d3,Owner 7168,+91XXXXXXXXXX,,New York,IN,Seller,Generated
278c102e-7af5-462c-83bd-f5c8323e08b9,Owner 5121,+91XXXXXXXXXX,,New York,IN,Seller,Generated
4cc01c16-7e09-4eed-903c-09087274c39f,Owner 1669,+91XXXXXXXXXX,,Delhi,IN,Seller,Generated
cfac91a0-b080-4a3a-a6e4-c98c2e8a0a2c,Owner 4363,+91XXXXXXXXXX,,Mumbai,IN,Seller,Generated
071cb697-10e4-4d8f-9000-8b3ac045e907,Owner 5495,+91XXXXXXXXXX,,Delhi,IN,Seller,Generated
d8595d18-9e4d-4ef3-96c6-a1f6e54595f0,Owner 8640,+91XXXXXXXXXX,,London,IN,Seller,Generated
5ca6f828-654b-4870-b71c-b4153d2155a9,Owner 8118,+91XXXXXXXXXX,,Mumbai,IN,Seller,Generated
386f3862-1190-4a4f-8606-ad1f735aedf5,Owner 5631,+91XXXXXXXXXX,,New York,IN,Seller,Generated
06bb07c7-4a4d-490d-adaf-ced7ccfb5a38,Owner 2092,+91XXXXXXXXXX,,Mumbai,IN,Seller,Generated
978fd31d-ca20-4ee9-af18-a5d13da91e78,Owner 4371,+91XXXXXXXXXX,,Delhi,IN,Seller,Generated
55ac4336-cf62-4d9f-a95c-5f5d5ee7a0d0,Owner 4861,+91XXXXXXXXXX,,Delhi,IN,Seller,Generated
78c84c13-cab2-4f35-90aa-88c28360185a,Owner 7800,+91XXXXXXXXXX,,Mumbai,IN,Seller,Generated
d9111b55-41f5-4d47-904a-27868820e872,Owner 8023,+91XXXXXXXXXX,,London,IN,Seller,Generated
b688b181-ebf2-46f3-9930-83df5fbfb43c,Owner 4179,+91XXXXXXXXXX,,New York,IN,Seller,Generated
9a99fda2-8761-44be-99f6-3366765fd49e,Owner 3109,+91XXXXXXXXXX,,Delhi,IN,Seller,Generated
0e1a0ce3-7964-40ed-b5c3-d617eb9510d1,Owner 3196,+91XXXXXXXXXX,,Delhi,IN,Seller,Generated
f4c57ce5-d37c-4ebe-b442-02695c9517c4,Owner 8102,+91XXXXXXXXXX,,London,IN,Seller,Generated
379f172d-ed87-4297-85e4-46d1fb2a0adb,Owner 9289,+91XXXXXXXXXX,,Mumbai,IN,Seller,Generated
ec4494c5-1bbf-456e-9325-b217ba5b8216,Owner 645,+91XXXXXXXXXX,,Delhi,IN,Seller,Generated
4e169d3b-4095-4bd1-934c-0a3827b8f4b5,Owner 1542,+91XXXXXXXXXX,,London,IN,Seller,Generated
972ef510-8c51-4592-91df-f35f302f2b3c,Owner 9054,+91XXXXXXXXXX,,Mumbai,IN,Seller,Generated
c1ce7ee8-6920-4ffd-abea-f51af2fa0789,Owner 1160,+91XXXXXXXXXX,,Mumbai,IN,Seller,Generated
31b328ad-3c8b-474d-8eab-c32063a71f4a,Owner 6633,+91XXXXXXXXXX,,Delhi,IN,Seller,Generated
a0b5a18a-5f6c-4b38-b063-a7040a0265b8,Owner 1150,+91XXXXXXXXXX,,Mumbai,IN,Seller,Generated
cd8fd020-fba0-48f3-b7b4-5f2e4cb2854a,Owner 7991,+91XXXXXXXXXX,,Delhi,IN,Seller,Generated
97bfd996-155e-42be-b223-bce3fa2183ef,Owner 5058,+91XXXXXXXXXX,,Mumbai,IN,Seller,Generated
6e67bdfb-2cbb-4a44-b716-10eb24c6ddfb,Owner 1344,+91XXXXXXXXXX,,Delhi,IN,Seller,Generated
d78a4049-b64b-4163-aaae-e46bfdaadf79,Owner 9406,+91XXXXXXXXXX,,Delhi,IN,Seller,Generated
5a915328-dd4e-4b8d-9259-0935c6320817,Owner 2923,+91XXXXXXXXXX,,New York,IN,Seller,Generated
fd1d3ea6-3adc-4fa0-abd2-2e3ab972c69e,Owner 4879,+91XXXXXXXXXX,,Mumbai,IN,Seller,Generated
51d0300b-50b7-433a-a012-27ba0a3a2c13,Owner 6081,+91XXXXXXXXXX,,Mumbai,IN,Seller,Generated
903f5b2b-41c1-44af-9e9a-c8084fa29cf5,Owner 4456,+91XXXXXXXXXX,,Mumbai,IN,Seller,Generated
309c4d77-b1d1-4b05-818a-5d0497ea3055,Owner 9843,+91XXXXXXXXXX,,Mumbai,IN,Seller,Generated
9367dd2d-ee70-4be5-b170-bab95b5c1510,Owner 8606,+91XXXXXXXXXX,,London,IN,Seller,Generated
4f2efb10-d531-4da3-b978-dc6dd8b4e101,Owner 9995,+91XXXXXXXXXX,,London,IN,Seller,Generated
80d857a8-d3d9-43c7-a7ab-25b0da44a2de,Owner 62,+91XXXXXXXXXX,,Delhi,IN,Seller,Generated
f3b05276-f8e0-43a5-9526-8d11fe434bfc,Owner 1522,+91XXXXXXXXXX,,Delhi,IN,Seller,Generated
9994bc1a-3403-40b9-95d8-b43d20ac3600,Owner 18,+91XXXXXXXXXX,,London,IN,Seller,Generated
1410f687-4039-4330-ac42-9c4ac38c3e9b,Owner 2931,+91XXXXXXXXXX,,Delhi,IN,Seller,Generated
3015513b-fe9d-4385-a6ba-0f07dbb17a3b,Owner 9309,+91XXXXXXXXXX,,Delhi,IN,Seller,Generated
0ddbb764-c738-4c9d-ab31-ae3ffeeedd14,Owner 7424,+91XXXXXXXXXX,,Delhi,IN,Seller,Generated
4b7d6cd5-88a7-4e6c-86a1-0d3fd3e435f9,Owner 8895,+91XXXXXXXXXX,,New York,IN,Seller,Generated
af5f9ec0-b374-4ad2-8fc0-8dc86e60a656,Owner 9510,+91XXXXXXXXXX,,Mumbai,IN,Seller,Generated
6ba805e5-b1b6-4490-b0bf-e7ca9d1c2f2a,Owner 5090,+91XXXXXXXXXX,,London,IN,Seller,Generated
e5912f08-e55c-4320-bc17-e786530827e0,Owner 1817,+91XXXXXXXXXX,,New York,IN,Seller,Generated
e2272bf7-ea68-4d24-8127-800ff1d25809,Owner 6952,+91XXXXXXXXXX,,London,IN,Seller,Generated
d7710b23-fffd-4d55-a9bd-7ee32074211c,Owner 3050,+91XXXXXXXXXX,,London,IN,Seller,Generated
266821a2-9de4-4589-a477-875af9eb80a0,Owner 6426,+91XXXXXXXXXX,,Mumbai,IN,Seller,Generated
d9c72203-2659-482f-9ffb-1604856141a7,Owner 8857,+91XXXXXXXXXX,,London,IN,Seller,Generated
fab3817a-b931-4977-aa1b-5057e53dd47b,Owner 9474,+91XXXXXXXXXX,,Delhi,IN,Seller,Generated
bff703c3-9cb7-48a5-b694-d47b3f7280a9,Owner 7144,+91XXXXXXXXXX,,London,IN,Seller,Generated
8b4f5031-305b-49eb-ad22-1fbadd6a368b,Owner 3428,+91XXXXXXXXXX,,London,IN,Seller,Generated
5b5a9881-26de-4c7b-a1d3-62910abf2bed,Owner 1503,+91XXXXXXXXXX,,New York,IN,Seller,Generated
5dc48c98-f3de-4c34-a355-625aa4a93101,Owner 5635,+91XXXXXXXXXX,,Mumbai,IN,Seller,Generated
55641082-b533-4db2-8fb7-536002024101,Owner 2202,+91XXXXXXXXXX,,New York,IN,Seller,Generated
9f5cae68-1b5a-4189-9046-3054d00a54cb,Owner 9853,+91XXXXXXXXXX,,London,IN,Seller,Generated
231bcfc5-9678-40d6-a0b2-f2c4dfe989c9,Owner 6912,+91XXXXXXXXXX,,New York,IN,Seller,Generated
56bfa48a-7abc-4361-8cec-9ce4ddf238e5,Owner 2242,+91XXXXXXXXXX,,Mumbai,IN,Seller,Generated
220ce495-9402-4697-a4c3-895638d281ba,Owner 9970,+91XXXXXXXXXX,,Delhi,IN,Seller,Generated
30fbee00-ae8f-4579-92f1-654aff9f2cc0,Owner 9131,+91XXXXXXXXXX,,Mumbai,IN,Seller,Generated
37847ec4-4e46-40a9-806a-4ef5e5fcedf7,Owner 6709,+91XXXXXXXXXX,,Mumbai,IN,Seller,Generated
261b05c5-4cc0-43d8-8e3d-9aef3b1b0770,Owner 2698,+91XXXXXXXXXX,,New York,IN,Seller,Generated
73b384e3-b561-425c-b037-219579565635,Owner 8563,+91XXXXXXXXXX,,New York,IN,Seller,Generated
77b4b9d4-cfe6-4afd-935f-e296a6f40396,Owner 731,+91XXXXXXXXXX,,New York,IN,Seller,Generated
417ffab1-560b-4977-a0e1-bd88ceec9474,Owner 7407,+91XXXXXXXXXX,,Delhi,IN,Seller,Generated
29e152b1-9bf9-4f88-9935-a20cbf01036f,Owner 5474,+91XXXXXXXXXX,,Delhi,IN,Seller,Generated
5b62b6e8-0da0-46b2-95b4-49ee9f20b9f6,Owner 2318,+91XXXXXXXXXX,,New York,IN,Seller,Generated
78a1af15-2707-4ef0-bb6c-4c57803a061c,Owner 7431,+91XXXXXXXXXX,,New York,IN,Seller,Generated
bd81e83a-b2a7-4af7-8cc7-d0b1b1af2e87,Owner 5175,+91XXXXXXXXXX,,Mumbai,IN,Seller,Generated
59ef8f05-ac64-464f-8bc3-82a459955ba8,Owner 4914,+91XXXXXXXXXX,,Delhi,IN,Seller,Generated
1092df82-08f5-4132-b0c1-bf5c9202c818,Owner 5794,+91XXXXXXXXXX,,Delhi,IN,Seller,Generated
a5659899-6105-411d-bc7f-da4bf9b0cd2b,Owner 1769,+91XXXXXXXXXX,,Delhi,IN,Seller,Generated
e6e6f513-219a-4549-8935-fd730541563f,Owner 7922,+91XXXXXXXXXX,,New York,IN,Seller,Generated
9fb09f4f-03a5-4abd-a8e0-0497d35afc4e,Owner 4425,+91XXXXXXXXXX,,Delhi,IN,Seller,Generated
caf644be-4731-47f8-8bbf-3cd2813ce30e,Owner 4262,+91XXXXXXXXXX,,Mumbai,IN,Seller,Generated
abcaf2c9-c55b-45b4-9582-93d8f692f1d5,Owner 179,+91XXXXXXXXXX,,Mumbai,IN,Seller,Generated
44941d6a-6a3c-4828-af5d-3abef41e1f78,Owner 8521,+91XXXXXXXXXX,,London,IN,Seller,Generated
7e907e5e-690f-4e00-930d-155f567ce1ce,Owner 6802,+91XXXXXXXXXX,,New York,IN,Seller,Generated
a2818c50-fea6-463a-9680-f6a1411f6614,Owner 364,+91XXXXXXXXXX,,Delhi,IN,Seller,Generated
b99300a0-328f-43a3-ac49-77131f656e5c,Owner 3223,+91XXXXXXXXXX,,New York,IN,Seller,Generated
4f513f89-16b9-4d33-9b09-c8ed2f577011,Owner 1803,+91XXXXXXXXXX,,London,IN,Seller,Generated
ee135c91-e51a-41cb-97e1-48c179036628,Owner 6464,+91XXXXXXXXXX,,New York,IN,Seller,Generated
0470d094-111e-4092-b326-22056ec5ef82,Owner 4371,+91XXXXXXXXXX,,Mumbai,IN,Seller,Generated
3fe6f418-77a3-441a-996f-72c960229585,Owner 5256,+91XXXXXXXXXX,,London,IN,Seller,Generated
20bc0cb3-f4a5-4f47-9e3a-efbf897dd1b0,Owner 9795,+91XXXXXXXXXX,,London,IN,Seller,Generated
617a4a06-ac2c-4ef3-829f-820f68dc8fd0,Owner 8582,+91XXXXXXXXXX,,London,IN,Seller,Generated
5e8bc6e8-b924-4f93-94df-abb338cd40fd,Owner 9003,+91XXXXXXXXXX,,Mumbai,IN,Seller,Generated
489f42a7-0804-4275-be26-888e82b43d12,Owner 4410,+91XXXXXXXXXX,,Delhi,IN,Seller,Generated
ce3598ef-7703-4740-928a-56d1132a881a,Owner 5248,+91XXXXXXXXXX,,London,IN,Seller,Generated
f537fcfa-0a0e-4763-b33f-53e48cd49e22,Owner 5844,+91XXXXXXXXXX,,London,IN,Seller,Generated
facccc5b-541c-43c8-8678-30248c22b616,Owner 7843,+91XXXXXXXXXX,,London,IN,Seller,Generated
869285b2-f293-42f9-9eef-0353cfcb4b08,Owner 1383,+91XXXXXXXXXX,,London,IN,Seller,Generated
5830b9dc-a119-455d-b380-333158c8108b,Owner 1287,+91XXXXXXXXXX,,Mumbai,IN,Seller,Generated
