lead_id,name,phone,email,city,country,type,notes
1daacaf2-a7c4-47e2-9268-cd158b68a266,Owner 5458,+91XXXXXXXXXX,,New York,IN,Seller,Generated
f0829563-f7c0-47f3-a3cb-be86279c9020,Owner 9806,+91XXXXXXXXXX,,Delhi,IN,Seller,Generated
5e1b5eb6-56bc-447a-beab-784b86b5649e,Owner 9598,+91XXXXXXXXXX,,London,IN,Seller,Generated
9d3edcc4-512f-442e-a8c7-a6372cf82817,Owner 2173,+91XXXXXXXXXX,,New York,IN,Seller,Generated
f12a4503-2a70-43b9-b8b6-c0bb8344e345,Owner 9040,+91XXXXXXXXXX,,London,IN,Seller,Generated
4df6e3b8-7371-438c-8755-fd1a769430ec,Owner 8856,+91XXXXXXXXXX,,Delhi,IN,Seller,Generated
4208ff18-3065-4f91-a205-61c28c210fd9,Owner 1391,+91XXXXXXXXXX,,Delhi,IN,Seller,Generated
8171ca09-bdc8-4bdc-9822-b96f26d939b0,Owner 657,+91XXXXXXXXXX,,London,IN,Seller,Generated
be9da18a-cc30-4129-92d6-4927e6eb8231,Owner 1526,+91XXXXXXXXXX,,Delhi,IN,Seller,Generated
9bf39816-ff90-4844-a2f5-84d07840f833,Owner 6579,+91XXXXXXXXXX,,Delhi,IN,Seller,Generated
05d86266-abd1-46ff-8899-721182662ae8,Owner 7267,+91XXXXXXXXXX,,London,IN,Seller,Generated
e5d136c9-0001-4b57-bce5-b73e4db49217,Owner 4906,+91XXXXXXXXXX,,Mumbai,IN,Seller,Generated
05242551-76dc-4e84-9b07-7c8e74454a38,Owner 8311,+91XXXXXXXXXX,,Delhi,IN,Seller,Generated
c82a363c-29c1-4484-957b-fba2f3f7485b,Owner 2552,+91XXXXXXXXXX,,London,IN,Seller,Generated
6a848c45-7374-4e07-a9fc-eabfc0fb9de4,Owner 1583,+91XXXXXXXXXX,,Delhi,IN,Seller,Generated
a5f8c686-57a9-45a6-8861-1cc8573e9c32,Owner 46,+91XXXXXXXXXX,,New York,IN,Seller,Generated
af7e92c1-3e3d-4dae-a7a5-95adc865b492,Owner 5589,+91XXXXXXXXXX,,Delhi,IN,Seller,Generated
4a3827f8-c436-4437-aaf7-8ad2e8f7cf29,Owner 5337,+91XXXXXXXXXX,,Mumbai,IN,Seller,Generated
27c5f165-45fb-4c9c-9128-34bb3938dc5c,Owner 9832,+91XXXXXXXXXX,,Delhi,IN,Seller,Generated
d9ba57f2-695e-4cc5-a04b-75d483c5a4ae,Owner 6154,+91XXXXXXXXXX,,London,IN,Seller,Generated
fc5be52e-4cdc-48f1-9514-a8e818902440,Owner 6168,+91XXXXXXXXXX,,Mumbai,IN,Seller,Generated
4e298217-63b6-4d55-a4fe-58a8588fdf18,Owner 5461,+91XXXXXXXXXX,,New York,IN,Seller,Generated
91edfa58-372c-4ec2-8491-855f4c0e8071,Owner 8142,+91XXXXXXXXXX,,London,IN,Seller,Generated
b9f232e2-f6e2-4f89-9a11-efcad077209b,Owner 78,+91XXXXXXXXXX,,Mumbai,IN,Seller,Generated
443bd706-def8-485b-8989-8650f8a8df86,Owner 4306,+91XXXXXXXXXX,,Delhi,IN,Seller,Generated
5dd362de-2004-4731-9f02-b7b3b0da8cec,Owner 809,+91XXXXXXXXXX,,New York,IN,Seller,Generated
3911e37d-bcc2-433c-9c55-f1efe4174f8c,Owner 3430,+91XXXXXXXXXX,,London,IN,Seller,Generated
0da9f1d3-568a-4119-a119-88cf8627cd5e,Owner 6315,+91XXXXXXXXXX,,Mumbai,IN,Seller,Generated
6d026be6-788a-4e70-b671-b082f624feb2,Owner 1397,+91XXXXXXXXXX,,Mumbai,IN,Seller,Generated
e6de71bc-9ed3-4f0a-85c1-95d2979f5565,Owner 4877,+91XXXXXXXXXX,,Delhi,IN,Seller,Generated
94bc5a98-0113-4651-9707-5c655ae3947b,Owner 2652,+91XXXXXXXXXX,,Mumbai,IN,Seller,Generated
3cd9b0da-d5ec-43e7-9d01-fbcfd4ed8a89,Owner 1340,+91XXXXXXXXXX,,New York,IN,Seller,Generated
6b8e5a2f-4db1-41f8-b97f-69e744a8fcd3,Owner 6581,+91XXXXXXXXXX,,Delhi,IN,Seller,Generated
63621420-356d-4880-b638-f6a918e9d8a3,Owner 6822,+91XXXXXXXXXX,,Mumbai,IN,Seller,Generated
9073a6db-9f24-4e9d-a9ee-ea45cc3102f6,Owner 1165,+91XXXXXXXXXX,,New York,IN,Seller,Generated
33721cc7-ec77-4930-affa-25e9a3fcc000,Owner 9244,+91XXXXXXXXXX,,London,IN,Seller,Generated
57f5211a-c16c-48b4-b2e8-6e67dd8ad485,Owner 4501,+91XXXXXXXXXX,,Mumbai,IN,Seller,Generated
583393d2-b1ca-4bf2-b6d6-ccc94a053aac,Owner 3492,+91XXXXXXXXXX,,Delhi,IN,Seller,Generated
5ba97068-8a94-4622-a760-521dda7f5fd8,Owner 2162,+91XXXXXXXXXX,,Mumbai,IN,Seller,Generated
5dd42cad-4177-45e3-936e-4af1642fdd65,Owner 7506,+91XXXXXXXXXX,,London,IN,Seller,Generated
dde28064-7a5d-49e6-a77f-77c18d974684,Owner 2485,+91XXXXXXXXXX,,Mumbai,IN,Seller,Generated
b1ac21ad-8bc8-4df1-a10f-8ddf2d8b45ab,Owner 8396,+91XXXXXXXXXX,,Delhi,IN,Seller,Generated
9b1ff25d-2472-4834-9b44-b8ef65f46503,Owner 7481,+91XXXXXXXXXX,,Delhi,IN,Seller,Generated
37ea6129-3ac4-47ec-8491-80dd737907bf,Owner 162,+91XXXXXXXXXX,,London,IN,Seller,Generated
4d16b916-f025-419d-997d-9fac9c2afab9,Owner 2944,+91XXXXXXXXXX,,Mumbai,IN,Seller,Generated
b79360c3-4c42-4c6f-818c-a12f8cd4f01a,Owner 1409,+91XXXXXXXXXX,,New York,IN,Seller,Generated
affeae2e-884c-4135-9873-1e3078945329,Owner 185,+91XXXXXXXXXX,,London,IN,Seller,Generated
53a151ec-9bf3-4eda-81ab-3279c1530aef,Owner 2754,+91XXXXXXXXXX,,London,IN,Seller,Generated
99c74e23-8478-4ddf-a257-fb9d86f14d68,Owner 6365,+91XXXXXXXXXX,,London,IN,Seller,Generated
054b08f5-5818-4848-b3e8-4267a55eff7f,Owner 885,+91XXXXXXXXXX,,New York,IN,Seller,Generated
da7425e4-a910-4172-8b60-1c2615d1b40a,Owner 8486,+91XXXXXXXXXX,,New York,IN,Seller,Generated
4609c9c6-5869-40a1-9797-f9319e284fa4,Owner 7707,+91XXXXXXXXXX,,London,IN,Seller,Generated
45e4a1f6-a96e-4e87-8f69-7c5e006172b7,Owner 8652,+91XXXXXXXXXX,,New York,IN,Seller,Generated
302b2d1b-35d2-4917-b9b1-ee130b10a000,Owner 8528,+91XXXXXXXXXX,,New York,IN,Seller,Generated
94df1c51-879d-44e6-98b9-5502903711a1,Owner 327,+91XXXXXXXXXX,,New York,IN,Seller,Generated
711c87d4-b272-437f-ae91-ffd06f70e280,Owner 2842,+91XXXXXXXXXX,,Mumbai,IN,Seller,Generated
9aafc3c1-c3cf-42b8-83ef-ab75ad2f2e8d,Owner 1854,+91XXXXXXXXXX,,Delhi,IN,Seller,Generated
963a0a93-4ef8-4ba4-b7c0-af2d56b6f6eb,Owner 5660,+91XXXXXXXXXX,,Mumbai,IN,Seller,Generated
9ccc43ab-f939-4c2b-986d-e5ba843c6c6b,Owner 4714,+91XXXXXXXXXX,,New York,IN,Seller,Generated
42561006-ca52-43bf-b55b-527593f0cdbe,Owner 6705,+91XXXXXXXXXX,,London,IN,Seller,Generated
bdc81916-16a1-4172-92be-ad1bbf109afc,Owner 2867,+91XXXXXXXXXX,,Mumbai,IN,Seller,Generated
00487af5-85a0-40c7-a487-caf5990c7d5d,Owner 1692,+91XXXXXXXXXX,,London,IN,Seller,Generated
78ade3b9-ef49-4359-a234-f8684f21f99e,Owner 1043,+91XXXXXXXXXX,,Delhi,IN,Seller,Generated
c47a69be-b9cd-4a9c-ad3a-0dc23eccfe09,Owner 7105,+91XXXXXXXXXX,,Delhi,IN,Seller,Generated
1f7669a5-7693-481e-a551-3da3d3e2d873,Owner 1877,+91XXXXXXXXXX,,London,IN,Seller,Generated
bb94222c-735f-4d28-85f5-84224ba550ae,Owner 1101,+91XXXXXXXXXX,,New York,IN,Seller,Generated
fe0431e8-3bc9-4d2f-aa80-780bd244117b,Owner 519,+91XXXXXXXXXX,,New York,IN,Seller,Generated
031e622b-a155-419e-8e43-ebad5a2bea59,Owner 4011,+91XXXXXXXXXX,,Delhi,IN,Seller,Generated
1e103501-4f53-4e97-9cc4-71dce8043510,Owner 1280,+91XXXXXXXXXX,,Delhi,IN,Seller,Generated
5884ca77-7b8f-48a5-a661-0f9d075d8fa0,Owner 3792,+91XXXXXXXXXX,,Mumbai,IN,Seller,Generated
61d0ff34-2b23-4a02-a298-382812c5755b,Owner 6374,+91XXXXXXXXXX,,Delhi,IN,Seller,Generated
53c557d9-42f8-4758-b08c-4bcc0358d0bf,Owner 1664,+91XXXXXXXXXX,,London,IN,Seller,Generated
dc25cb41-6497-4eab-9131-c8c6533d34ee,Owner 2826,+91XXXXXXXXXX,,London,IN,Seller,Generated
032afab1-376a-4c18-82d4-6d3722630848,Owner 7711,+91XXXXXXXXXX,,New York,IN,Seller,Generated
9581b389-afcc-4881-a573-faa4ad9621b5,Owner 743,+91XXXXXXXXXX,,New York,IN,Seller,Generated
16138f06-0369-42f4-bda9-885fd961577d,Owner 7227,+91XXXXXXXXXX,,London,IN,Seller,Generated
cdc66dae-03bb-4b0d-b623-e0acae617939,Owner 546,+91XXXXXXXXXX,,Delhi,IN,Seller,Generated
92a6d184-aafa-4301-9c84-ba7769f256dd,Owner 8009,+91XXXXXXXXXX,,London,IN,Seller,Generated
09d81e1d-0a97-4a08-9053-a750be9a00a3,Owner 2383,+91XXXXXXXXXX,,New York,IN,Seller,Generated
a10e3f18-1470-45c2-b84a-435bf96c2a69,Owner 8456,+91XXXXXXXXXX,,London,IN,Seller,Generated
277cedbf-e68a-4eff-af67-837bcc1c7ffc,Owner 5146,+91XXXXXXXXXX,,Mumbai,IN,Seller,Generated
474a2614-1bdd-473e-befb-de929e820946,Owner 8134,+91XXXXXXXXXX,,New York,IN,Seller,Generated
d4ccc707-1ea8-4719-a0c5-c081048ff8b3,Owner 3275,+91XXXXXXXXXX,,London,IN,Seller,Generated
a63d6cdd-97f6-42da-aa33-2ef334a56c28,Owner 1616,+91XXXXXXXXXX,,New York,IN,Seller,Generated
ef0b2d13-4319-4c54-963b-21fd91568652,Owner 9625,+91XXXXXXXXXX,,Delhi,IN,Seller,Generated
2ce5a553-7d29-408b-9659-b9bd1faad9bc,Owner 8862,+91XXXXXXXXXX,,Mumbai,IN,Seller,Generated
8cf0ab84-43bc-49a7-a224-5794560f82c3,Owner 8211,+91XXXXXXXXXX,,New York,IN,Seller,Generated
a601ca3a-be6e-4c35-bea7-80d9222663f6,Owner 8200,+91XXXXXXXXXX,,Delhi,IN,Seller,Generated
535768a6-b4c5-4f13-a90f-affe772f8ba9,Owner 2439,+91XXXXXXXXXX,,Delhi,IN,Seller,Generated
941ffaa4-bc99-47c5-b4f4-a1dc8068f1f8,Owner 2111,+91XXXXXXXXXX,,Mumbai,IN,Seller,Generated
45224f8d-ca69-4bd3-8360-4bb433f79f2a,Owner 7719,+91XXXXXXXXXX,,Delhi,IN,Seller,Generated
1087e704-6d1c-4099-a2a3-94b927b9e239,Owner 678,+91XXXXXXXXXX,,Mumbai,IN,Seller,Generated
c04de863-4a0d-4553-aebe-c5f626ebbb4f,Owner 6827,+91XXXXXXXXXX,,London,IN,Seller,Generated
78d8e76f-6de2-4c55-a3c0-e226a0fd6689,Owner 8892,+91XXXXXXXXXX,,Mumbai,IN,Seller,Generated
c2ca1ea2-a1a4-4080-95ed-1b9e7757d524,Owner 2156,+91XXXXXXXXXX,,Mumbai,IN,Seller,Generated
04b7e67c-3d1d-4f7c-a379-0b9d26feb643,Owner 8153,+91XXXXXXXXXX,,Delhi,IN,Seller,Generated
baab7f13-077c-402c-85d6-e42a09abf72e,Owner 1745,+91XXXXXXXXXX,,Delhi,IN,Seller,Generated
be1b424c-272e-4cd4-ac50-b5bb0fe21c5a,Owner 3397,+91XXXXXXXXXX,,Delhi,IN,Seller,Generated
9871976b-57b1-4da3-9125-9920a74abd68,Owner 6438,+91XXXXXXXXXX,,Delhi,IN,Seller,Generated
b1a1bc70-9348-4d26-95cf-01cd0762e581,Owner 3959,+91XXXXXXXXXX,,Delhi,IN,Seller,Generated
34303e3d-f58d-49c2-bfea-5b5d872cfdf6,Owner 1934,+91XXXXXXXXXX,,Mumbai,IN,Seller,Generated
8e9a3f38-92fd-44ac-9c4d-556ca8d95a8b,Owner 1212,+91XXXXXXXXXX,,Mumbai,IN,Seller,Generated
de18fdfb-d808-45c5-9f08-aa60e4e761a7,Owner 9548,+91XXXXXXXXXX,,New York,IN,Seller,Generated
f14e7cc4-537b-46b0-92e6-a94cf50a9bca,Owner 1635,+91XXXXXXXXXX,,Delhi,IN,Seller,Generated
7c33309c-15f6-4d96-baac-972034bb17ba,Owner 9882,+91XXXXXXXXXX,,New York,IN,Seller,Generated
3c152610-2c34-4c59-9db4-d66bd7c73885,Owner 6169,+91XXXXXXXXXX,,Delhi,IN,Seller,Generated
a956a663-2bd2-493e-96f0-8a8a80531c45,Owner 8796,+91XXXXXXXXXX,,London,IN,Seller,Generated
2865568d-9be2-4873-b7ba-f9bed1b26eef,Owner 8180,+91XXXXXXXXXX,,Delhi,IN,Seller,Generated
95be3e04-9852-426b-99d7-3dd4e51f7002,Owner 1154,+91XXXXXXXXXX,,Delhi,IN,Seller,Generated
90f23193-078b-42b4-bd76-d8df91e906f9,Owner 3007,+91XXXXXXXXXX,,Delhi,IN,Seller,Generated
1832dcf0-bdba-424a-b3b7-a940c0a2a463,Owner 5445,+91XXXXXXXXXX,,Mumbai,IN,Seller,Generated
661c7887-dc44-4804-8955-2c07e6d7ee9e,Owner 3951,+91XXXXXXXXXX,,Mumbai,IN,Seller,Generated
26183f18-d091-4c30-b1ec-4c82d8aab918,Owner 9050,+91XXXXXXXXXX,,Delhi,IN,Seller,Generated
2bf38cfd-1ab7-4d95-8256-4e9d168c8864,Owner 2270,+91XXXXXXXXXX,,Delhi,IN,Seller,Generated
bd7d6289-7114-4896-b999-ac2c31f45534,Owner 1405,+91XXXXXXXXXX,,London,IN,Seller,Generated
59313ebd-7879-48ba-9db1-8111184dd872,Owner 9091,+91XXXXXXXXXX,,New York,IN,Seller,Generated
65f03448-0066-4871-a814-332f62f73347,Owner 2869,+91XXXXXXXXXX,,Mumbai,IN,Seller,Generated
17596673-39da-466d-9e35-2053c2c844df,Owner 8328,+91XXXXXXXXXX,,New York,IN,Seller,Generated
5de5b78b-84e5-4440-9ed2-100fd9206b7f,Owner 3689,+91XXXXXXXXXX,,London,IN,Seller,Generated
bed8f7a3-a5d0-427b-89d0-64db96ad95df,Owner 149,+91XXXXXXXXXX,,New York,IN,Seller,Generated
ad6ddc1a-63c8-4c37-922b-1367620913b0,Owner 6300,+91XXXXXXXXXX,,Mumbai,IN,Seller,Generated
6caa4ad5-2dba-48c6-8b31-649b27b7e069,Owner 3295,+91XXXXXXXXXX,,Delhi,IN,Seller,Generated
39d21a2b-cc38-4f5f-b019-6b083228d9ce,Owner 1413,+91XXXXXXXXXX,,London,IN,Seller,Generated
9e253583-69d1-40d5-85ce-9229ba0972f0,Owner 547,+91XXXXXXXXXX,,Delhi,IN,Seller,Generated
d4dbc538-6810-4eea-a89e-594fdbd8bd39,Owner 3585,+91XXXXXXXXXX,,New York,IN,Seller,Generated
cdd0cc62-6253-4293-a591-20cf20020de2,Owner 3913,+91XXXXXXXXXX,,New York,IN,Seller,Generated
039485b6-23ce-4c2e-8c19-5fc1d1d5624e,Owner 3086,+91XXXXXXXXXX,,New York,IN,Seller,Generated
bdce3d2c-83d5-4478-933a-6d0028fb092d,Owner 2462,+91XXXXXXXXXX,,London,IN,Seller,Generated
da765b8c-7593-48f1-bbd8-f3d56f515246,Owner 5191,+91XXXXXXXXXX,,Delhi,IN,Seller,Generated
6ce433aa-db51-40d7-b7d3-fee489f8940f,Owner 6805,+91XXXXXXXXXX,,New York,IN,Seller,Generated
76de7ef7-2910-499f-af25-086ff276388b,Owner 302,+91XXXXXXXXXX,,London,IN,Seller,Generated
49ffc7ab-b8d8-413e-bfed-530460041e9d,Owner 755,+91XXXXXXXXXX,,New York,IN,Seller,Generated
30330018-6308-49e7-a068-389615680650,Owner 9031,+91XXXXXXXXXX,,London,IN,Seller,Generated
9b30b408-3196-466e-80a8-24e77471c5f2,Owner 5428,+91XXXXXXXXXX,,London,IN,Seller,Generated
07c2792d-8135-4283-8bab-735286ce1611,Owner 8340,+91XXXXXXXXXX,,Mumbai,IN,Seller,Generated
f80c936a-2f89-4710-91ea-cf9e8905c448,Owner 2340,+91XXXXXXXXXX,,New York,IN,Seller,Generated
c6dc65e5-6bf4-46db-a95f-5d49b6d64738,Owner 9326,+91XXXXXXXXXX,,Mumbai,IN,Seller,Generated
6778cbfa-238b-4a69-bdf8-38dae9f958ea,Owner 9380,+91XXXXXXXXXX,,Delhi,IN,Seller,Generated
9642d408-9d35-46e5-bfb4-99b39258cc80,Owner 3734,+91XXXXXXXXXX,,New York,IN,Seller,Generated
38529eef-eaf4-47ef-ba11-ed439b097c9c,Owner 8480,+91XXXXXXXXXX,,London,IN,Seller,Generated
93b168e0-7f16-40fc-8064-e63756fe4f6e,Owner 3611,+91XXXXXXXXXX,,Delhi,IN,Seller,Generated
3edc163b-2462-4e8f-99c7-e70082c81e6f,Owner 771,+91XXXXXXXXXX,,Mumbai,IN,Seller,Generated
b8145c06-7546-487d-857e-f3b92e652d50,Owner 7281,+91XXXXXXXXXX,,Mumbai,IN,Seller,Generated
560f6728-14b2-4add-8cc6-54e492d0b7d6,Owner 417,+91XXXXXXXXXX,,Delhi,IN,Seller,Generated
472d17ba-723c-4e89-89a3-6f8f55074f7d,Owner 6301,+91XXXXXXXXXX,,London,IN,Seller,Generated
05f9dd13-c6b5-4ef8-a036-a556dd1b19ed,Owner 2668,+91XXXXXXXXXX,,London,IN,Seller,Generated
75935c6e-670a-4710-8d80-188b876219d5,Owner 322,+91XXXXXXXXXX,,London,IN,Seller,Generated
62699148-7e0b-4c50-a012-2902d43e43f8,Owner 3039,+91XXXXXXXXXX,,London,IN,Seller,Generated
63bd1a33-f3fc-4616-bc65-e0825a644375,Owner 8286,+91XXXXXXXXXX,,Delhi,IN,Seller,Generated
7b4c4c6e-df9e-4eb8-8d36-557512ccabbb,Owner 8682,+91XXXXXXXXXX,,Delhi,IN,Seller,Generated
842b32bf-e1db-4fe8-aee3-42daf9e202ec,Owner 5253,+91XXXXXXXXXX,,Delhi,IN,Seller,Generated
f7f9c959-21b4-49ae-a68c-7f1d5c53e144,Owner 1994,+91XXXXXXXXXX,,Mumbai,IN,Seller,Generated
2f4abb58-1c31-41df-a62c-62bd3ff7b16a,Owner 529,+91XXXXXXXXXX,,Delhi,IN,Seller,Generated
1d0281c4-14b2-4c61-8008-f0511b316f78,Owner 8083,+91XXXXXXXXXX,,New York,IN,Seller,Generated
46d703bf-5653-40a9-8ee6-4822cdcf9528,Owner 2012,+91XXXXXXXXXX,,New York,IN,Seller,Generated
14c547ce-7dca-4e43-a49f-8fc197715e39,Owner 6849,+91XXXXXXXXXX,,Delhi,IN,Seller,Generated
8f2bd9f5-4897-4d06-919e-0dc6bd272192,Owner 5456,+91XXXXXXXXXX,,Mumbai,IN,Seller,Generated
9913fcef-8067-4c99-8920-4cb2f317b136,Owner 2486,+91XXXXXXXXXX,,London,IN,Seller,Generated
d2ce43b7-cb5a-4f32-9c6f-ad11b0e1ecd8,Owner 6756,+91XXXXXXXXXX,,New York,IN,Seller,Generated
48eca5eb-bcf2-4baf-9c12-13300da18ff1,Owner 7866,+91XXXXXXXXXX,,Mumbai,IN,Seller,Generated
ced90616-6f08-41d0-92e6-3416a2ea9793,Owner 2592,+91XXXXXXXXXX,,London,IN,Seller,Generated
1a393b66-9bf5-48c8-8481-123c88610ca2,Owner 4282,+91XXXXXXXXXX,,London,IN,Seller,Generated
56c96f49-89fb-4bad-b947-d1e1d972eb54,Owner 2251,+91XXXXXXXXXX,,Mumbai,IN,Seller,Generated
eeb6224b-a907-471e-b572-324ddd39094e,Owner 7441,+91XXXXXXXXXX,,Mumbai,IN,Seller,Generated
cb38598b-7f81-46dd-bc54-d045927d2c0c,Owner 775,+91XXXXXXXXXX,,Mumbai,IN,Seller,Generated
e3493937-ebef-40db-9b66-573c5183de3b,Owner 6030,+91XXXXXXXXXX,,Delhi,IN,Seller,Generated
52082f0a-0bc9-43f1-aa9e-62dce282495a,Owner 1792,+91XXXXXXXXXX,,London,IN,Seller,Generated
4701fdce-2f67-4b51-8f77-a9c7ee833b09,Owner 3889,+91XXXXXXXXXX,,Delhi,IN,Seller,Generated
01b4861f-d67d-4192-90b3-2e47f24233da,Owner 8645,+91XXXXXXXXXX,,Delhi,IN,Seller,Generated
00910db6-b423-41dc-b557-b229334e1665,Owner 6548,+91XXXXXXXXXX,,Mumbai,IN,Seller,Generated
62757d74-e834-4517-8a39-dd711ebb58a6,Owner 4209,+91XXXXXXXXXX,,Mumbai,IN,Seller,Generated
3b8f76f9-0ce4-4988-b286-91cd21d04c84,Owner 1277,+91XXXXXXXXXX,,London,IN,Seller,Generated
1f8fa5e9-738c-4f98-9134-603683b3181b,Owner 3060,+91XXXXXXXXXX,,Mumbai,IN,Seller,Generated
dc9f5835-9615-4d30-882f-8fcda432405e,Owner 9780,+91XXXXXXXXXX,,London,IN,Seller,Generated
6d52d066-b714-4444-882d-667fcb65da90,Owner 3267,+91XXXXXXXXXX,,New York,IN,Seller,Generated
a10be47a-da53-49fa-b084-3758a7dc0eb3,Owner 5282,+91XXXXXXXXXX,,Delhi,IN,Seller,Generated
765bb9fe-438b-4b13-ada9-fc0569cdd28e,Owner 4102,+91XXXXXXXXXX,,New York,IN,Seller,Generated
53a47c37-5c17-49ab-b44c-1367254a8fa8,Owner 6860,+91XXXXXXXXXX,,London,IN,Seller,Generated
f61f5497-595c-4e75-9773-d86747474449,Owner 3789,+91XXXXXXXXXX,,London,IN,Seller,Generated
706cfeb9-55c6-43f3-8ae2-1b750ecd0ba8,Owner 7459,+91XXXXXXXXXX,,Delhi,IN,Seller,Generated
94855d38-7cc6-4f62-bd16-42451e6432c9,Owner 8836,+91XXXXXXXXXX,,New York,IN,Seller,Generated
575380a6-1713-47a4-b862-741aa8aa28dd,Owner 3231,+91XXXXXXXXXX,,London,IN,Seller,Generated
a8385426-9d2c-4f25-8caa-266869dc466a,Owner 7897,+91XXXXXXXXXX,,Mumbai,IN,Seller,Generated
487e3443-b522-46e2-83e5-399a51d09b2c,Owner 9849,+91XXXXXXXXXX,,Mumbai,IN,Seller,Generated
95ee04aa-32d4-414b-b833-4273ecf47ad6,Owner 8767,+91XXXXXXXXXX,,Delhi,IN,Seller,Generated
d42ff457-d6d5-4f90-b8cc-cb9b6ba5cef9,Owner 4059,+91XXXXXXXXXX,,Delhi,IN,Seller,Generated
8cbe710b-0b96-4191-bd18-763add36dd1e,Owner 4692,+91XXXXXXXXXX,,Mumbai,IN,Seller,Generated
f62ce312-1a79-4242-9236-3dd80b8de772,Owner 8841,+91XXXXXXXXXX,,Delhi,IN,Seller,Generated
6bdefdc1-080f-4b36-9fe4-4b7879fb8315,Owner 813,+91XXXXXXXXXX,,New York,IN,Seller,Generated
d3221bd4-76cc-4f6b-a68b-acf35d019d44,Owner 2658,+91XXXXXXXXXX,,New York,IN,Seller,Generated
ac87f6ea-d494-4611-9e2b-167a0f5ea663,Owner 4479,+91XXXXXXXXXX,,Mumbai,IN,Seller,Generated
f4096196-875c-4217-8a30-8bac262f3ecd,Owner 8042,+91XXXXXXXXXX,,Delhi,IN,Seller,Generated
b54a4730-1465-484a-994b-177fd12785f9,Owner 6261,+91XXXXXXXXXX,,Delhi,IN,Seller,Generated
7066116c-1476-468d-975b-a8b90d69bef5,Owner 7558,+91XXXXXXXXXX,,Mumbai,IN,Seller,Generated
033d7401-0c32-4377-a4c0-0835f2c3be31,Owner 1017,+91XXXXXXXXXX,,London,IN,Seller,Generated
ac851d9d-2962-4926-a457-00fac1a06a75,Owner 3594,+91XXXXXXXXXX,,Mumbai,IN,Seller,Generated
7d3faeb8-220f-4f95-be49-12d1c31db62d,Owner 939,+91XXXXXXXXXX,,London,IN,Seller,Generated
74707d7a-d2d8-4596-88c7-bed1e7eb177d,Owner 8923,+91XXXXXXXXXX,,London,IN,Seller,Generated
0d6b801a-9a97-4c0a-becb-0ae9f18ee7cc,Owner 6009,+91XXXXXXXXXX,,Mumbai,IN,Seller,Generated
a2691888-48f8-4c1c-b659-83d31b8a9d9d,Owner 5871,+91XXXXXXXXXX,,New York,IN,Seller,Generated
00d70353-6cba-4cad-9b5d-c0ebbcd049ff,Owner 4338,+91XXXXXXXXXX,,Mumbai,IN,Seller,Generated
f95a1d33-af37-4976-a300-3fdd69a95ef7,Owner 5241,+91XXXXXXXXXX,,New York,IN,Seller,Generated
73bacdda-c9c1-433c-bdb0-bff42f0533ba,Owner 7589,+91XXXXXXXXXX,,Delhi,IN,Seller,Generated
7a1326ae-00d1-48c6-a978-4cc31d526b96,Owner 8860,+91XXXXXXXXXX,,New York,IN,Seller,Generated
84273c2c-1987-43e5-a6e9-975d80ab78af,Owner 1837,+91XXXXXXXXXX,,Delhi,IN,Seller,Generated
9a5c2afa-e517-4d4a-9057-49b8ad85614e,Owner 5770,+91XXXXXXXXXX,,New York,IN,Seller,Generated
d79ad6f2-87fd-49fa-88bd-426508e2abf7,Owner 3309,+91XXXXXXXXXX,,London,IN,Seller,Generated
aea0bd3f-d127-4559-aa1c-cc08d1c33f95,Owner 5946,+91XXXXXXXXXX,,New York,IN,Seller,Generated
cf8d01f1-2b5a-4ba7-b230-7f691145e2bb,Owner 1995,+91XXXXXXXXXX,,London,IN,Seller,Generated
b093104d-0e79-4ba4-a351-243455ffd42d,Owner 4495,+91XXXXXXXXXX,,Mumbai,IN,Seller,Generated
39c9e36f-35de-4dfd-a26e-3a8e914b4d8f,Owner 1380,+91XXXXXXXXXX,,Mumbai,IN,Seller,Generated
59315bbe-4b1c-4dee-9675-4ea848395432,Owner 4266,+91XXXXXXXXXX,,Delhi,IN,Seller,Generated
4e9d7eab-2321-444b-ae22-61051dbd617f,Owner 8716,+91XXXXXXXXXX,,London,IN,Seller,Generated
b5a9f2f0-685d-49f1-9296-8d4db45189ae,Owner 8217,+91XXXXXXXXXX,,New York,IN,Seller,Generated
cf8303b8-15e9-4b9a-93c5-f62efd865e23,Owner 9754,+91XXXXXXXXXX,,Delhi,IN,Seller,Generated
0565db82-d0fd-4c14-903b-62ba290e32f5,Owner 3668,+91XXXXXXXXXX,,London,IN,Seller,Generated
10b9c76e-5cbd-428f-83c5-29e4de9f1c98,Owner 4499,+91XXXXXXXXXX,,Delhi,IN,Seller,Generated
2410d87c-57dc-42a5-b929-2d8f7dd2ddf1,Owner 7819,+91XXXXXXXXXX,,Delhi,IN,Seller,Generated
2b4a030c-bad3-4d5e-8e23-c8672c90cb7c,Owner 9728,+91XXXXXXXXXX,,New York,IN,Seller,Generated
ca457a78-1dbc-4ec3-a9df-1431e12e29d8,Owner 4020,+91XXXXXXXXXX,,New York,IN,Seller,Generated
5d518c5b-60bd-4e51-b611-7d83cb25506b,Owner 9402,+91XXXXXXXXXX,,London,IN,Seller,Generated
edaceadb-3c70-4cc7-9eac-1f6f51619915,Owner 1343,+91XXXXXXXXXX,,London,IN,Seller,Generated
a36f86ff-d333-48b9-99f6-b84cbe088138,Owner 492,+91XXXXXXXXXX,,Delhi,IN,Seller,Generated
a2262e78-26cc-4ab5-9da3-ecfd5bf157e0,Owner 750,+91XXXXXXXXXX,,London,IN,Seller,Generated
3ec2fb80-291e-4e24-a109-534346bd1f8a,Owner 8664,+91XXXXXXXXXX,,Mumbai,IN,Seller,Generated
c92b885b-6ca4-4642-bda0-ae7af36e88fc,Owner 6704,+91XXXXXXXXXX,,Delhi,IN,Seller,Generated
27940da1-df1f-4219-abcd-d1f4bbc0ff2e,Owner 5878,+91XXXXXXXXXX,,Mumbai,IN,Seller,Generated
2769d423-659a-47eb-abff-71da2ec0e248,Owner 5086,+91XXXXXXXXXX,,Delhi,IN,Seller,Generated
5a87b449-c254-481c-9e33-e27e4d161ea4,Owner 3831,+91XXXXXXXXXX,,New York,IN,Seller,Generated
ffe96202-6a69-4faa-bdc5-9cee58120476,Owner 5043,+91XXXXXXXXXX,,Mumbai,IN,Seller,Generated
2459d056-3b8b-4875-88d5-69b2481a1f47,Owner 273,+91XXXXXXXXXX,,London,IN,Seller,Generated
8ef8c697-cf4c-4f78-a746-0932e291f6ec,Owner 2077,+91XXXXXXXXXX,,Delhi,IN,Seller,Generated
bc42248c-d476-4651-ba4a-d8777a223b23,Owner 5640,+91XXXXXXXXXX,,New York,IN,Seller,Generated
2d90180d-ac78-45e6-a747-1970f18aad21,Owner 2684,+91XXXXXXXXXX,,Mumbai,IN,Seller,Generated
e52f09d4-f5c0-4da3-a391-0a730fe5056e,Owner 9532,+91XXXXXXXXXX,,New York,IN,Seller,Generated
64f148df-f479-492f-b01d-a0ee2ddde313,Owner 9841,+91XXXXXXXXXX,,Mumbai,IN,Seller,Generated
c7496ede-fb0f-4b62-804b-021ecfe5a248,Owner 9245,+91XXXXXXXXXX,,Delhi,IN,Seller,Generated
4f2420be-de5c-4ff9-9365-1aea245fce0e,Owner 4208,+91XXXXXXXXXX,,Delhi,IN,Seller,Generated
654393c2-544c-4298-a02a-e46e14f137aa,Owner 8697,+91XXXXXXXXXX,,Mumbai,IN,Seller,Generated
ab168914-5def-4b1c-807c-ef94aa6a78b5,Owner 8308,+91XXXXXXXXXX,,Mumbai,IN,Seller,Generated
9684420a-b228-4deb-ab31-941dee963ac3,Owner 5885,+91XXXXXXXXXX,,New York,IN,Seller,Generated
c5a49971-b30e-4678-b227-b6d8996671c1,Owner 2554,+91XXXXXXXXXX,,Delhi,IN,Seller,Generated
ec24ce8d-e937-49c5-86f4-90cd491c2479,Owner 2649,+91XXXXXXXXXX,,Mumbai,IN,Seller,Generated
5d30328b-1d88-49ec-97e3-6fb6e0416eb3,Owner 8148,+91XXXXXXXXXX,,Delhi,IN,Seller,Generated
c484e890-28a8-4522-bb3a-fa307093abd2,Owner 9533,+91XXXXXXXXXX,,Mumbai,IN,Seller,Generated
30f32ee1-4e96-440f-9f9a-0431198def52,Owner 2652,+91XXXXXXXXXX,,London,IN,Seller,Generated
678f4d5c-7da4-4132-a400-05610c1c0bec,Owner 429,+91XXXXXXXXXX,,Delhi,IN,Seller,Generated
ee584395-7925-430b-bf11-797fe6d9048f,Owner 3571,+91XXXXXXXXXX,,Delhi,IN,Seller,Generated
f749a7f9-06fc-4619-9ad1-35db226e3dfd,Owner 4034,+91XXXXXXXXXX,,New York,IN,Seller,Generated
65342c46-d48f-45d1-a992-88554800cab6,Owner 6811,+91XXXXXXXXXX,,Delhi,IN,Seller,Generated
6aa23dec-460b-4187-a171-188a2a2beadc,Owner 2499,+91XXXXXXXXXX,,London,IN,Seller,Generated
de4e35ed-2352-4595-87a7-52047c444bd0,Owner 4933,+91XXXXXXXXXX,,Delhi,IN,Seller,Generated
42f9f313-2a4f-48e0-a4f5-2799943aff1b,Owner 9118,+91XXXXXXXXXX,,London,IN,Seller,Generated
0a8c46f1-2a08-464b-8a94-cc5187c02422,Owner 2126,+91XXXXXXXXXX,,Delhi,IN,Seller,Generated
302fc544-632e-46e0-b0f9-97a5c53753b0,Owner 8173,+91XXXXXXXXXX,,Mumbai,IN,Seller,Generated
888b0b77-4446-44c5-85f7-ce0cc125b887,Owner 9052,+91XXXXXXXXXX,,Delhi,IN,Seller,Generated
78ef6f39-89eb-471d-bfaf-c9f4dc1ae780,Owner 1312,+91XXXXXXXXXX,,Delhi,IN,Seller,Generated
de12da84-7726-4e06-b68c-26f6402818c6,Owner 5987,+91XXXXXXXXXX,,New York,IN,Seller,Generated
6c3d1f3a-99c4-4a4f-89b9-e7e4ccd29c95,Owner 7163,+91XXXXXXXXXX,,New York,IN,Seller,Generated
7999c6f7-fd49-4824-9e6c-32b43605617e,Owner 7749,+91XXXXXXXXXX,,London,IN,Seller,Generated
847a118a-fff4-4ad4-b6f9-0e60ac2ee6eb,Owner 2739,+91XXXXXXXXXX,,Delhi,IN,Seller,Generated
92eba935-3aac-4138-8f5c-4ebd6aa97a43,Owner 8139,+91XXXXXXXXXX,,Mumbai,IN,Seller,Generated
dc8ef19d-9c55-4d20-b37d-2d2cbf8492aa,Owner 6621,+91XXXXXXXXXX,,London,IN,Seller,Generated
904b3ee2-349f-46ef-a594-4629b1df023a,Owner 8136,+91XXXXXXXXXX,,London,IN,Seller,Generated
4b2dd538-2513-42cb-aa64-d1226d8a4508,Owner 5007,+91XXXXXXXXXX,,Mumbai,IN,Seller,Generated
fcdd8587-911e-4c90-a094-d0be5dac0f46,Owner 4372,+91XXXXXXXXXX,,London,IN,Seller,Generated
d1581504-668e-4ecb-9708-c336d2e783c9,Owner 3883,+91XXXXXXXXXX,,New York,IN,Seller,Generated
42acab7c-0850-4a84-8cdd-00f306580e2e,Owner 9229,+91XXXXXXXXXX,,Delhi,IN,Seller,Generated
8912ea4b-5f39-4284-babe-d9257c7943a7,Owner 8638,+91XXXXXXXXXX,,London,IN,Seller,Generated
4719ee03-5d05-4dce-be23-ffcefda13623,Owner 137,+91XXXXXXXXXX,,New York,IN,Seller,Generated
7419686b-c4d2-494a-b1ac-b4dcfed2f2a6,Owner 4027,+91XXXXXXXXXX,,New York,IN,Seller,Generated
69789560-b121-44f0-b150-92d95499eb9a,Owner 7776,+91XXXXXXXXXX,,New York,IN,Seller,Generated
d7b77b14-c1d4-43b4-8775-c79fe4516af9,Owner 7552,+91XXXXXXXXXX,,Delhi,IN,Seller,Generated
6a2f2112-3717-4149-a480-250edce2c42e,Owner 7077,+91XXXXXXXXXX,,Mumbai,IN,Seller,Generated
30242f37-b056-4c4a-827b-6e6c40de9560,Owner 8946,+91XXXXXXXXXX,,Mumbai,IN,Seller,Generated
e6232933-033a-43b6-8247-89a3c990c5d7,Owner 6545,+91XXXXXXXXXX,,Delhi,IN,Seller,Generated
f6ac89e8-ce71-4e97-9e49-97b13c3b1858,Owner 3604,+91XXXXXXXXXX,,Delhi,IN,Seller,Generated
8a76b030-d1d2-4849-8de6-935bc8c39f9a,Owner 9167,+91XXXXXXXXXX,,London,IN,Seller,Generated
9630862b-98f7-4148-b90f-5d7c04912c7b,Owner 7995,+91XXXXXXXXXX,,London,IN,Seller,Generated
6718d24d-2474-4166-9953-3e3f79f314f2,Owner 6553,+91XXXXXXXXXX,,Delhi,IN,Seller,Generated
5f450bfc-70e0-40aa-801e-f22c5031fee6,Owner 9972,+91XXXXXXXXXX,,New York,IN,Seller,Generated
1fe80812-5e9c-4799-a3d9-44009611400f,Owner 627,+91XXXXXXXXXX,,Mumbai,IN,Seller,Generated
f95be454-6bfa-4560-9b93-794770254d21,Owner 178,+91XXXXXXXXXX,,Mumbai,IN,Seller,Generated
11dfb06e-9ac6-49c9-9be9-3f746ff94c59,Owner 1359,+91XXXXXXXXXX,,London,IN,Seller,Generated
c357591c-f39b-47be-9037-c47e5cd2ac4b,Owner 3772,+91XXXXXXXXXX,,London,IN,Seller,Generated
d7d9cd50-314e-4f6f-ab40-f5d93ceb1ac4,Owner 8872,+91XXXXXXXXXX,,Delhi,IN,Seller,Generated
ecdcfebe-cef7-43c0-9b45-734d2fbc1696,Owner 7899,+91XXXXXXXXXX,,New York,IN,Seller,Generated
c6394e10-2f43-46f6-9a49-95904118fd11,Owner 4692,+91XXXXXXXXXX,,Delhi,IN,Seller,Generated
4d81012f-7ba2-4f9a-8701-f1eb465ed067,Owner 4183,+91XXXXXXXXXX,,Mumbai,IN,Seller,Generated
46ebdbfa-b5d3-4b25-bed4-0c44ee29f236,Owner 7513,+91XXXXXXXXXX,,Mumbai,IN,Seller,Generated
a2a7d57e-123e-4f40-9c38-5e48d9f3451f,Owner 7319,+91XXXXXXXXXX,,London,IN,Seller,Generated
f874b0c0-10e1-437f-85ba-b19063c78e13,Owner 5696,+91XXXXXXXXXX,,New York,IN,Seller,Generated
ce8ed21e-1a18-4f49-85b0-dd68ad10aa6f,Owner 6590,+91XXXXXXXXXX,,New York,IN,Seller,Generated
b0399b1c-1739-4e50-a07a-e1228ee5a018,Owner 7074,+91XXXXXXXXXX,,New York,IN,Seller,Generated
4d8adddd-37dc-49c5-b554-7663a4ab6e24,Owner 2904,+91XXXXXXXXXX,,Mumbai,IN,Seller,Generated
307ff7ad-fda4-49e1-84e2-fa9ae7fd5022,Owner 229,+91XXXXXXXXXX,,New York,IN,Seller,Generated
a77b81b6-7182-4119-8ca5-1d8152187df1,Owner 287,+91XXXXXXXXXX,,London,IN,Seller,Generated
62ea3324-e83b-4c7a-b232-aa2a9249e2a7,Owner 5518,+91XXXXXXXXXX,,New York,IN,Seller,Generated
1260be4d-ffee-42cd-b752-b3e3bd23e65a,Owner 5785,+91XXXXXXXXXX,,New York,IN,Seller,Generated
7b170cf6-704d-4dd7-8632-12bed861633e,Owner 5854,+91XXXXXXXXXX,,New York,IN,Seller,Generated
bdd49c5a-9f53-488e-a551-950e02bc0b4d,Owner 2615,+91XXXXXXXXXX,,New York,IN,Seller,Generated
01fc2c11-2787-400b-b9f2-edee387f8002,Owner 4244,+91XXXXXXXXXX,,Delhi,IN,Seller,Generated
5fe261e2-1f56-4b01-a469-5fbc8e908ddf,Owner 7908,+91XXXXXXXXXX,,London,IN,Seller,Generated
ddbda1f0-4b9c-4448-845f-fbdf9657c527,Owner 3484,+91XXXXXXXXXX,,London,IN,Seller,Generated
3ac9edf0-223d-4301-a690-6527c86ea8cd,Owner 2670,+91XXXXXXXXXX,,Mumbai,IN,Seller,Generated
0a291ce1-5d11-4831-a251-932430b44656,Owner 1595,+91XXXXXXXXXX,,Mumbai,IN,Seller,Generated
35d23d94-bdf3-479e-9ea8-17ea4e88b4b1,Owner 7163,+91XXXXXXXXXX,,Mumbai,IN,Seller,Generated
4eacd6b4-3b70-422b-adfa-4f6c0321ff2d,Owner 1391,+91XXXXXXXXXX,,London,IN,Seller,Generated
d33c0dd2-5139-4254-aa13-1cce9b0b9857,Owner 3897,+91XXXXXXXXXX,,Delhi,IN,Seller,Generated
cce5f86b-be96-4fb3-b865-04bf2502a063,Owner 6266,+91XXXXXXXXXX,,New York,IN,Seller,Generated
290b3cbe-ee51-452a-97bc-067f161d69ee,Owner 3333,+91XXXXXXXXXX,,Mumbai,IN,Seller,Generated
91e78461-53e1-4133-ac85-b30ea9f1d3e7,Owner 9189,+91XXXXXXXXXX,,New York,IN,Seller,Generated
e8ba3c53-2787-4a26-8fc0-83501aef0d71,Owner 4796,+91XXXXXXXXXX,,London,IN,Seller,Generated
71b115e5-d993-491d-ae37-9169426809f3,Owner 4314,+91XXXXXXXXXX,,Delhi,IN,Seller,Generated
f472b84b-5729-428d-87a7-9ba991ef7816,Owner 5989,+91XXXXXXXXXX,,Mumbai,IN,Seller,Generated
508f0fb4-eea0-47d2-855a-277e402fae52,Owner 6287,+91XXXXXXXXXX,,Mumbai,IN,Seller,Generated
438b2dab-6d3a-4ea1-8588-5823be8bd52d,Owner 4723,+91XXXXXXXXXX,,Mumbai,IN,Seller,Generated
14e6ecbc-2752-4145-b278-9464ed760f3c,Owner 3113,+91XXXXXXXXXX,,Delhi,IN,Seller,Generated
8e28038c-1a2a-4e24-9858-157fae9371f7,Owner 2588,+91XXXXXXXXXX,,Delhi,IN,Seller,Generated
44dd8fc5-78ed-45a9-99a3-312b2167f61b,Owner 4645,+91XXXXXXXXXX,,Mumbai,IN,Seller,Generated
cad95ada-7db5-4d51-a756-f2b584f3133f,Owner 9761,+91XXXXXXXXXX,,New York,IN,Seller,Generated
50808597-ef7a-40d4-bf77-104cd4400b82,Owner 6174,+91XXXXXXXXXX,,Mumbai,IN,Seller,Generated
48396c1c-d390-4f21-99f3-d0f63f9e0537,Owner 1566,+91XXXXXXXXXX,,Mumbai,IN,Seller,Generated
c5ef86ed-b939-42b3-9c39-fe83a6e96102,Owner 9068,+91XXXXXXXXXX,,Delhi,IN,Seller,Generated
fd01e5a4-14be-4105-8f60-ea48d04801d5,Owner 1098,+91XXXXXXXXXX,,Delhi,IN,Seller,Generated
d736a370-c789-4048-8b64-307ea0025d2d,Owner 9964,+91XXXXXXXXXX,,Delhi,IN,Seller,Generated
ce05fb1e-1477-45f1-a0dd-672c78ce19f6,Owner 7121,+91XXXXXXXXXX,,New York,IN,Seller,Generated
e9e32844-ba14-487f-a0df-8390d2f4c1ce,Owner 5602,+91XXXXXXXXXX,,Delhi,IN,Seller,Generated
1107befd-20b0-4ba3-9155-6a40b714de3f,Owner 5376,+91XXXXXXXXXX,,Delhi,IN,Seller,Generated
af431d89-832e-4024-acbc-08829ce7e852,Owner 8098,+91XXXXXXXXXX,,New York,IN,Seller,Generated
1216916f-1130-44d8-857e-86b9feefe83f,Owner 1590,+91XXXXXXXXXX,,Delhi,IN,Seller,Generated
73a134ff-ebdb-4398-9df0-81ed2f6afb88,Owner 3337,+91XXXXXXXXXX,,Mumbai,IN,Seller,Generated
30a7c97c-6771-4dd4-b1e9-614839effd35,Owner 3601,+91XXXXXXXXXX,,Delhi,IN,Seller,Generated
d23c2158-a66b-47f2-88bb-55f416d21e63,Owner 2111,+91XXXXXXXXXX,,London,IN,Seller,Generated
fae777da-2412-4d55-8a3e-68cab8e2ae4b,Owner 6426,+91XXXXXXXXXX,,London,IN,Seller,Generated
96fedb54-1a4d-4e62-b763-1dd7983f7749,Owner 5151,+91XXXXXXXXXX,,Mumbai,IN,Seller,Generated
0b27288a-7cc6-4f70-9f7b-9383ec133ba1,Owner 7711,+91XXXXXXXXXX,,Mumbai,IN,Seller,Generated
08b80bb4-31c9-43e3-b1f6-a6b684d234f3,Owner 7138,+91XXXXXXXXXX,,London,IN,Seller,Generated
ee2a82be-76cf-4bd9-9e47-adbb1af0f041,Owner 5272,+91XXXXXXXXXX,,London,IN,Seller,Generated
bafbde06-7384-491c-b9ca-08f04d423ea4,Owner 1458,+91XXXXXXXXXX,,Mumbai,IN,Seller,Generated
2231846a-98a2-4fa6-9322-7afff241297a,Owner 8877,+91XXXXXXXXXX,,Delhi,IN,Seller,Generated
55e367e6-5d91-4296-9bf5-32ff226fefa4,Owner 2162,+91XXXXXXXXXX,,Delhi,IN,Seller,Generated
e1d0f6f5-29af-47e9-ae70-23750a6fe19c,Owner 2393,+91XXXXXXXXXX,,Mumbai,IN,Seller,Generated
58e046d2-c207-4a19-afe8-0af0f6796a47,Owner 7872,+91XXXXXXXXXX,,Mumbai,IN,Seller,Generated
51fe31ff-0b26-4514-9dd4-baca87166e26,Owner 1579,+91XXXXXXXXXX,,London,IN,Seller,Generated
77b3982a-8f90-4ac7-b93b-307a6cd2a7d8,Owner 1383,+91XXXXXXXXXX,,Mumbai,IN,Seller,Generated
0744c1c2-af59-49f1-86f0-070033675041,Owner 2331,+91XXXXXXXXXX,,Mumbai,IN,Seller,Generated
d80704a7-362a-48a1-bae7-abaf9005926b,Owner 6574,+91XXXXXXXXXX,,Delhi,IN,Seller,Generated
aeb8c79d-9019-4de8-8960-31a12ced37bb,Owner 16,+91XXXXXXXXXX,,Delhi,IN,Seller,Generated
a4cc290a-5f8d-4c70-af81-27064978b6b9,Owner 201,+91XXXXXXXXXX,,Delhi,IN,Seller,Generated
def00bbd-4445-460b-97fc-7cced162adb1,Owner 6407,+91XXXXXXXXXX,,Delhi,IN,Seller,Generated
2c6dda2d-4562-49a8-a443-c33f9ba1c3a0,Owner 3843,+91XXXXXXXXXX,,London,IN,Seller,Generated
5f38cdd1-97e0-43f9-a743-ef2a0f9b0241,Owner 7735,+91XXXXXXXXXX,,Delhi,IN,Seller,Generated
f27ede5a-f99a-4623-8eb1-27d94f54a9f7,Owner 9804,+91XXXXXXXXXX,,Delhi,IN,Seller,Generated
ca7964f5-d2e2-433b-a28c-670b39f5c9d4,Owner 5281,+91XXXXXXXXXX,,Delhi,IN,Seller,Generated
e2de2dce-21c8-48f0-b066-1dd9523dc3d3,Owner 2336,+91XXXXXXXXXX,,Delhi,IN,Seller,Generated
7c65ae26-dd02-4c9c-b5d4-6331f191fb94,Owner 9524,+91XXXXXXXXXX,,Mumbai,IN,Seller,Generated
182d1350-80ca-4661-a614-214991bb03ee,Owner 5671,+91XXXXXXXXXX,,Delhi,IN,Seller,Generated
fdca64a5-36a4-4fbc-a152-74573109e16c,Owner 7364,+91XXXXXXXXXX,,Delhi,IN,Seller,Generated
2abe501d-7d16-4c9a-aa8f-04ad2519db53,Owner 7049,+91XXXXXXXXXX,,New York,IN,Seller,Generated
3c638724-1347-4bf1-bffe-1f3395a11c7a,Owner 844,+91XXXXXXXXXX,,Delhi,IN,Seller,Generated
07f99b37-541c-43dd-81b8-dae82a3b451e,Owner 6087,+91XXXXXXXXXX,,New York,IN,Seller,Generated
2116efcf-ced3-472e-8445-21de8eec1b84,Owner 3471,+91XXXXXXXXXX,,New York,IN,Seller,Generated
6163cbfd-6370-4409-8897-2a888cd9a94a,Owner 9747,+91XXXXXXXXXX,,Mumbai,IN,Seller,Generated
ab6da49d-a9c5-4cba-8f8f-cc1414ae8344,Owner 8548,+91XXXXXXXXXX,,Mumbai,IN,Seller,Generated
8c515be1-16e6-4d4c-96e1-cb8130b490a1,Owner 8999,+91XXXXXXXXXX,,Mumbai,IN,Seller,Generated
1e4d4667-b988-48f5-a482-367f759648db,Owner 5789,+91XXXXXXXXXX,,New York,IN,Seller,Generated
a3c64e66-003a-44e1-bcec-b44e1456dd01,Owner 6693,+91XXXXXXXXXX,,Mumbai,IN,Seller,Generated
25d73ea5-bc93-4303-9375-712a2edc7ea6,Owner 8964,+91XXXXXXXXXX,,New York,IN,Seller,Generated
3da20ff5-1175-4172-8f17-a918bb6e71bc,Owner 4459,+91XXXXXXXXXX,,Mumbai,IN,Seller,Generated
0d09b123-1d42-46c9-b652-2766b3fe0dbe,Owner 9465,+91XXXXXXXXXX,,New York,IN,Seller,Generated
e2cf62bc-d95d-4939-ba16-26a795c3314b,Owner 3967,+91XXXXXXXXXX,,Delhi,IN,Seller,Generated
26c3035e-6e30-4fed-a888-1755ecf2a10d,Owner 1490,+91XXXXXXXXXX,,London,IN,Seller,Generated
77c03949-47ca-4d02-bcd8-c1f17c25b55e,Owner 6777,+91XXXXXXXXXX,,New York,IN,Seller,Generated
e35cfebe-8a1e-4d79-8a3a-e0fe9d9ee294,Owner 7051,+91XXXXXXXXXX,,London,IN,Seller,Generated
ef036ed4-dc8b-43f0-bb03-7612a95096ab,Owner 9431,+91XXXXXXXXXX,,Mumbai,IN,Seller,Generated
34d9195d-be97-46b9-89e9-c6c559f0dc0c,Owner 3426,+91XXXXXXXXXX,,New York,IN,Seller,Generated
cecff3a7-e04d-4640-a514-1f8a3dea8a99,Owner 2326,+91XXXXXXXXXX,,London,IN,Seller,Generated
c1b56123-6f26-40de-a787-f93f136b674d,Owner 7214,+91XXXXXXXXXX,,Delhi,IN,Seller,Generated
8a2bbbda-4ee5-4aa5-808a-b77b6d63c01e,Owner 3665,+91XXXXXXXXXX,,New York,IN,Seller,Generated
7e903840-87ed-49e0-be92-2667f4b12807,Owner 6577,+91XXXXXXXXXX,,New York,IN,Seller,Generated
37673ea2-565c-48a2-930c-65e60f170957,Owner 6088,+91XXXXXXXXXX,,London,IN,Seller,Generated
68463703-c14a-4487-8d24-56a764548674,Owner 6689,+91XXXXXXXXXX,,Delhi,IN,Seller,Generated
2ab47bcb-75de-41e0-81ac-cf392255b885,Owner 7528,+91XXXXXXXXXX,,Delhi,IN,Seller,Generated
c90eda3f-d86d-40df-b947-469a88d21472,Owner 355,+91XXXXXXXXXX,,Delhi,IN,Seller,Generated
b96f38a9-0247-4c8b-8352-e121a3fa3613,Owner 8142,+91XXXXXXXXXX,,Delhi,IN,Seller,Generated
c37e6a4a-a209-4fdf-8345-5127be969344,Owner 1530,+91XXXXXXXXXX,,Mumbai,IN,Seller,Generated
5096347b-1427-431e-b6ee-b5f9cd90bf27,Owner 4130,+91XXXXXXXXXX,,Mumbai,IN,Seller,Generated
5cfdb2e1-2a95-4f9b-8a8e-38debf751781,Owner 5105,+91XXXXXXXXXX,,London,IN,Seller,Generated
00bdaab1-03f1-493b-b40a-a13c1a3bf521,Owner 1922,+91XXXXXXXXXX,,Mumbai,IN,Seller,Generated
e9006d68-2408-498c-bf77-dbf2f9e638b3,Owner 5496,+91XXXXXXXXXX,,Mumbai,IN,Seller,Generated
427a212e-1cef-4b39-bd70-367136655bb6,Owner 1323,+91XXXXXXXXXX,,Mumbai,IN,Seller,Generated
eb6104bc-89dd-43a2-a908-99a45754ffd7,Owner 7077,+91XXXXXXXXXX,,New York,IN,Seller,Generated
b949d1b1-7b26-4eee-b5c0-25b3aa3aa9d3,Owner 5661,+91XXXXXXXXXX,,New York,IN,Seller,Generated
440ed0a1-0cc7-44d5-8c1c-a1743d77ee8f,Owner 4271,+91XXXXXXXXXX,,New York,IN,Seller,Generated
936d17b9-91e1-45ca-b186-64eab37c963a,Owner 4664,+91XXXXXXXXXX,,London,IN,Seller,Generated
52d4d576-14cc-445d-9cd0-98cc2a975b07,Owner 724,+91XXXXXXXXXX,,New York,IN,Seller,Generated
dcfecc79-bc19-459d-ae08-a5de4c8d603f,Owner 9850,+91XXXXXXXXXX,,New York,IN,Seller,Generated
5a87a501-074e-4f4f-a33b-698f55fff874,Owner 19,+91XXXXXXXXXX,,Delhi,IN,Seller,Generated
3be0898e-20f0-4fe6-8ef6-a0ae453541f0,Owner 9656,+91XXXXXXXXXX,,London,IN,Seller,Generated
c25cc0e6-5420-4f69-bd6e-432d942c4b1b,Owner 7427,+91XXXXXXXXXX,,Delhi,IN,Seller,Generated
45b4faa3-c793-484b-a364-126dc72d474d,Owner 1976,+91XXXXXXXXXX,,London,IN,Seller,Generated
9935252f-5b83-4ba7-9c26-b95f2277fe1e,Owner 7204,+91XXXXXXXXXX,,London,IN,Seller,Generated
48901473-b51e-4dad-8583-d70ad5fba87c,Owner 874,+91XXXXXXXXXX,,Mumbai,IN,Seller,Generated
81d7c52c-7aaf-4923-acb9-3a7294466f44,Owner 1447,+91XXXXXXXXXX,,London,IN,Seller,Generated
8bea964e-ee5c-446d-a343-f3eff59b843f,Owner 6931,+91XXXXXXXXXX,,Delhi,IN,Seller,Generated
ede6b59d-ae5d-4a75-8d91-19a7f6dbdd51,Owner 7451,+91XXXXXXXXXX,,Mumbai,IN,Seller,Generated
00cb40b1-a947-47c0-9e8f-14d6a7605bdd,Owner 4458,+91XXXXXXXXXX,,New York,IN,Seller,Generated
fac4292d-de38-43ab-91a2-1361c3dbac6c,Owner 1824,+91XXXXXXXXXX,,Mumbai,IN,Seller,Generated
f1d9bc47-7f62-48c1-bb19-7cf3f3234861,Owner 9919,+91XXXXXXXXXX,,New York,IN,Seller,Generated
17a176ea-7f40-4a3d-8a03-1fd600be7ef0,Owner 6997,+91XXXXXXXXXX,,Delhi,IN,Seller,Generated
0c68f056-5986-4a37-8cef-afa9a47e504d,Owner 3020,+91XXXXXXXXXX,,London,IN,Seller,Generated
afd1b8b8-652d-4a0b-befd-06ad7301d4e4,Owner 5164,+91XXXXXXXXXX,,London,IN,Seller,Generated
9504496f-441a-4dd8-9a24-c7b7af558310,Owner 6131,+91XXXXXXXXXX,,Mumbai,IN,Seller,Generated
e512989e-ded7-4fad-aefe-b34340f8cdfe,Owner 5301,+91XXXXXXXXXX,,New York,IN,Seller,Generated
867b48b8-6277-4dda-97dd-e3ba59e83367,Owner 8243,+91XXXXXXXXXX,,New York,IN,Seller,Generated
fc23c1e9-6795-4eaa-891d-342d4aa0b6a4,Owner 8063,+91XXXXXXXXXX,,Delhi,IN,Seller,Generated
ab73b9ab-ca10-4771-b88a-9e932c4c238c,Owner 2409,+91XXXXXXXXXX,,Delhi,IN,Seller,Generated
2ef4df72-dd1a-451d-8036-921466450b91,Owner 8390,+91XXXXXXXXXX,,London,IN,Seller,Generated
c9591a40-edc9-4fbc-be66-a1ef59b32c62,Owner 9040,+91XXXXXXXXXX,,Mumbai,IN,Seller,Generated
1f872475-731a-4b67-a9a9-a4bf6415dbcf,Owner 7438,+91XXXXXXXXXX,,Delhi,IN,Seller,Generated
14134c7e-8d74-4afb-9af0-b202bb52fedf,Owner 704,+91XXXXXXXXXX,,London,IN,Seller,Generated
807f1959-e9ef-4b21-91b9-75926ec58b8c,Owner 277,+91XXXXXXXXXX,,Mumbai,IN,Seller,Generated
584256fe-a63f-473c-839f-b2042cb0656b,Owner 7613,+91XXXXXXXXXX,,Delhi,IN,Seller,Generated
0a024f89-8254-4fc1-a381-553a01662a73,Owner 8201,+91XXXXXXXXXX,,London,IN,Seller,Generated
d43ba8bb-440a-4866-bf79-c5cc4531514c,Owner 8114,+91XXXXXXXXXX,,London,IN,Seller,Generated
0da8406f-6ae4-427f-820a-5c9623cbd02b,Owner 1155,+91XXXXXXXXXX,,Mumbai,IN,Seller,Generated
a9f5d153-f7a6-4ffa-bb3d-a6c38a97af5b,Owner 4235,+91XXXXXXXXXX,,New York,IN,Seller,Generated
60685aea-1434-4707-a081-bb36caf1edfb,Owner 2086,+91XXXXXXXXXX,,Mumbai,IN,Seller,Generated
6130c684-41e0-4594-8251-27259c17171d,Owner 4095,+91XXXXXXXXXX,,London,IN,Seller,Generated
51d5db1e-18be-4f2c-a963-8f560ce3a122,Owner 7643,+91XXXXXXXXXX,,New York,IN,Seller,Generated
5b59a4ad-8d19-4274-8d9c-ff0f3165be8f,Owner 430,+91XXXXXXXXXX,,Mumbai,IN,Seller,Generated
98b2ed1b-add4-4795-8071-4a848e458bef,Owner 211,+91XXXXXXXXXX,,Mumbai,IN,Seller,Generated
4f7a7d52-7803-4397-ad53-3bf2910a0659,Owner 2894,+91XXXXXXXXXX,,New York,IN,Seller,Generated
cf40a8d7-a0f8-43d5-92f8-03e9a483da75,Owner 6600,+91XXXXXXXXXX,,Delhi,IN,Seller,Generated
3d7522d3-8110-4e2c-941d-ff5bc95384fe,Owner 8682,+91XXXXXXXXXX,,London,IN,Seller,Generated
768a2cc7-38d1-472a-aac0-2902b2d48156,Owner 8192,+91XXXXXXXXXX,,Delhi,IN,Seller,Generated
653211c4-3371-44e2-bcbf-268db43b8dbe,Owner 6863,+91XXXXXXXXXX,,London,IN,Seller,Generated
ab7cc763-d524-4141-a4fb-7a4695c1e2d7,Owner 1784,+91XXXXXXXXXX,,Delhi,IN,Seller,Generated
bfa9653e-811b-41a8-88f8-feeb50cc5289,Owner 2023,+91XXXXXXXXXX,,New York,IN,Seller,Generated
17608f49-00b0-4708-9099-ffd72c940453,Owner 5911,+91XXXXXXXXXX,,New York,IN,Seller,Generated
63693f49-5bd0-40ec-8cc8-9581576e61a9,Owner 5654,+91XXXXXXXXXX,,London,IN,Seller,Generated
d9099b9c-b54c-470e-a64b-89363cd97e40,Owner 7863,+91XXXXXXXXXX,,Mumbai,IN,Seller,Generated
f44f46fa-d00b-4ea6-8d92-8d500747aec9,Owner 6523,+91XXXXXXXXXX,,Mumbai,IN,Seller,Generated
7698c25e-440a-410d-8480-4d4acd85c7ad,Owner 5904,+91XXXXXXXXXX,,London,IN,Seller,Generated
64fc4363-c505-4320-a616-96efb912f92e,Owner 9277,+91XXXXXXXXXX,,London,IN,Seller,Generated
55c4347f-0365-41e5-af49-5c857655b618,Owner 7026,+91XXXXXXXXXX,,London,IN,Seller,Generated
7515f35c-bafb-47fe-a17d-44476bee7153,Owner 1350,+91XXXXXXXXXX,,London,IN,Seller,Generated
739cf109-09dd-441c-9e3c-a00393664fd4,Owner 3869,+91XXXXXXXXXX,,Mumbai,IN,Seller,Generated
19f38daf-bbbe-4651-8de9-945e87a478bf,Owner 6090,+91XXXXXXXXXX,,Delhi,IN,Seller,Generated
704c6e15-37a6-44a4-b2a6-cd4b466bccc2,Owner 6418,+91XXXXXXXXXX,,Mumbai,IN,Seller,Generated
8cbb5300-c5ca-4a5e-9799-6736aaf1e47f,Owner 7424,+91XXXXXXXXXX,,Delhi,IN,Seller,Generated
58a51c09-af4b-465a-b0c5-b1ff746c223f,Owner 9569,+91XXXXXXXXXX,,London,IN,Seller,Generated
a810bb5b-b569-447a-b384-83b9295a62c1,Owner 4894,+91XXXXXXXXXX,,Delhi,IN,Seller,Generated
d4a89b3c-58d7-4228-b353-6633426bd04c,Owner 9913,+91XXXXXXXXXX,,Delhi,IN,Seller,Generated
959b1934-0a66-4541-bc98-b8e34acaec8e,Owner 718,+91XXXXXXXXXX,,Delhi,IN,Seller,Generated
6ac2d1c1-d3f0-426a-bfa0-576cc1164489,Owner 6689,+91XXXXXXXXXX,,New York,IN,Seller,Generated
f5f23aca-7264-442a-a5bb-152c319e826c,Owner 4466,+91XXXXXXXXXX,,Mumbai,IN,Seller,Generated
0ccbe04b-3b43-4e59-ac86-f0b2909807f0,Owner 2025,+91XXXXXXXXXX,,Mumbai,IN,Seller,Generated
b652645e-12fb-4949-9220-806f27382882,Owner 3918,+91XXXXXXXXXX,,Delhi,IN,Seller,Generated
9a974827-ee47-4309-a2fa-5528129e122d,Owner 521,+91XXXXXXXXXX,,New York,IN,Seller,Generated
6bb67565-1c92-4017-93ae-2763253538b3,Owner 1481,+91XXXXXXXXXX,,Mumbai,IN,Seller,Generated
a5acd8a6-779e-43f0-b024-9d491da13a5d,Owner 8110,+91XXXXXXXXXX,,Delhi,IN,Seller,Generated
605e015b-5b5b-4fab-8253-81793794ed0e,Owner 5655,+91XXXXXXXXXX,,New York,IN,Seller,Generated
8c9aea7f-6d90-4c34-834c-81c98baaa8de,Owner 754,+91XXXXXXXXXX,,New York,IN,Seller,Generated
5955c71a-2653-4b30-b371-081bddc0b00a,Owner 7538,+91XXXXXXXXXX,,New York,IN,Seller,Generated
ea50dc60-f743-4ce4-83f9-63c38b1da264,Owner 3357,+91XXXXXXXXXX,,Mumbai,IN,Seller,Generated
32c7afba-ce26-4d70-94c9-0c15a354f59d,Owner 3188,+91XXXXXXXXXX,,New York,IN,Seller,Generated
4b8ba662-e7f8-4061-ba89-ba2795d7afc9,Owner 3007,+91XXXXXXXXXX,,Mumbai,IN,Seller,Generated
7727dfff-188c-43f8-a393-91b3d52c3e08,Owner 1861,+91XXXXXXXXXX,,New York,IN,Seller,Generated
4f0d207e-488a-4916-8de4-703853a73ae4,Owner 4050,+91XXXXXXXXXX,,Delhi,IN,Seller,Generated
781f19b3-1e79-43f4-8f92-f365b1844c6f,Owner 8947,+91XXXXXXXXXX,,London,IN,Seller,Generated
863e88fa-af9e-4037-980c-16e4baeaf645,Owner 4097,+91XXXXXXXXXX,,New York,IN,Seller,Generated
5cfd2e1c-b63b-41d8-9b2e-c049562cd5a7,Owner 101,+91XXXXXXXXXX,,Mumbai,IN,Seller,Generated
b7062c92-6b0f-4df5-88ed-9db125604dbd,Owner 4580,+91XXXXXXXXXX,,London,IN,Seller,Generated
95a5b53a-829c-443d-99a8-f2fbe2568cce,Owner 7733,+91XXXXXXXXXX,,New York,IN,Seller,Generated
0493df7f-774e-4d7d-8761-943d0f3a6fc6,Owner 3017,+91XXXXXXXXXX,,New York,IN,Seller,Generated
44222ab5-b8e6-4717-a328-9758aa00d6ae,Owner 589,+91XXXXXXXXXX,,Mumbai,IN,Seller,Generated
9a097a21-aa27-4e10-a5f4-be58a14a3c60,Owner 812,+91XXXXXXXXXX,,New York,IN,Seller,Generated
bfc646b2-c13d-437e-bfe9-37acba104d66,Owner 8790,+91XXXXXXXXXX,,Delhi,IN,Seller,Generated
b5a8b909-24d1-46fd-81e7-5d85ab209d82,Owner 1519,+91XXXXXXXXXX,,New York,IN,Seller,Generated
f20f40ae-4fef-4478-985c-d5c5e9af4ade,Owner 2578,+91XXXXXXXXXX,,New York,IN,Seller,Generated
593b6ffa-6c3e-4bca-aef2-79492e699272,Owner 9688,+91XXXXXXXXXX,,New York,IN,Seller,Generated
aecf2a3d-79db-4426-882c-970ea6effa11,Owner 8582,+91XXXXXXXXXX,,New York,IN,Seller,Generated
d95685fb-d433-4b7e-814e-aa1ab82a6fc0,Owner 718,+91XXXXXXXXXX,,Delhi,IN,Seller,Generated
bc8fa245-22f9-45a4-9d29-44a03388ca54,Owner 136,+91XXXXXXXXXX,,Mumbai,IN,Seller,Generated
e5831250-feaa-4288-a7d0-cb6560297149,Owner 8140,+91XXXXXXXXXX,,London,IN,Seller,Generated
c01b36aa-af77-4e17-93a1-38d51f00de1c,Owner 2862,+91XXXXXXXXXX,,Delhi,IN,Seller,Generated
78965f73-e2f2-4c02-85e6-99fc8fe3969c,Owner 4250,+91XXXXXXXXXX,,Delhi,IN,Seller,Generated
b7b15f0d-8ebc-4975-8ac8-ae781a9ae4d2,Owner 9251,+91XXXXXXXXXX,,Mumbai,IN,Seller,Generated
f3407b41-9fb0-44dc-a418-3b95aea47908,Owner 1119,+91XXXXXXXXXX,,New York,IN,Seller,Generated
a253406d-8009-4fb1-a169-5e5783326e82,Owner 588,+91XXXXXXXXXX,,London,IN,Seller,Generated
486c3f91-4fa7-4a94-965b-fac68c3a16ea,Owner 5881,+91XXXXXXXXXX,,Delhi,IN,Seller,Generated
94aa8002-a07d-4a8b-9842-b61c714d07f9,Owner 5135,+91XXXXXXXXXX,,London,IN,Seller,Generated
576faadf-09de-40fc-974b-2db16bafdfe6,Owner 5392,+91XXXXXXXXXX,,New York,IN,Seller,Generated
401aa5ef-7484-462f-8e4d-9080fc1c44ab,Owner 7447,+91XXXXXXXXXX,,Mumbai,IN,Seller,Generated
205f185a-b480-40c0-b784-13c6a5a46db7,Owner 397,+91XXXXXXXXXX,,Mumbai,IN,Seller,Generated
f723682d-d016-44e2-aa97-18d3507eacf7,Owner 2318,+91XXXXXXXXXX,,Mumbai,IN,Seller,Generated
28402c26-ba33-41e1-b05f-cbea30842570,Owner 4772,+91XXXXXXXXXX,,London,IN,Seller,Generated
7675d557-4728-4d65-bd00-ced92a9e788d,Owner 3300,+91XXXXXXXXXX,,London,IN,Seller,Generated
