lead_id,name,phone,email,city,country,type,notes
371bc2c3-c8d1-458a-a5a2-e63a8443cc8a,Owner 9541,+91XXXXXXXXXX,,Mumbai,IN,Seller,Generated
f6e565cb-bd9e-4576-96a8-28bdca5ead11,Owner 5722,+91XXXXXXXXXX,,New York,IN,Seller,Generated
1e283ab3-1a46-4186-9191-51d1c45e8217,Owner 69,+91XXXXXXXXXX,,London,IN,Seller,Generated
5a26f281-a77c-4185-8403-7ef069d0f060,Owner 2003,+91XXXXXXXXXX,,London,IN,Seller,Generated
fe8c17f7-db13-42b6-b83a-bf9c3549f45e,Owner 2149,+91XXXXXXXXXX,,Delhi,IN,Seller,Generated
c03f498b-1641-4aa9-95c6-874e9f02221e,Owner 9138,+91XXXXXXXXXX,,London,IN,Seller,Generated
cd7aeb58-5c50-4167-b840-cb257a68ceea,Owner 7180,+91XXXXXXXXXX,,Mumbai,IN,Seller,Generated
e63ebfd7-160e-47db-8b97-aec435bb0792,Owner 4095,+91XXXXXXXXXX,,Mumbai,IN,Seller,Generated
dfb622e7-a0b3-4538-bae8-79bcb0fbccc3,Owner 906,+91XXXXXXXXXX,,Mumbai,IN,Seller,Generated
6116df46-df5e-40ac-8a97-80eee3d6f586,Owner 7791,+91XXXXXXXXXX,,New York,IN,Seller,Generated
5ac24123-8195-42f5-8a15-24968234ed00,Owner 6528,+91XXXXXXXXXX,,Delhi,IN,Seller,Generated
e124716b-df4c-4e83-acb6-30421a0e8a18,Owner 6778,+91XXXXXXXXXX,,New York,IN,Seller,Generated
e168cc9c-daae-4887-88c2-c837f84ffd8c,Owner 112,+91XXXXXXXXXX,,Mumbai,IN,Seller,Generated
564d3d66-8073-4e7a-84f5-32554f1f4b2b,Owner 2868,+91XXXXXXXXXX,,London,IN,Seller,Generated
c7a23cfc-e983-4953-ad6f-223faaf1dd56,Owner 5555,+91XXXXXXXXXX,,New York,IN,Seller,Generated
bb5899e2-6711-444a-b11a-dc7facae936f,Owner 1154,+91XXXXXXXXXX,,Mumbai,IN,Seller,Generated
558d2040-4334-40d0-bc54-fa4477803302,Owner 6048,+91XXXXXXXXXX,,Mumbai,IN,Seller,Generated
f6818144-e14e-416f-ad8b-12fb8c51351f,Owner 4027,+91XXXXXXXXXX,,New York,IN,Seller,Generated
0e1175bc-6c20-4164-9157-63ee6a67b9e8,Owner 9283,+91XXXXXXXXXX,,Mumbai,IN,Seller,Generated
1cfdd0bc-a3d7-4c65-a4c8-624e0e15f24b,Owner 3266,+91XXXXXXXXXX,,London,IN,Seller,Generated
19ac1023-4f54-4ce9-b9bc-d990655055bc,Owner 2881,+91XXXXXXXXXX,,Mumbai,IN,Seller,Generated
5ccbe27e-45d1-43d2-93ca-26cae0abc751,Owner 3664,+91XXXXXXXXXX,,New York,IN,Seller,Generated
974e8e7c-7e94-4ebb-a92d-bc31c04305b4,Owner 6638,+91XXXXXXXXXX,,New York,IN,Seller,Generated
fb7d75ea-bc32-4ce1-bbe1-04d8906c442f,Owner 928,+91XXXXXXXXXX,,Mumbai,IN,Seller,Generated
6606ecec-2859-47d9-8f69-4ff570359bc0,Owner 3973,+91XXXXXXXXXX,,Mumbai,IN,Seller,Generated
78c56657-ba5d-4544-afa7-7d0c36b1b358,Owner 4619,+91XXXXXXXXXX,,London,IN,Seller,Generated
b15fa02a-6a79-4b2b-aa80-63f0a95f2e78,Owner 7208,+91XXXXXXXXXX,,Mumbai,IN,Seller,Generated
431f41b4-dd6f-48a4-aab6-1ab88859c2e8,Owner 8541,+91XXXXXXXXXX,,Mumbai,IN,Seller,Generated
9bc624ed-6401-4aaf-b594-9d11ef243fba,Owner 2313,+91XXXXXXXXXX,,Mumbai,IN,Seller,Generated
ac76003e-9c3d-4364-92e6-8c3f1c03fcaa,Owner 8477,+91XXXXXXXXXX,,New York,IN,Seller,Generated
c7c52679-4543-4625-a4f6-30fe8b987b45,Owner 1938,+91XXXXXXXXXX,,New York,IN,Seller,Generated
247f4da2-688f-4225-b124-65346f939160,Owner 5426,+91XXXXXXXXXX,,New York,IN,Seller,Generated
bd4fa473-3ffc-43ba-b826-bceb4d9bbc0c,Owner 4108,+91XXXXXXXXXX,,Mumbai,IN,Seller,Generated
87b84d76-d74d-494a-b338-a1114a551f01,Owner 977,+91XXXXXXXXXX,,New York,IN,Seller,Generated
206c0dc6-eff2-4100-8ce6-465fc3dc0a51,Owner 5670,+91XXXXXXXXXX,,London,IN,Seller,Generated
bd125c8e-406a-46e6-bb05-1fb80eb9850a,Owner 509,+91XXXXXXXXXX,,New York,IN,Seller,Generated
900ef57a-f26d-44d2-a666-7bd8c9a44b66,Owner 855,+91XXXXXXXXXX,,Mumbai,IN,Seller,Generated
14e2421b-dc51-436c-908c-4ecda71e5dc7,Owner 4220,+91XXXXXXXXXX,,Delhi,IN,Seller,Generated
e37b8da5-a594-4ec5-aafb-b0b16f15361b,Owner 4833,+91XXXXXXXXXX,,London,IN,Seller,Generated
2f79e8a2-98b1-4ec7-8eec-e9ab912e4fc3,Owner 7999,+91XXXXXXXXXX,,Delhi,IN,Seller,Generated
68301557-feac-41fc-9fd8-b3e0beb053d3,Owner 9312,+91XXXXXXXXXX,,Mumbai,IN,Seller,Generated
f4d4e5d8-9b29-4635-97f6-590bce508d0a,Owner 8704,+91XXXXXXXXXX,,London,IN,Seller,Generated
5175eca7-5454-4d44-afa0-7346b4740100,Owner 351,+91XXXXXXXXXX,,Mumbai,IN,Seller,Generated
83069af8-ba5c-4169-9708-2e2a1b48b801,Owner 7441,+91XXXXXXXXXX,,Delhi,IN,Seller,Generated
ba361d06-7c34-4f6e-a655-1172da86a4f5,Owner 5342,+91XXXXXXXXXX,,Mumbai,IN,Seller,Generated
457d5c26-4e2b-40ee-95b1-e494d8d5562e,Owner 8304,+91XXXXXXXXXX,,New York,IN,Seller,Generated
49d18865-0f24-4ecf-805e-cc716be0f532,Owner 2887,+91XXXXXXXXXX,,London,IN,Seller,Generated
ee37057a-c84d-4d0b-b98c-63517390e216,Owner 4895,+91XXXXXXXXXX,,New York,IN,Seller,Generated
f07de5fd-b91f-49f9-aa0b-6497dc915ee2,Owner 9972,+91XXXXXXXXXX,,Mumbai,IN,Seller,Generated
87bd3046-74a3-4a7c-bbc0-baf83f850414,Owner 7137,+91XXXXXXXXXX,,London,IN,Seller,Generated
36588718-631a-48a8-bd3f-b9871100f961,Owner 8933,+91XXXXXXXXXX,,Delhi,IN,Seller,Generated
a04827c0-f580-4ffd-b423-005d78826830,Owner 6047,+91XXXXXXXXXX,,Delhi,IN,Seller,Generated
ef3d80ab-dc7e-4098-957d-a7a7ad674154,Owner 7583,+91XXXXXXXXXX,,Mumbai,IN,Seller,Generated
9f95f52d-169e-406b-bad9-700e96564a07,Owner 1837,+91XXXXXXXXXX,,New York,IN,Seller,Generated
3c46f3ee-c11e-4aad-8664-98b943e6e966,Owner 6478,+91XXXXXXXXXX,,New York,IN,Seller,Generated
4675d4af-903d-4dce-96a1-8789fae9dc33,Owner 533,+91XXXXXXXXXX,,Delhi,IN,Seller,Generated
dd162057-05f5-4517-92a6-f9782a9fa860,Owner 1042,+91XXXXXXXXXX,,London,IN,Seller,Generated
d7ad72ec-c788-4b90-bc35-ef86fec2827c,Owner 710,+91XXXXXXXXXX,,London,IN,Seller,Generated
609f4c19-df92-4290-9d8e-d7551221fd5f,Owner 8752,+91XXXXXXXXXX,,London,IN,Seller,Generated
f4b82907-5029-4fc1-b695-9cb72e3100d5,Owner 776,+91XXXXXXXXXX,,New York,IN,Seller,Generated
73bceff9-e852-4339-ad1c-7091e6585dad,Owner 9431,+91XXXXXXXXXX,,Delhi,IN,Seller,Generated
978ead00-476e-4fd4-8750-64bff839c4da,Owner 5631,+91XXXXXXXXXX,,Delhi,IN,Seller,Generated
dae33f94-be38-40cf-862b-ee1ce7bbb362,Owner 6808,+91XXXXXXXXXX,,Mumbai,IN,Seller,Generated
6015203a-5884-42f6-b77d-f9ebebc34494,Owner 1642,+91XXXXXXXXXX,,Delhi,IN,Seller,Generated
684b215b-fac1-45aa-8464-f36a930da79e,Owner 9400,+91XXXXXXXXXX,,London,IN,Seller,Generated
06c907c1-773d-4031-baf8-dddda1464ec4,Owner 1039,+91XXXXXXXXXX,,New York,IN,Seller,Generated
ea37a372-65cc-4c5c-9c2f-5b2344131ee1,Owner 6916,+91XXXXXXXXXX,,Mumbai,IN,Seller,Generated
7225af0b-2e49-4d97-82db-1dda235dbed4,Owner 2009,+91XXXXXXXXXX,,Delhi,IN,Seller,Generated
ac522c5a-ca9b-4c20-b6dc-a4bacb3f4165,Owner 7814,+91XXXXXXXXXX,,New York,IN,Seller,Generated
79a9ada1-64eb-4941-9d36-7108cd83fd24,Owner 3252,+91XXXXXXXXXX,,New York,IN,Seller,Generated
d3235405-97af-41de-be2f-b2b33e13a96f,Owner 9018,+91XXXXXXXXXX,,New York,IN,Seller,Generated
448af6bd-e7da-4735-ab2c-1c429180c78b,Owner 1406,+91XXXXXXXXXX,,London,IN,Seller,Generated
472512f0-3caa-4767-a3d8-22cd79b5c637,Owner 7086,+91XXXXXXXXXX,,New York,IN,Seller,Generated
e91b1af1-8d24-4f68-b680-de6000904918,Owner 5076,+91XXXXXXXXXX,,London,IN,Seller,Generated
c1213146-2ea8-4600-980b-87a4c0ed175f,Owner 3297,+91XXXXXXXXXX,,London,IN,Seller,Generated
41e13971-b815-4a8c-94fe-db3d69277fcc,Owner 5001,+91XXXXXXXXXX,,Delhi,IN,Seller,Generated
d6cb9fb2-abf6-4d89-b115-34cf8a31d22f,Owner 6584,+91XXXXXXXXXX,,Mumbai,IN,Seller,Generated
0cb57388-e22a-4f0c-8223-ebe8bae3b8e6,Owner 5968,+91XXXXXXXXXX,,London,IN,Seller,Generated
e71946d6-3e82-4355-8ac3-2c829e1943a0,Owner 8393,+91XXXXXXXXXX,,Mumbai,IN,Seller,Generated
a2833806-a387-4c4d-a960-8ca5106d0f4d,Owner 6291,+91XXXXXXXXXX,,Delhi,IN,Seller,Generated
3fdad3da-58e0-43c8-a5b8-43b008361dc3,Owner 8512,+91XXXXXXXXXX,,Mumbai,IN,Seller,Generated
510019b5-306e-48e8-bc98-54d8e10c0e55,Owner 4703,+91XXXXXXXXXX,,Delhi,IN,Seller,Generated
63214ce9-a7eb-4748-a72f-47b7c5fe904c,Owner 6719,+91XXXXXXXXXX,,Mumbai,IN,Seller,Generated
cc5cb40f-59cb-40f5-880b-4cbfae1ead02,Owner 5452,+91XXXXXXXXXX,,London,IN,Seller,Generated
f9d715f4-cba2-4dd3-ad61-74bbead44dd3,Owner 2308,+91XXXXXXXXXX,,Delhi,IN,Seller,Generated
ce29ad1c-b73f-4bd2-b9fd-6c9b4879b19e,Owner 924,+91XXXXXXXXXX,,London,IN,Seller,Generated
664550a2-f029-44e7-8a6b-6ef94fa2f2e0,Owner 7942,+91XXXXXXXXXX,,Delhi,IN,Seller,Generated
b064745f-781a-4091-a244-9b2f58df2d2d,Owner 5853,+91XXXXXXXXXX,,London,IN,Seller,Generated
02194f07-f5a5-4c1d-911b-39d41f0e1cff,Owner 4060,+91XXXXXXXXXX,,Mumbai,IN,Seller,Generated
a463cc84-9a63-4c16-b62c-57e4b98ecd3f,Owner 2491,+91XXXXXXXXXX,,New York,IN,Seller,Generated
cc0990c2-7a17-4490-86e1-4b5ed11b5e24,Owner 775,+91XXXXXXXXXX,,London,IN,Seller,Generated
a5f12444-1c65-405c-99e4-39117403d568,Owner 7459,+91XXXXXXXXXX,,New York,IN,Seller,Generated
0a243c17-4206-420c-8167-ce1668936368,Owner 6858,+91XXXXXXXXXX,,Delhi,IN,Seller,Generated
f69acec8-a808-409a-ada9-c5942af77974,Owner 9656,+91XXXXXXXXXX,,New York,IN,Seller,Generated
cac8d8a5-dc2c-4a84-8eb6-54f4ca54c343,Owner 6449,+91XXXXXXXXXX,,New York,IN,Seller,Generated
79c7c85d-695c-4b76-859f-e0cc8c490176,Owner 1563,+91XXXXXXXXXX,,New York,IN,Seller,Generated
c51faa0c-f662-46de-a54d-a896c4d44b8d,Owner 6658,+91XXXXXXXXXX,,Mumbai,IN,Seller,Generated
23bb6c5d-879a-4cf3-b5a3-8f80338f667d,Owner 8479,+91XXXXXXXXXX,,Delhi,IN,Seller,Generated
048f2c86-0ef4-4347-a13b-cf659988c76b,Owner 7272,+91XXXXXXXXXX,,New York,IN,Seller,Generated
b6677f83-0e30-4e9d-8ad9-2c2a7f2bf1b1,Owner 5865,+91XXXXXXXXXX,,Mumbai,IN,Seller,Generated
2048240e-a8cc-4808-b2b5-d3a2c26ecfc9,Owner 9424,+91XXXXXXXXXX,,New York,IN,Seller,Generated
2325df22-96c1-4b96-9b12-a1384a1bdb5c,Owner 5321,+91XXXXXXXXXX,,Mumbai,IN,Seller,Generated
c31f0996-0ec5-4ae7-93f5-35d616ffb8a0,Owner 5245,+91XXXXXXXXXX,,Mumbai,IN,Seller,Generated
72b8e26d-45cb-4cc5-b8ca-2c3083bd00b5,Owner 6068,+91XXXXXXXXXX,,Delhi,IN,Seller,Generated
290deff8-4134-4400-98f2-0f2e44328e6b,Owner 1155,+91XXXXXXXXXX,,New York,IN,Seller,Generated
1e2b51a4-e899-4899-aadf-eee9ee17e7ef,Owner 5700,+91XXXXXXXXXX,,London,IN,Seller,Generated
442c1e7e-bebc-481c-8e0c-e41a27615f39,Owner 4047,+91XXXXXXXXXX,,Mumbai,IN,Seller,Generated
aa980104-0b85-43ce-abd6-8f172ec57ea9,Owner 7648,+91XXXXXXXXXX,,Delhi,IN,Seller,Generated
5a42feb6-a0d9-4f65-99fa-843df7a4234c,Owner 4247,+91XXXXXXXXXX,,Mumbai,IN,Seller,Generated
3c2d816b-f97c-43e2-880a-00f4744ca9d4,Owner 6255,+91XXXXXXXXXX,,Delhi,IN,Seller,Generated
bfcd317d-1ce6-439c-9610-e70c2baf40d7,Owner 6094,+91XXXXXXXXXX,,Mumbai,IN,Seller,Generated
c75beb87-7067-4217-96fd-fb70e5be69f9,Owner 1325,+91XXXXXXXXXX,,New York,IN,Seller,Generated
abc3c3f4-4a78-40f8-b3dd-6db0f7bc75e1,Owner 600,+91XXXXXXXXXX,,Mumbai,IN,Seller,Generated
82bc778d-a2d5-4c13-9add-33864f10f5a1,Owner 1632,+91XXXXXXXXXX,,Mumbai,IN,Seller,Generated
793cf863-42f9-4d1d-a1f8-51dce90cd486,Owner 905,+91XXXXXXXXXX,,London,IN,Seller,Generated
6924ed20-cce7-4c3a-b6ca-ed9c8dabdca3,Owner 7925,+91XXXXXXXXXX,,New York,IN,Seller,Generated
d65b88ab-19b1-444b-9056-7c39d6f36b50,Owner 8907,+91XXXXXXXXXX,,Mumbai,IN,Seller,Generated
d8302a06-7549-484b-a048-f41bbcf4aa33,Owner 3641,+91XXXXXXXXXX,,London,IN,Seller,Generated
9f703c0d-ee31-4693-abd1-78c8e6ac8318,Owner 8272,+91XXXXXXXXXX,,Mumbai,IN,Seller,Generated
5a00408b-ac57-4693-810f-2140f11deaad,Owner 6462,+91XXXXXXXXXX,,Delhi,IN,Seller,Generated
cbb9a48a-a59c-41d5-869b-4a95b51d3e7c,Owner 7018,+91XXXXXXXXXX,,New York,IN,Seller,Generated
4ba363ba-8718-48b1-a3c4-c7f6bcfcb1ff,Owner 1590,+91XXXXXXXXXX,,London,IN,Seller,Generated
0ddd331b-997c-4123-a40f-62e35c1bb85f,Owner 2948,+91XXXXXXXXXX,,London,IN,Seller,Generated
3648d098-d3f1-4f07-90d1-ae3d82535eb1,Owner 341,+91XXXXXXXXXX,,Delhi,IN,Seller,Generated
8f3c8de0-2089-4c8c-91f3-5096bdb76d5f,Owner 7781,+91XXXXXXXXXX,,Delhi,IN,Seller,Generated
d04e8e3d-76f4-4167-bfe3-9558ddbdb6e5,Owner 1258,+91XXXXXXXXXX,,New York,IN,Seller,Generated
36d3b427-df62-4c12-aeab-cd50a9fa9b9c,Owner 8654,+91XXXXXXXXXX,,London,IN,Seller,Generated
a95639cd-c1f3-4571-90da-ed8f2aa12939,Owner 3644,+91XXXXXXXXXX,,Delhi,IN,Seller,Generated
64bd72f2-cabc-42fc-8248-2cf8c08810a5,Owner 5601,+91XXXXXXXXXX,,Delhi,IN,Seller,Generated
aedddacb-d6a7-4c30-8c77-edc2e3d138d6,Owner 840,+91XXXXXXXXXX,,London,IN,Seller,Generated
80ecb678-c248-4dd7-b2c6-fa823455896a,Owner 6375,+91XXXXXXXXXX,,New York,IN,Seller,Generated
311447bf-f3ef-481f-80ca-966c89f06eef,Owner 937,+91XXXXXXXXXX,,New York,IN,Seller,Generated
fe342fad-da0d-4f7a-815d-7c3febc3c419,Owner 7835,+91XXXXXXXXXX,,Mumbai,IN,Seller,Generated
1e8496c7-9945-4fd3-b56f-304247616230,Owner 5243,+91XXXXXXXXXX,,New York,IN,Seller,Generated
f7a12ab6-daba-42e6-8a10-e3d322e7d3fe,Owner 1277,+91XXXXXXXXXX,,Mumbai,IN,Seller,Generated
66c105cb-5b9e-4f18-ba56-d3b673a857e5,Owner 3400,+91XXXXXXXXXX,,Mumbai,IN,Seller,Generated
0594d4ed-7b0f-4b43-b091-c6bedfb6769e,Owner 564,+91XXXXXXXXXX,,Mumbai,IN,Seller,Generated
af92fe0f-d536-443b-90de-4315d099adcb,Owner 5570,+91XXXXXXXXXX,,Delhi,IN,Seller,Generated
1986ad35-d7c3-4c33-971f-aecd845c3048,Owner 1165,+91XXXXXXXXXX,,New York,IN,Seller,Generated
6b04049e-97b1-4dc7-ba59-397d12153f73,Owner 5348,+91XXXXXXXXXX,,New York,IN,Seller,Generated
b173e860-1c01-4c6b-9eff-c4144ad53829,Owner 3717,+91XXXXXXXXXX,,New York,IN,Seller,Generated
f2418417-14e8-4a81-9d0c-1ad1a70863ce,Owner 8501,+91XXXXXXXXXX,,Delhi,IN,Seller,Generated
d4d97acb-70c9-40e5-badd-c4790f883fb0,Owner 8411,+91XXXXXXXXXX,,London,IN,Seller,Generated
37949171-3997-4ec6-a60a-236475b0bb18,Owner 4297,+91XXXXXXXXXX,,New York,IN,Seller,Generated
3d64160e-07a8-4c3f-b374-682ef8beaebe,Owner 4957,+91XXXXXXXXXX,,Mumbai,IN,Seller,Generated
2f452a8f-ffc7-4f42-92d5-5bd55c9778a9,Owner 6623,+91XXXXXXXXXX,,Mumbai,IN,Seller,Generated
ee41f68c-bf9b-4a4f-827d-c6f2cea23433,Owner 9717,+91XXXXXXXXXX,,Delhi,IN,Seller,Generated
18ff3b84-5f27-4d69-b107-40be8787ae55,Owner 8470,+91XXXXXXXXXX,,London,IN,Seller,Generated
cf6c92f5-ec96-49ff-a917-a003abfce9f3,Owner 8185,+91XXXXXXXXXX,,New York,IN,Seller,Generated
88a3a877-d819-4f53-92dd-0d37511b2ba4,Owner 5096,+91XXXXXXXXXX,,New York,IN,Seller,Generated
b238ed94-13da-4cb1-b43d-a6b7e8a92445,Owner 6342,+91XXXXXXXXXX,,New York,IN,Seller,Generated
1ab03278-79e6-4a8f-98ce-a633074149a6,Owner 4631,+91XXXXXXXXXX,,Delhi,IN,Seller,Generated
4dff6f77-585a-49c3-9e2d-7aa3818bf9b1,Owner 5062,+91XXXXXXXXXX,,London,IN,Seller,Generated
71ad9226-e388-4752-a6b0-f7ab96bd55ff,Owner 5039,+91XXXXXXXXXX,,New York,IN,Seller,Generated
44ecfbd6-a46d-4b2a-9653-148066e46702,Owner 9393,+91XXXXXXXXXX,,New York,IN,Seller,Generated
80e458ff-204b-4419-9d89-3e99150ef16c,Owner 8502,+91XXXXXXXXXX,,New York,IN,Seller,Generated
2c34746c-91a3-49fd-8947-0f0de87c4d52,Owner 2187,+91XXXXXXXXXX,,London,IN,Seller,Generated
f3b47b71-fe90-4097-83cf-7bd6a34cf65a,Owner 5296,+91XXXXXXXXXX,,London,IN,Seller,Generated
5771d0fb-4bf5-4faa-9e1a-d094986c4f1e,Owner 1006,+91XXXXXXXXXX,,Delhi,IN,Seller,Generated
813db96c-dfda-4786-9f0b-a8a9d343171c,Owner 3673,+91XXXXXXXXXX,,New York,IN,Seller,Generated
0cbc7cfa-c522-4918-95df-912bfee6dccf,Owner 2392,+91XXXXXXXXXX,,London,IN,Seller,Generated
8aa19cf1-67d8-48a0-890c-ccf367204dba,Owner 2448,+91XXXXXXXXXX,,New York,IN,Seller,Generated
ad02aae1-e642-4aaf-8c1d-186ed5757233,Owner 6393,+91XXXXXXXXXX,,London,IN,Seller,Generated
0bc68adf-2428-4d35-ba52-6e9902d3d013,Owner 1648,+91XXXXXXXXXX,,Delhi,IN,Seller,Generated
2f330f93-4fbb-4424-8ddc-a50377818387,Owner 6217,+91XXXXXXXXXX,,Mumbai,IN,Seller,Generated
4426eeb2-4850-42a0-a433-a5cba4ef8063,Owner 679,+91XXXXXXXXXX,,New York,IN,Seller,Generated
274ad19d-b1f2-43ee-8916-68f7c8327b40,Owner 378,+91XXXXXXXXXX,,Mumbai,IN,Seller,Generated
d799576b-b6da-46e3-8ea2-bf78fd63ec4f,Owner 8941,+91XXXXXXXXXX,,London,IN,Seller,Generated
3213f265-a0e0-46ac-98f7-72389427dfeb,Owner 6301,+91XXXXXXXXXX,,London,IN,Seller,Generated
1c6dd4db-6de9-4d8a-a200-ef96353c5059,Owner 8444,+91XXXXXXXXXX,,Mumbai,IN,Seller,Generated
d8587eeb-e875-4565-80ba-2580e083eb36,Owner 4387,+91XXXXXXXXXX,,Delhi,IN,Seller,Generated
77d45ed4-f4c6-422d-9131-ef39c08c6102,Owner 9594,+91XXXXXXXXXX,,Delhi,IN,Seller,Generated
b565e567-28b4-4840-8167-d10cac87ce13,Owner 4275,+91XXXXXXXXXX,,London,IN,Seller,Generated
b7a2a363-996d-4252-85df-af93040842b6,Owner 782,+91XXXXXXXXXX,,New York,IN,Seller,Generated
34055a13-f05b-43bc-874d-51ce11824bb0,Owner 514,+91XXXXXXXXXX,,New York,IN,Seller,Generated
1a9e907d-95ce-487c-83a3-34691ab06311,Owner 6655,+91XXXXXXXXXX,,London,IN,Seller,Generated
d8f33a1c-f6d2-46ce-b892-fa7e8d1d12c0,Owner 2220,+91XXXXXXXXXX,,Delhi,IN,Seller,Generated
61e1dbc0-6d18-48da-b336-3668475a4dba,Owner 5689,+91XXXXXXXXXX,,London,IN,Seller,Generated
4871296e-b795-4b0b-8cc5-3dae81b5e6fe,Owner 7222,+91XXXXXXXXXX,,Mumbai,IN,Seller,Generated
b1b4324b-20ec-4599-89d2-081947f1b428,Owner 4469,+91XXXXXXXXXX,,New York,IN,Seller,Generated
7213231b-f384-4bce-9e70-74557f3ef80b,Owner 3325,+91XXXXXXXXXX,,Delhi,IN,Seller,Generated
a125b56f-66ae-4f5e-b23f-2c99d8c69213,Owner 4183,+91XXXXXXXXXX,,London,IN,Seller,Generated
c1945735-3d92-480f-a709-42618e44eb76,Owner 2295,+91XXXXXXXXXX,,New York,IN,Seller,Generated
048716d0-2373-4b40-b256-226de567030c,Owner 3690,+91XXXXXXXXXX,,London,IN,Seller,Generated
6eb36d53-0062-48bd-bb03-943f2c06f999,Owner 5680,+91XXXXXXXXXX,,Delhi,IN,Seller,Generated
686ca524-d0a6-4309-93c4-e06bc13ebc4f,Owner 3674,+91XXXXXXXXXX,,Delhi,IN,Seller,Generated
eef4d2d8-e02d-4ab7-8968-9aacfc8951aa,Owner 29,+91XXXXXXXXXX,,New York,IN,Seller,Generated
a021b5ba-ac31-4a2a-8df3-8c20cb535b2c,Owner 5229,+91XXXXXXXXXX,,London,IN,Seller,Generated
12229f7a-082f-440a-9652-473c38220173,Owner 8794,+91XXXXXXXXXX,,Mumbai,IN,Seller,Generated
52b2829c-3290-488e-9156-e7f9e30c9e04,Owner 1981,+91XXXXXXXXXX,,Delhi,IN,Seller,Generated
be0615b8-f442-4b56-9d20-a156bb6fc952,Owner 4550,+91XXXXXXXXXX,,London,IN,Seller,Generated
35b35c7f-f0d1-4625-97ca-aab81709a65e,Owner 991,+91XXXXXXXXXX,,London,IN,Seller,Generated
738bd084-a316-44c5-9066-93c5d8cec28b,Owner 1159,+91XXXXXXXXXX,,Delhi,IN,Seller,Generated
89619fce-f953-40d2-a67e-746c437f96cf,Owner 8832,+91XXXXXXXXXX,,London,IN,Seller,Generated
f5490b8e-7557-460c-928f-ea0c8d58ae76,Owner 9874,+91XXXXXXXXXX,,Mumbai,IN,Seller,Generated
ff586a9c-4311-4d2c-856b-a0f40b6c0ef3,Owner 5874,+91XXXXXXXXXX,,New York,IN,Seller,Generated
1756e6f8-566b-4514-ace5-dae4f2eb7499,Owner 7256,+91XXXXXXXXXX,,New York,IN,Seller,Generated
7b513921-b507-4c0d-a921-33fdd99d2b3d,Owner 7409,+91XXXXXXXXXX,,London,IN,Seller,Generated
d25fb890-6fe8-4edb-9d11-984eb1df128f,Owner 3966,+91XXXXXXXXXX,,London,IN,Seller,Generated
a3d4b76a-7f51-4972-94ee-ed0bc649e2c3,Owner 2857,+91XXXXXXXXXX,,Mumbai,IN,Seller,Generated
6259e549-e8db-4fb5-aba8-cdf84f424b31,Owner 9290,+91XXXXXXXXXX,,Mumbai,IN,Seller,Generated
c7d4b4c0-ae49-4ac5-827c-b0dd95f27eff,Owner 4160,+91XXXXXXXXXX,,Mumbai,IN,Seller,Generated
e73c5b59-fb74-4b92-9cd9-632dbc060779,Owner 6196,+91XXXXXXXXXX,,Mumbai,IN,Seller,Generated
d2c94a11-438f-438d-a397-e4a9ab2aea4d,Owner 8441,+91XXXXXXXXXX,,Delhi,IN,Seller,Generated
df0d36a4-43fc-4d7e-8471-8403b4b2cf3e,Owner 621,+91XXXXXXXXXX,,New York,IN,Seller,Generated
90d0edef-8ad9-45e3-ad11-a57a7fbaa8ca,Owner 3266,+91XXXXXXXXXX,,New York,IN,Seller,Generated
ef3d1f89-10fc-4498-9a41-40d8f3744828,Owner 765,+91XXXXXXXXXX,,New York,IN,Seller,Generated
cdd79591-c6b7-4085-951d-5b51567fddb3,Owner 197,+91XXXXXXXXXX,,London,IN,Seller,Generated
a9b61a55-73d6-4932-bd9b-7feebd8a670e,Owner 8003,+91XXXXXXXXXX,,Mumbai,IN,Seller,Generated
a8928ef6-435d-4203-b977-4b46b62003dd,Owner 2909,+91XXXXXXXXXX,,Mumbai,IN,Seller,Generated
88dd6204-c00d-4e20-8645-cb1d8aa1aa12,Owner 4704,+91XXXXXXXXXX,,London,IN,Seller,Generated
8ff123e0-e1e3-4c44-af11-cdc7ba4fc9ff,Owner 2722,+91XXXXXXXXXX,,New York,IN,Seller,Generated
c31bba33-8a4f-4395-9696-d9e7e174e316,Owner 1296,+91XXXXXXXXXX,,Mumbai,IN,Seller,Generated
eef908ca-eb8f-44fc-9f27-1d08087e71e5,Owner 1611,+91XXXXXXXXXX,,Delhi,IN,Seller,Generated
567dde5b-75be-4b80-a8b6-5e5f8cc69130,Owner 3951,+91XXXXXXXXXX,,New York,IN,Seller,Generated
36845916-ec97-45b3-ad90-89f37688ab4e,Owner 1081,+91XXXXXXXXXX,,Delhi,IN,Seller,Generated
908e9d4e-9ae9-43b2-8704-75e97b30c169,Owner 6044,+91XXXXXXXXXX,,London,IN,Seller,Generated
18b6ee1d-604e-4a07-8436-1d983f24176d,Owner 4518,+91XXXXXXXXXX,,Delhi,IN,Seller,Generated
3bfd56f0-703f-47ad-a4a7-62105427b717,Owner 7521,+91XXXXXXXXXX,,Delhi,IN,Seller,Generated
365cd6d2-9b4d-43f5-a757-1a8907e82475,Owner 2626,+91XXXXXXXXXX,,Delhi,IN,Seller,Generated
b5c2a6aa-2a84-449a-868f-6d3515b4df40,Owner 9262,+91XXXXXXXXXX,,London,IN,Seller,Generated
ccfa0dbe-25e8-4dc0-99e3-2cc2872d34f6,Owner 9883,+91XXXXXXXXXX,,New York,IN,Seller,Generated
89b15fb9-d08c-4ae9-9e53-13c4302a68fe,Owner 2373,+91XXXXXXXXXX,,New York,IN,Seller,Generated
8c81d7bc-e78e-475b-b784-29925dccc0c9,Owner 9230,+91XXXXXXXXXX,,New York,IN,Seller,Generated
1a97cc8c-d602-439c-bbc0-cf0f6af6071f,Owner 7597,+91XXXXXXXXXX,,Delhi,IN,Seller,Generated
852d40f4-78bf-478c-8286-012fb4a9e4d8,Owner 2655,+91XXXXXXXXXX,,Mumbai,IN,Seller,Generated
15a319a0-eaba-4c46-8216-22d2da41cb6f,Owner 2773,+91XXXXXXXXXX,,Delhi,IN,Seller,Generated
b46eae3a-5c23-43e0-9a0b-d2adacefb7b8,Owner 2277,+91XXXXXXXXXX,,London,IN,Seller,Generated
99d94936-500b-4d9c-b868-22935388acbc,Owner 2110,+91XXXXXXXXXX,,Mumbai,IN,Seller,Generated
ab9bc423-398a-4dd7-8c6d-11c23aff9986,Owner 3554,+91XXXXXXXXXX,,New York,IN,Seller,Generated
16e45e9c-1ea9-4623-88fa-e326e59ef2e7,Owner 7286,+91XXXXXXXXXX,,London,IN,Seller,Generated
25932ed8-abde-49f0-b05d-f85aa1869ca9,Owner 8020,+91XXXXXXXXXX,,Mumbai,IN,Seller,Generated
932a832e-f964-4d40-8c80-a0527a3da221,Owner 2306,+91XXXXXXXXXX,,New York,IN,Seller,Generated
71add9b1-bb1c-4dc5-95bd-1e99f5200672,Owner 3943,+91XXXXXXXXXX,,Delhi,IN,Seller,Generated
adc6179f-b65d-4233-943a-41d2019a71fd,Owner 2199,+91XXXXXXXXXX,,Mumbai,IN,Seller,Generated
09b1ef12-8368-40ad-b2f3-bbfc188a6cca,Owner 6617,+91XXXXXXXXXX,,London,IN,Seller,Generated
9ded3507-5c58-4710-83cc-c992b9581e3b,Owner 5227,+91XXXXXXXXXX,,New York,IN,Seller,Generated
c4ca771b-641d-4f6a-91b3-ec464ec6079b,Owner 68,+91XXXXXXXXXX,,London,IN,Seller,Generated
2a171edd-2c87-421c-b8e9-3d93ab93ad1c,Owner 5973,+91XXXXXXXXXX,,New York,IN,Seller,Generated
fb545ab8-aadb-4005-b69c-ae485c2e4000,Owner 8783,+91XXXXXXXXXX,,Delhi,IN,Seller,Generated
d95955a7-62a2-4635-a49e-5482e068a385,Owner 3423,+91XXXXXXXXXX,,London,IN,Seller,Generated
da37a776-e606-47e6-a478-30a8302d79be,Owner 2246,+91XXXXXXXXXX,,Mumbai,IN,Seller,Generated
4001740b-7355-4cc5-8826-bda87fa00387,Owner 8504,+91XXXXXXXXXX,,Delhi,IN,Seller,Generated
049750b6-01cf-4f42-9a08-7f65429d161f,Owner 3659,+91XXXXXXXXXX,,Mumbai,IN,Seller,Generated
864a6a7f-9ac1-4515-9044-6890190c6a00,Owner 6289,+91XXXXXXXXXX,,New York,IN,Seller,Generated
f8d3a617-c507-4e73-82b7-ffb939fbb6d1,Owner 7289,+91XXXXXXXXXX,,Mumbai,IN,Seller,Generated
630fe090-ac06-4a60-9b1a-f508abd319e6,Owner 1400,+91XXXXXXXXXX,,London,IN,Seller,Generated
4df0c135-8d03-49c8-8f41-b5cc422fb295,Owner 8489,+91XXXXXXXXXX,,London,IN,Seller,Generated
845b3688-f2c5-4f73-b78c-6caf27e453b3,Owner 3431,+91XXXXXXXXXX,,New York,IN,Seller,Generated
c0cb7983-b886-4661-bb6a-c638e6dce20c,Owner 5323,+91XXXXXXXXXX,,London,IN,Seller,Generated
84747459-f7cf-4793-8b36-8c77e2bc4b98,Owner 5894,+91XXXXXXXXXX,,New York,IN,Seller,Generated
3689f32e-1a6f-4477-b6ce-c9f821f57c9a,Owner 3604,+91XXXXXXXXXX,,New York,IN,Seller,Generated
49d3a5d1-93ab-41e0-999a-a6082090643e,Owner 7435,+91XXXXXXXXXX,,New York,IN,Seller,Generated
a65cf30b-cf53-4a85-9a0a-e8d03c216431,Owner 5947,+91XXXXXXXXXX,,Delhi,IN,Seller,Generated
e99b57fd-6ba6-4bdf-9ff3-ef345a46a8ef,Owner 7082,+91XXXXXXXXXX,,New York,IN,Seller,Generated
5d75e473-442b-456d-a2bc-a2fcce567f6f,Owner 9987,+91XXXXXXXXXX,,New York,IN,Seller,Generated
a23f8ea7-86de-4513-b59c-cb00fe85caae,Owner 1489,+91XXXXXXXXXX,,Delhi,IN,Seller,Generated
3f530252-afb1-4aa0-a8e2-6a4f32af377d,Owner 8542,+91XXXXXXXXXX,,Mumbai,IN,Seller,Generated
86fc7dd3-bd0a-49e6-93bb-efe0bb2ff1b3,Owner 3462,+91XXXXXXXXXX,,New York,IN,Seller,Generated
3a6bb131-d2ce-4669-b73b-4d2d7c225517,Owner 9942,+91XXXXXXXXXX,,Delhi,IN,Seller,Generated
3d8d367f-2ba2-4ae0-b376-b1eadb97b223,Owner 3825,+91XXXXXXXXXX,,Mumbai,IN,Seller,Generated
91649bdb-857d-482f-b625-4f634ebda901,Owner 604,+91XXXXXXXXXX,,London,IN,Seller,Generated
82c925f2-a37f-42fd-8173-04fec8b8bda1,Owner 5015,+91XXXXXXXXXX,,Mumbai,IN,Seller,Generated
8837cb23-0357-4bf8-b511-c239e33e23f4,Owner 7176,+91XXXXXXXXXX,,Delhi,IN,Seller,Generated
210e5e1a-1c19-43a5-b8b9-27652bf4d365,Owner 9839,+91XXXXXXXXXX,,New York,IN,Seller,Generated
e5831940-4397-497c-bdf6-62de93ac8a23,Owner 2390,+91XXXXXXXXXX,,Mumbai,IN,Seller,Generated
a9fb093f-eecf-425b-805e-3c1e8af3edcb,Owner 8972,+91XXXXXXXXXX,,New York,IN,Seller,Generated
0b0aac61-9c1a-44b8-a2b1-f576e2563e68,Owner 4195,+91XXXXXXXXXX,,New York,IN,Seller,Generated
ffa4e697-039b-4bf1-9afb-a4714239c85a,Owner 844,+91XXXXXXXXXX,,New York,IN,Seller,Generated
4097921c-be4c-4119-82fd-6296449f9432,Owner 3593,+91XXXXXXXXXX,,Delhi,IN,Seller,Generated
feae5e8e-9967-4818-80dd-2f77ad968e15,Owner 689,+91XXXXXXXXXX,,New York,IN,Seller,Generated
5f1f2cd1-aef9-4bc3-bdd6-a6b89869dbe0,Owner 5494,+91XXXXXXXXXX,,New York,IN,Seller,Generated
786bfb7c-7828-42e6-8a9a-6e7b852cd7b9,Owner 9011,+91XXXXXXXXXX,,London,IN,Seller,Generated
caafa0d3-2554-425a-ba05-32c19deefe8d,Owner 7104,+91XXXXXXXXXX,,New York,IN,Seller,Generated
60072430-249d-41eb-abf5-9e2d578aca29,Owner 5652,+91XXXXXXXXXX,,New York,IN,Seller,Generated
87b8d437-c24d-4e9c-9336-5757d137a413,Owner 7726,+91XXXXXXXXXX,,Mumbai,IN,Seller,Generated
c7642a96-4da3-401b-8aa3-72ca86dc6088,Owner 9608,+91XXXXXXXXXX,,New York,IN,Seller,Generated
76216a6f-cb14-4bca-ad39-b1db31d0c21a,Owner 2099,+91XXXXXXXXXX,,Delhi,IN,Seller,Generated
7388236e-d03c-4b3b-8b9d-fbd60a079600,Owner 6916,+91XXXXXXXXXX,,Delhi,IN,Seller,Generated
45a1849e-8ab8-40ab-a736-a4b02adb72d9,Owner 6647,+91XXXXXXXXXX,,New York,IN,Seller,Generated
fd0ff80b-2775-4554-877a-369e8e0c01ac,Owner 6806,+91XXXXXXXXXX,,London,IN,Seller,Generated
f7365ae2-dacd-401f-8290-a4092c830224,Owner 2348,+91XXXXXXXXXX,,London,IN,Seller,Generated
39bb603d-c947-4b50-8c76-09295771adde,Owner 5597,+91XXXXXXXXXX,,London,IN,Seller,Generated
7d4b8230-1284-447d-ac1c-fda23ae4852a,Owner 7584,+91XXXXXXXXXX,,Delhi,IN,Seller,Generated
bbea45ff-1e46-4662-8443-24446acd4625,Owner 3936,+91XXXXXXXXXX,,Delhi,IN,Seller,Generated
6c090233-beb9-4be2-9229-40fa28e187db,Owner 455,+91XXXXXXXXXX,,New York,IN,Seller,Generated
03de206b-5887-4ee3-a1e0-67498e9f1530,Owner 1910,+91XXXXXXXXXX,,Mumbai,IN,Seller,Generated
368f3f99-2163-4853-b4d5-5e8de0f5bef7,Owner 6028,+91XXXXXXXXXX,,London,IN,Seller,Generated
52d281bd-d459-4579-8506-8123b5c6d556,Owner 9013,+91XXXXXXXXXX,,New York,IN,Seller,Generated
1fa006fc-de22-4712-9156-2d8f8ef21d42,Owner 58,+91XXXXXXXXXX,,London,IN,Seller,Generated
c8434ae9-2a84-4443-8d63-46aeeaf0a262,Owner 2016,+91XXXXXXXXXX,,London,IN,Seller,Generated
49461724-4a2e-499e-8f75-ac4c6194fbea,Owner 1532,+91XXXXXXXXXX,,Delhi,IN,Seller,Generated
4777aa42-36d7-4b6e-b46c-369dec0e0e4c,Owner 5068,+91XXXXXXXXXX,,Delhi,IN,Seller,Generated
6c04d8bb-f0c5-4818-8081-dc5ee38b9bb5,Owner 5371,+91XXXXXXXXXX,,Mumbai,IN,Seller,Generated
3b9e1396-d951-4300-b628-327b72149280,Owner 3944,+91XXXXXXXXXX,,New York,IN,Seller,Generated
f3eccb29-1cb0-4088-b434-99ee08eb18fa,Owner 9497,+91XXXXXXXXXX,,Delhi,IN,Seller,Generated
fcc4b189-63e7-42d9-932d-86eb0755b7fa,Owner 1101,+91XXXXXXXXXX,,Mumbai,IN,Seller,Generated
96e6482d-3c82-4d17-a27e-f5513678ef7a,Owner 6032,+91XXXXXXXXXX,,London,IN,Seller,Generated
fdd30b30-3467-4f09-aeaf-835b2e079834,Owner 6597,+91XXXXXXXXXX,,Delhi,IN,Seller,Generated
890dc97f-f941-49ce-9227-269121065676,Owner 1422,+91XXXXXXXXXX,,New York,IN,Seller,Generated
ad42c3fb-f5d9-4086-9b38-66a7e75aa140,Owner 4512,+91XXXXXXXXXX,,New York,IN,Seller,Generated
384bab07-5177-4380-9a53-785eb57bf295,Owner 2485,+91XXXXXXXXXX,,London,IN,Seller,Generated
834f9dda-e0c9-4c8e-bc96-fffeb4e539b7,Owner 3071,+91XXXXXXXXXX,,Delhi,IN,Seller,Generated
b65fdd83-905c-4468-bb85-ce9c50d0836e,Owner 7972,+91XXXXXXXXXX,,Mumbai,IN,Seller,Generated
adb91f48-0b43-4e8a-a1b8-50248ce961bd,Owner 5223,+91XXXXXXXXXX,,New York,IN,Seller,Generated
8a1cc259-a9c2-4e5a-ac8d-fb6559564ef1,Owner 2974,+91XXXXXXXXXX,,Delhi,IN,Seller,Generated
7ef23ff2-b6a7-4231-8a79-de5431cc776c,Owner 4413,+91XXXXXXXXXX,,New York,IN,Seller,Generated
f1be41d3-1a86-4454-8e9b-543b6171424e,Owner 8796,+91XXXXXXXXXX,,Delhi,IN,Seller,Generated
c9f21506-64de-430d-bb3d-809fc8894c80,Owner 5963,+91XXXXXXXXXX,,Delhi,IN,Seller,Generated
5577a7eb-b806-4b87-9678-ea7a9582a95a,Owner 9418,+91XXXXXXXXXX,,Delhi,IN,Seller,Generated
b091f945-d443-4a0a-8fb1-69c760b5b993,Owner 8041,+91XXXXXXXXXX,,Mumbai,IN,Seller,Generated
36d0b22f-8af4-4d19-b3b7-1b4ce30294c0,Owner 3426,+91XXXXXXXXXX,,London,IN,Seller,Generated
60b6a766-893e-403b-931f-4a6e7785cbb0,Owner 6358,+91XXXXXXXXXX,,Delhi,IN,Seller,Generated
9385f909-bb77-4fcb-8c2a-8d2ec3d87675,Owner 54,+91XXXXXXXXXX,,Delhi,IN,Seller,Generated
2340b50f-b73a-4d75-817c-88aae4b0008f,Owner 9285,+91XXXXXXXXXX,,New York,IN,Seller,Generated
b0f6169e-538d-49ba-9714-51530560121c,Owner 295,+91XXXXXXXXXX,,Delhi,IN,Seller,Generated
bae800f3-58cf-42c8-b3ed-b11383d5da2e,Owner 737,+91XXXXXXXXXX,,Mumbai,IN,Seller,Generated
853d9d52-af74-47f0-a748-34a2bdf6247c,Owner 7220,+91XXXXXXXXXX,,Delhi,IN,Seller,Generated
b78a912b-e296-4a7c-bffa-d1c3f2ed3d93,Owner 2931,+91XXXXXXXXXX,,Mumbai,IN,Seller,Generated
d7f373f6-fef3-4e2a-ac67-0cbf1939a475,Owner 414,+91XXXXXXXXXX,,Mumbai,IN,Seller,Generated
8617377c-4189-4f73-bf1b-f975e72a7fc8,Owner 560,+91XXXXXXXXXX,,New York,IN,Seller,Generated
63f53edd-8a4f-4522-9f3c-5d7f881caf85,Owner 7517,+91XXXXXXXXXX,,New York,IN,Seller,Generated
b0d499a1-16d7-4cc1-82b4-83e8d710e96c,Owner 2653,+91XXXXXXXXXX,,London,IN,Seller,Generated
aece8ec3-7007-485a-a983-26598adf4a55,Owner 9643,+91XXXXXXXXXX,,London,IN,Seller,Generated
6a113d04-c23a-4531-b420-f8805fb44b09,Owner 1611,+91XXXXXXXXXX,,Delhi,IN,Seller,Generated
d3c01298-9248-492e-bb6e-fe7c1908e432,Owner 2906,+91XXXXXXXXXX,,Mumbai,IN,Seller,Generated
d1cff913-fe7a-4c00-862e-52519f6ef2ed,Owner 8408,+91XXXXXXXXXX,,Delhi,IN,Seller,Generated
3e577f58-243c-424d-9f2e-54561a2a72f3,Owner 4091,+91XXXXXXXXXX,,New York,IN,Seller,Generated
9b6169f8-7f90-467a-bf63-7a92bffd891f,Owner 1124,+91XXXXXXXXXX,,London,IN,Seller,Generated
cc6df299-4fb0-49ee-87ce-d6a488ade301,Owner 4306,+91XXXXXXXXXX,,Mumbai,IN,Seller,Generated
0393919c-c644-43e1-a790-bf6dbd472410,Owner 8439,+91XXXXXXXXXX,,New York,IN,Seller,Generated
9de39d08-3b0f-4c5c-8f02-d4d7a18ff461,Owner 1669,+91XXXXXXXXXX,,New York,IN,Seller,Generated
99767ad1-5775-45bf-8887-08019d15d36a,Owner 5007,+91XXXXXXXXXX,,Mumbai,IN,Seller,Generated
4196b502-ad63-44a4-a378-0b098d058d56,Owner 6260,+91XXXXXXXXXX,,New York,IN,Seller,Generated
7952da09-11cb-4212-b92f-2debcaebb684,Owner 4619,+91XXXXXXXXXX,,London,IN,Seller,Generated
32957d14-aa78-4d3d-bf80-36fda6a34d9b,Owner 1357,+91XXXXXXXXXX,,New York,IN,Seller,Generated
9cd8b725-9bc6-46de-86d8-9840ec874fb4,Owner 4139,+91XXXXXXXXXX,,London,IN,Seller,Generated
2728285c-43e3-473d-a008-d0a856ffe6f4,Owner 1258,+91XXXXXXXXXX,,London,IN,Seller,Generated
dd808494-6779-42af-93a8-16bfbfc65d88,Owner 4899,+91XXXXXXXXXX,,Mumbai,IN,Seller,Generated
29e1fc54-40ff-455b-b0aa-cbdece20ba3b,Owner 1323,+91XXXXXXXXXX,,London,IN,Seller,Generated
e3e4fa59-48ff-40fb-87ed-ddcdaf63e90a,Owner 6157,+91XXXXXXXXXX,,Delhi,IN,Seller,Generated
2650cf29-d11e-4902-9156-200358629ca4,Owner 7530,+91XXXXXXXXXX,,Mumbai,IN,Seller,Generated
ff93a152-e6ba-4990-b2fc-8b82e5a0d5d7,Owner 4362,+91XXXXXXXXXX,,London,IN,Seller,Generated
3bb42014-e601-4b12-8b97-d71f56c3be83,Owner 1916,+91XXXXXXXXXX,,Delhi,IN,Seller,Generated
f6da252b-223c-4360-9c71-71e87bf70641,Owner 5098,+91XXXXXXXXXX,,New York,IN,Seller,Generated
d3728a91-e820-4f0c-a631-43a02ac0a4bd,Owner 1913,+91XXXXXXXXXX,,London,IN,Seller,Generated
0241ccb3-0824-4dd1-b82f-1368594f7d60,Owner 4901,+91XXXXXXXXXX,,Mumbai,IN,Seller,Generated
1494f1b7-c3d3-479c-9065-93810ff979fa,Owner 1114,+91XXXXXXXXXX,,London,IN,Seller,Generated
f5c57f0d-92b6-4a16-8743-11f144fdb292,Owner 4391,+91XXXXXXXXXX,,Mumbai,IN,Seller,Generated
0164a273-ba26-484e-b4db-5967024d9d92,Owner 8599,+91XXXXXXXXXX,,New York,IN,Seller,Generated
92f8ee54-22fb-443b-bf1f-772f98138d9b,Owner 2476,+91XXXXXXXXXX,,London,IN,Seller,Generated
8a6456d8-5f29-4359-9f0b-22b25c22daee,Owner 5971,+91XXXXXXXXXX,,Mumbai,IN,Seller,Generated
3806358a-2c92-4410-be69-86ae795df5bc,Owner 1529,+91XXXXXXXXXX,,Mumbai,IN,Seller,Generated
78d129af-da7d-4b49-a4e5-753d3deaccfa,Owner 3423,+91XXXXXXXXXX,,Delhi,IN,Seller,Generated
0aee5a04-8938-48d6-af49-6a3611cabe65,Owner 3718,+91XXXXXXXXXX,,New York,IN,Seller,Generated
e1a582a7-e650-424e-ac95-b7a60b47ae7d,Owner 1827,+91XXXXXXXXXX,,Mumbai,IN,Seller,Generated
cb04334b-1592-4c19-89ca-6f212b71fffd,Owner 6961,+91XXXXXXXXXX,,New York,IN,Seller,Generated
2ca1a451-0e82-4a78-afec-968d8a2c1906,Owner 688,+91XXXXXXXXXX,,Mumbai,IN,Seller,Generated
d84c39ef-25a8-4bc5-ac59-4db7a44de99b,Owner 5612,+91XXXXXXXXXX,,Mumbai,IN,Seller,Generated
19e8c9bf-fd01-4927-8aea-14ff304b7090,Owner 2580,+91XXXXXXXXXX,,New York,IN,Seller,Generated
da75f17b-77ba-41d7-8011-0cafb0866ad1,Owner 1283,+91XXXXXXXXXX,,Delhi,IN,Seller,Generated
6346211f-eb64-4fa8-a827-18f38e570162,Owner 6674,+91XXXXXXXXXX,,New York,IN,Seller,Generated
64032b41-b5cd-4933-a3d5-9147b3001119,Owner 2616,+91XXXXXXXXXX,,New York,IN,Seller,Generated
ff7f03d7-b3de-4f16-9b00-42f760da1bf2,Owner 1903,+91XXXXXXXXXX,,Delhi,IN,Seller,Generated
dfe1ceef-0770-4a9d-8aff-24fc4b4b6fab,Owner 9037,+91XXXXXXXXXX,,London,IN,Seller,Generated
c1360f4a-8678-4603-9c6b-6210dfa70666,Owner 9999,+91XXXXXXXXXX,,New York,IN,Seller,Generated
5660eba7-7aaa-4139-bb6d-2afcd6bb816f,Owner 4010,+91XXXXXXXXXX,,London,IN,Seller,Generated
bf26aca5-7c1d-43db-8661-ff7dbd2c4b71,Owner 9743,+91XXXXXXXXXX,,New York,IN,Seller,Generated
a7ad38b4-dcc0-429f-adb2-a57facd8321f,Owner 3539,+91XXXXXXXXXX,,London,IN,Seller,Generated
c838454f-390c-4762-ba04-c4106f79f5f2,Owner 1599,+91XXXXXXXXXX,,New York,IN,Seller,Generated
57e7d2cd-9cdf-407e-aed1-79691c693dc1,Owner 5265,+91XXXXXXXXXX,,New York,IN,Seller,Generated
89a98c28-aad5-4251-8e51-880e308ffc4e,Owner 47,+91XXXXXXXXXX,,London,IN,Seller,Generated
d1fe3adc-a6b0-4e67-8fa7-433679b8858d,Owner 2975,+91XXXXXXXXXX,,Delhi,IN,Seller,Generated
6e3c0e71-7077-4642-bcc9-f5d0289142a7,Owner 8320,+91XXXXXXXXXX,,Mumbai,IN,Seller,Generated
0a5a2173-b5e3-4ae6-9396-b6405708bf3b,Owner 8736,+91XXXXXXXXXX,,London,IN,Seller,Generated
a64731fd-5c30-4c9e-a751-ae23aaf4b671,Owner 711,+91XXXXXXXXXX,,Delhi,IN,Seller,Generated
57cc9182-bf1f-4955-a383-337bf169f75b,Owner 9271,+91XXXXXXXXXX,,New York,IN,Seller,Generated
29178d6f-4669-422a-811b-07f6c4e2bb6a,Owner 9635,+91XXXXXXXXXX,,London,IN,Seller,Generated
ee16ba2d-d04b-4555-9ee5-3d4f05fe0ff6,Owner 6242,+91XXXXXXXXXX,,Mumbai,IN,Seller,Generated
a4671ac6-3f0f-4563-b863-952b07490791,Owner 9822,+91XXXXXXXXXX,,London,IN,Seller,Generated
0d6e25f7-246f-408d-a23d-29123e33c04c,Owner 213,+91XXXXXXXXXX,,Mumbai,IN,Seller,Generated
b3a948fd-c3b5-49b6-9302-e1ce5cb2e65e,Owner 6520,+91XXXXXXXXXX,,New York,IN,Seller,Generated
0aeb3170-f845-46f3-8b25-8cc635e818d6,Owner 8936,+91XXXXXXXXXX,,Delhi,IN,Seller,Generated
7d4429d7-60d1-4a04-a8f6-7c363c91c8df,Owner 583,+91XXXXXXXXXX,,Delhi,IN,Seller,Generated
d2e78bb6-38f9-4233-952f-794eb2637ebe,Owner 9723,+91XXXXXXXXXX,,New York,IN,Seller,Generated
d789ca73-81dc-433e-8d75-7b301a29d200,Owner 9820,+91XXXXXXXXXX,,New York,IN,Seller,Generated
de11b50c-54af-491a-beb0-c11aa8a240ea,Owner 9038,+91XXXXXXXXXX,,Delhi,IN,Seller,Generated
146e5c2f-a050-4f8e-844a-ab0d53672137,Owner 1501,+91XXXXXXXXXX,,New York,IN,Seller,Generated
8151ff37-9699-4ce4-97ee-7a7f12ad617e,Owner 1482,+91XXXXXXXXXX,,London,IN,Seller,Generated
823809f1-ba5c-462e-9c0d-8630af02d902,Owner 4345,+91XXXXXXXXXX,,New York,IN,Seller,Generated
efb14b9a-c490-4154-bd98-f341e03d112b,Owner 514,+91XXXXXXXXXX,,Mumbai,IN,Seller,Generated
818d0af5-9ca9-47c3-9e65-5a10a3143e55,Owner 9009,+91XXXXXXXXXX,,London,IN,Seller,Generated
94f9dc59-1b25-4b35-9e7b-39996bb094c8,Owner 1442,+91XXXXXXXXXX,,London,IN,Seller,Generated
e851fe87-4c94-42ff-9026-22ce16ccb290,Owner 1810,+91XXXXXXXXXX,,Mumbai,IN,Seller,Generated
65026efa-5b73-4084-8c05-c45309337ca7,Owner 6670,+91XXXXXXXXXX,,New York,IN,Seller,Generated
abd319b2-0a4f-4355-bf64-3cd8e14f3f80,Owner 2157,+91XXXXXXXXXX,,Delhi,IN,Seller,Generated
c50f7c75-5a92-47da-99b4-66d06ad2ae95,Owner 2386,+91XXXXXXXXXX,,Delhi,IN,Seller,Generated
198d5e8f-8473-4afd-a1b7-5ff48a2ff9f7,Owner 130,+91XXXXXXXXXX,,Delhi,IN,Seller,Generated
1a62e5ac-9158-4bb2-b8cc-1bfa03bfd51a,Owner 5201,+91XXXXXXXXXX,,Delhi,IN,Seller,Generated
a6220de4-602f-4844-98ec-6ba8085ffe06,Owner 248,+91XXXXXXXXXX,,London,IN,Seller,Generated
971fb5a3-2674-43b5-861c-291e0bf85fdf,Owner 5364,+91XXXXXXXXXX,,Mumbai,IN,Seller,Generated
5382b8be-a264-488c-9c61-4acc70abdfc8,Owner 3122,+91XXXXXXXXXX,,Delhi,IN,Seller,Generated
cb1ccc5c-1669-439f-a74d-61f900d05154,Owner 2914,+91XXXXXXXXXX,,Mumbai,IN,Seller,Generated
7dfcf9af-ae49-4695-adf9-1b3fedfe0517,Owner 3791,+91XXXXXXXXXX,,Delhi,IN,Seller,Generated
739ca606-5d01-4fd2-8bd3-91697b375f70,Owner 5404,+91XXXXXXXXXX,,Mumbai,IN,Seller,Generated
b3bb7c18-78f7-440e-8f25-68918421d872,Owner 4310,+91XXXXXXXXXX,,New York,IN,Seller,Generated
62c76079-0938-4a98-a834-5b4d62e9e204,Owner 956,+91XXXXXXXXXX,,London,IN,Seller,Generated
25104437-2c2b-4446-8868-dfb2fe445bd2,Owner 4580,+91XXXXXXXXXX,,Mumbai,IN,Seller,Generated
697efca2-e5dc-4a2b-ac13-80701aa57867,Owner 636,+91XXXXXXXXXX,,New York,IN,Seller,Generated
73691f66-d943-4353-a6e7-f8a76ad61991,Owner 4277,+91XXXXXXXXXX,,Delhi,IN,Seller,Generated
a4218b31-6801-4298-a383-29ff492d6850,Owner 9424,+91XXXXXXXXXX,,Mumbai,IN,Seller,Generated
c162bd60-8e3b-4bab-bcf8-9ae9db2c6ad4,Owner 292,+91XXXXXXXXXX,,Mumbai,IN,Seller,Generated
b08cde18-1f4a-4b1c-b88f-e75188b19c8e,Owner 3562,+91XXXXXXXXXX,,Delhi,IN,Seller,Generated
350b53ce-2612-4ab5-adfd-4a895d295608,Owner 5062,+91XXXXXXXXXX,,London,IN,Seller,Generated
e1d177c1-a78e-4df3-8dc7-e2f350fa9b45,Owner 9433,+91XXXXXXXXXX,,Delhi,IN,Seller,Generated
a7745ee4-6a58-436e-9304-aefc7f02c426,Owner 1543,+91XXXXXXXXXX,,Delhi,IN,Seller,Generated
6cda56ad-b20f-4de1-b249-94cb72671b88,Owner 4639,+91XXXXXXXXXX,,Mumbai,IN,Seller,Generated
b4affc72-b85b-4e9f-afb4-eba58e636c67,Owner 6865,+91XXXXXXXXXX,,London,IN,Seller,Generated
0af0ea9a-2aeb-4943-8f38-8b260143114a,Owner 1863,+91XXXXXXXXXX,,London,IN,Seller,Generated
0e4c162e-40c9-4f94-8edb-c25492148440,Owner 3003,+91XXXXXXXXXX,,Delhi,IN,Seller,Generated
94bef84d-04be-4cfa-b867-9086c9bdfe6b,Owner 3702,+91XXXXXXXXXX,,London,IN,Seller,Generated
2d08ac1e-6b6a-4b30-9e1f-fce82ea4eb64,Owner 4422,+91XXXXXXXXXX,,Mumbai,IN,Seller,Generated
98900c1f-85b4-4e1f-9bb4-8d08305188ff,Owner 7835,+91XXXXXXXXXX,,New York,IN,Seller,Generated
add3dcaf-2645-48f0-af38-718b4bedbdf2,Owner 1011,+91XXXXXXXXXX,,Delhi,IN,Seller,Generated
74a13f94-cd4c-40d3-a724-f16350be5d64,Owner 5018,+91XXXXXXXXXX,,Mumbai,IN,Seller,Generated
6c6d61ed-f945-4cf0-a061-7d35338622ab,Owner 7586,+91XXXXXXXXXX,,London,IN,Seller,Generated
8ab8d611-30b5-4028-80b9-4bf9e2a98ce7,Owner 3245,+91XXXXXXXXXX,,London,IN,Seller,Generated
224eb8ee-0bfe-418f-8f50-df354f65a291,Owner 2824,+91XXXXXXXXXX,,Delhi,IN,Seller,Generated
491f4049-bd6c-4422-ace4-18e223fff6ff,Owner 4308,+91XXXXXXXXXX,,Mumbai,IN,Seller,Generated
f0cb7f41-106f-4f0e-95e6-70dba06c868f,Owner 5349,+91XXXXXXXXXX,,London,IN,Seller,Generated
8f0a758f-db4c-4df4-9af1-80653814a314,Owner 6999,+91XXXXXXXXXX,,Delhi,IN,Seller,Generated
b9e50b22-9fa6-490e-893e-ff3479116874,Owner 7983,+91XXXXXXXXXX,,Mumbai,IN,Seller,Generated
b7b39b99-7357-42c0-8dc3-d70b8e1dabbd,Owner 8418,+91XXXXXXXXXX,,London,IN,Seller,Generated
fc783076-268c-44a1-9f36-1d2283929ca9,Owner 757,+91XXXXXXXXXX,,Mumbai,IN,Seller,Generated
bf24b64a-cd79-46b1-ba8a-22c8e5d1768f,Owner 3773,+91XXXXXXXXXX,,Delhi,IN,Seller,Generated
696b59ca-35c6-4e66-a6da-e0bbd1ae5c32,Owner 9371,+91XXXXXXXXXX,,London,IN,Seller,Generated
37521d70-d7f4-4a53-80bf-3a59cce04978,Owner 7425,+91XXXXXXXXXX,,Mumbai,IN,Seller,Generated
9eeaa4fd-5c4d-4e3b-88df-2c405a3bab60,Owner 1382,+91XXXXXXXXXX,,London,IN,Seller,Generated
8f45cf05-c8cf-4bf1-a966-8110853b17d6,Owner 1532,+91XXXXXXXXXX,,London,IN,Seller,Generated
d3a11ef6-cdbf-4cca-aace-fd3ab6766e51,Owner 2124,+91XXXXXXXXXX,,Delhi,IN,Seller,Generated
fa32d657-1045-49c9-9233-5996e9880efc,Owner 9579,+91XXXXXXXXXX,,New York,IN,Seller,Generated
b2e1621a-f12b-47ee-a665-23157247735a,Owner 2615,+91XXXXXXXXXX,,Delhi,IN,Seller,Generated
0302725b-5642-4b26-9e3f-30c79a2bf08d,Owner 7242,+91XXXXXXXXXX,,Mumbai,IN,Seller,Generated
341c37e0-8968-44f2-b45f-117b091ec63e,Owner 4986,+91XXXXXXXXXX,,Mumbai,IN,Seller,Generated
91941ab9-ec03-4ccd-8ed1-07fc7ccb8402,Owner 5532,+91XXXXXXXXXX,,Mumbai,IN,Seller,Generated
876a57c2-6eda-4baa-8726-fefc50ea6d2d,Owner 9715,+91XXXXXXXXXX,,Mumbai,IN,Seller,Generated
cbda6ab3-32a7-4c31-8fed-90907586b778,Owner 5049,+91XXXXXXXXXX,,Delhi,IN,Seller,Generated
e80e844a-b772-49de-b3f4-0ffd86ded632,Owner 3525,+91XXXXXXXXXX,,London,IN,Seller,Generated
f27e6445-78c8-4dfa-a77f-0e31385a8000,Owner 9193,+91XXXXXXXXXX,,Delhi,IN,Seller,Generated
7f511666-0949-466f-a4c6-56e75a4cef01,Owner 2907,+91XXXXXXXXXX,,Mumbai,IN,Seller,Generated
3df3d17f-d9a2-41b7-be74-44bf9803ae16,Owner 8146,+91XXXXXXXXXX,,London,IN,Seller,Generated
8d8f6061-1e47-457c-ac92-27c30780b7c1,Owner 9944,+91XXXXXXXXXX,,New York,IN,Seller,Generated
126e30bc-3d15-48a2-9b98-5920b9ab8944,Owner 8631,+91XXXXXXXXXX,,New York,IN,Seller,Generated
252861bb-4702-45d0-bf42-9a957effa53e,Owner 7482,+91XXXXXXXXXX,,London,IN,Seller,Generated
bf61b891-32c6-472b-90a2-ae730ce87d41,Owner 5038,+91XXXXXXXXXX,,Mumbai,IN,Seller,Generated
c66674c5-60a9-4025-bd34-2c527420107c,Owner 4643,+91XXXXXXXXXX,,Mumbai,IN,Seller,Generated
1663368d-344a-48bc-8192-eeeb40aa9a29,Owner 3570,+91XXXXXXXXXX,,London,IN,Seller,Generated
b02ba1ca-b287-4943-82c1-edefc3a13728,Owner 5415,+91XXXXXXXXXX,,London,IN,Seller,Generated
d970ef3d-c564-4f90-a358-05efdfd19694,Owner 3863,+91XXXXXXXXXX,,Delhi,IN,Seller,Generated
429d9588-1007-45b6-813d-a344edebca7b,Owner 8012,+91XXXXXXXXXX,,Delhi,IN,Seller,Generated
7448d308-4d82-426a-98e9-fae6a377b19f,Owner 1512,+91XXXXXXXXXX,,Delhi,IN,Seller,Generated
2f8cd357-5521-4b2f-877c-c0061ffc9a7d,Owner 9381,+91XXXXXXXXXX,,New York,IN,Seller,Generated
750cd5c1-8dbe-4363-afba-a285d3a2616f,Owner 9497,+91XXXXXXXXXX,,Mumbai,IN,Seller,Generated
99cc0392-0643-498d-a969-df7c99de953e,Owner 6089,+91XXXXXXXXXX,,New York,IN,Seller,Generated
93170262-357c-424c-8d74-faa61f4b8d92,Owner 679,+91XXXXXXXXXX,,New York,IN,Seller,Generated
d8f376a2-e577-4c6e-9e94-8ccb49dae5bb,Owner 8606,+91XXXXXXXXXX,,London,IN,Seller,Generated
ed93dd42-f96c-40f5-950a-82b3ea41b8d5,Owner 969,+91XXXXXXXXXX,,Mumbai,IN,Seller,Generated
83b0e538-ddc0-46c0-8fcb-0bfc743ab763,Owner 9805,+91XXXXXXXXXX,,Delhi,IN,Seller,Generated
d7ca9bd6-3dcc-4d0f-b25c-f7c2efc28541,Owner 6083,+91XXXXXXXXXX,,Delhi,IN,Seller,Generated
ffdf3522-e61c-4ba0-8939-440d759b82b3,Owner 7279,+91XXXXXXXXXX,,London,IN,Seller,Generated
71fede8a-e49f-493a-90c0-54767360ac4c,Owner 4026,+91XXXXXXXXXX,,New York,IN,Seller,Generated
93b450cf-f3c3-4d74-8725-450f7f42d69f,Owner 9267,+91XXXXXXXXXX,,Delhi,IN,Seller,Generated
1b6aab16-fda6-4197-810b-cc911b10ad9b,Owner 6715,+91XXXXXXXXXX,,London,IN,Seller,Generated
6545dd16-933e-4e55-8081-4e528ae3a432,Owner 9750,+91XXXXXXXXXX,,New York,IN,Seller,Generated
fb146a2d-b79b-4041-af36-1ddabf007cfe,Owner 1661,+91XXXXXXXXXX,,Delhi,IN,Seller,Generated
da9140d2-d887-458e-8f03-d69dff17e535,Owner 7038,+91XXXXXXXXXX,,New York,IN,Seller,Generated
c5a9e195-f4e6-4ea1-a7cc-090b1ea8f8a7,Owner 5320,+91XXXXXXXXXX,,Delhi,IN,Seller,Generated
2b249318-8b58-43b6-bd83-23b0bbed2999,Owner 1146,+91XXXXXXXXXX,,Delhi,IN,Seller,Generated
d68e4e0e-dd65-4026-9a8c-25f3d759d449,Owner 8771,+91XXXXXXXXXX,,Delhi,IN,Seller,Generated
3221221d-bf66-4bda-9118-5fe05c83387c,Owner 8812,+91XXXXXXXXXX,,Delhi,IN,Seller,Generated
1c54b9f6-60ce-4d2d-bae8-691b44ebdc4c,Owner 3437,+91XXXXXXXXXX,,Delhi,IN,Seller,Generated
70c38c67-aaf8-4016-8175-c40b8c7dd461,Owner 6094,+91XXXXXXXXXX,,Delhi,IN,Seller,Generated
54a0d673-2a84-48ac-992b-cdac59c81a5f,Owner 995,+91XXXXXXXXXX,,Mumbai,IN,Seller,Generated
a4f0e346-8fc8-4199-a952-3db2e31e6dee,Owner 8128,+91XXXXXXXXXX,,Mumbai,IN,Seller,Generated
f733fc63-9b57-4d9d-97e0-acfda8042574,Owner 3171,+91XXXXXXXXXX,,New York,IN,Seller,Generated
e594cf37-d665-4add-a23e-4955fd48d588,Owner 4362,+91XXXXXXXXXX,,Mumbai,IN,Seller,Generated
c832cb36-14e2-40e6-a7d4-e0d02414a33c,Owner 9254,+91XXXXXXXXXX,,Delhi,IN,Seller,Generated
adc1335a-1eb9-49b2-8dec-52b630c1eb93,Owner 6774,+91XXXXXXXXXX,,Delhi,IN,Seller,Generated
a6b7f71b-f1c4-4c6c-b509-a30fe50d1eea,Owner 3658,+91XXXXXXXXXX,,Delhi,IN,Seller,Generated
80c46985-7695-4d7f-b050-b39dc324beb9,Owner 5534,+91XXXXXXXXXX,,London,IN,Seller,Generated
01569655-53b8-49c0-8252-a2fe4282ad84,Owner 6707,+91XXXXXXXXXX,,Delhi,IN,Seller,Generated
fa8ad543-8da7-499c-bb7a-9d2450e4bb5c,Owner 4275,+91XXXXXXXXXX,,London,IN,Seller,Generated
acdf86f8-57b4-4b9c-bb73-b5a387cb199c,Owner 3321,+91XXXXXXXXXX,,Delhi,IN,Seller,Generated
77f27bc1-e3e3-4f88-bb05-26b590fae5f6,Owner 9660,+91XXXXXXXXXX,,London,IN,Seller,Generated
b2a33d68-cd5f-4d6a-b37a-d3d82fa6d862,Owner 1025,+91XXXXXXXXXX,,Delhi,IN,Seller,Generated
d2f221eb-edbc-4235-bbb6-0812751174b8,Owner 1958,+91XXXXXXXXXX,,New York,IN,Seller,Generated
3dbb42be-5661-4429-8bd7-fdc139bbd0a6,Owner 9070,+91XXXXXXXXXX,,Mumbai,IN,Seller,Generated
5781efdf-09df-477a-9816-008fd0633ab4,Owner 1111,+91XXXXXXXXXX,,New York,IN,Seller,Generated
7d9c112f-2114-484e-ab24-325f5ad7d941,Owner 8636,+91XXXXXXXXXX,,New York,IN,Seller,Generated
d9098f92-78ef-416b-b51d-11640ce24758,Owner 5997,+91XXXXXXXXXX,,London,IN,Seller,Generated
