lead_id,name,phone,email,city,country,type,notes
53978864-d0fb-49b3-93ee-a38965103bc7,Owner 3289,+91XXXXXXXXXX,,New York,IN,Seller,Generated
e638b8a7-e425-4100-88c9-5fd49dbfd83b,Owner 9736,+91XXXXXXXXXX,,New York,IN,Seller,Generated
b33d5277-5953-46b4-bf31-31509ab56b34,Owner 1475,+91XXXXXXXXXX,,New York,IN,Seller,Generated
8a693496-df7f-44fc-a103-99019da0c1ad,Owner 1880,+91XXXXXXXXXX,,Mumbai,IN,Seller,Generated
f8730d04-7707-4932-94f9-7f7cbd1b2f75,Owner 4425,+91XXXXXXXXXX,,Mumbai,IN,Seller,Generated
79e360cb-25f4-4540-8f97-7270e5208d87,Owner 7513,+91XXXXXXXXXX,,New York,IN,Seller,Generated
2cede50d-0288-493f-be2d-c047d3f1a8b9,Owner 1737,+91XXXXXXXXXX,,Delhi,IN,Seller,Generated
943dc593-0827-4b2d-a4ba-98610514daac,Owner 8405,+91XXXXXXXXXX,,Delhi,IN,Seller,Generated
b9072219-160b-4136-ad75-acdfafc13783,Owner 5870,+91XXXXXXXXXX,,Mumbai,IN,Seller,Generated
4a8e2d55-b7c0-4eac-85db-ae26a4c0cbe4,Owner 3532,+91XXXXXXXXXX,,Delhi,IN,Seller,Generated
6fa56059-3a2e-42cd-8131-501f74747754,Owner 770,+91XXXXXXXXXX,,Mumbai,IN,Seller,Generated
b4c854d1-4855-4fbb-b1ea-6e9faf079c68,Owner 3402,+91XXXXXXXXXX,,Delhi,IN,Seller,Generated
d3cd31cf-bacd-4d22-a10e-565d78e46d9a,Owner 3037,+91XXXXXXXXXX,,London,IN,Seller,Generated
54a1afb1-0dca-4bd4-b170-3f689ed90388,Owner 3190,+91XXXXXXXXXX,,New York,IN,Seller,Generated
78540740-4b7c-4ffc-92e9-02e7994d1993,Owner 1043,+91XXXXXXXXXX,,Delhi,IN,Seller,Generated
da3d4b4d-4be6-4469-950d-5e5bc36a9ded,Owner 865,+91XXXXXXXXXX,,Delhi,IN,Seller,Generated
6beff835-a94c-4ef3-9e89-8b2ebc6201d9,Owner 637,+91XXXXXXXXXX,,London,IN,Seller,Generated
daafcc5f-995d-41a5-98ae-eef811fdb057,Owner 6195,+91XXXXXXXXXX,,Delhi,IN,Seller,Generated
04781e58-34da-4321-9101-1f44c91f6886,Owner 2826,+91XXXXXXXXXX,,London,IN,Seller,Generated
40608215-dba8-40e3-a90e-20586e6b1f58,Owner 1788,+91XXXXXXXXXX,,New York,IN,Seller,Generated
fabaf2f9-0b6f-4f0d-8726-11e79c10fa26,Owner 5621,+91XXXXXXXXXX,,New York,IN,Seller,Generated
8f6066ba-3cbf-4108-8c72-b077d1b63bea,Owner 6438,+91XXXXXXXXXX,,Delhi,IN,Seller,Generated
51dcc36b-ce71-4753-a230-dff7234d6e31,Owner 3262,+91XXXXXXXXXX,,New York,IN,Seller,Generated
5de4b7e0-499c-4f60-a472-d88a8ff3a835,Owner 4949,+91XXXXXXXXXX,,Delhi,IN,Seller,Generated
793b19cf-5a77-464c-8a46-93b3678938af,Owner 1015,+91XXXXXXXXXX,,London,IN,Seller,Generated
614f7f8d-f7c0-4c1b-a470-f45c4774285c,Owner 9248,+91XXXXXXXXXX,,London,IN,Seller,Generated
4f697700-d4b2-4887-b5b4-031193f2c4e1,Owner 4545,+91XXXXXXXXXX,,Delhi,IN,Seller,Generated
b7da6aa2-4a90-4fd4-9763-3d3fceda30c7,Owner 9081,+91XXXXXXXXXX,,London,IN,Seller,Generated
c52f14e1-75b8-4a76-84d4-2c24c0372438,Owner 3440,+91XXXXXXXXXX,,London,IN,Seller,Generated
8b0b2202-e692-4079-9690-b526dfb07854,Owner 9590,+91XXXXXXXXXX,,Mumbai,IN,Seller,Generated
e480850d-bd8a-4c62-954d-5c953bb56fa4,Owner 4692,+91XXXXXXXXXX,,New York,IN,Seller,Generated
488c50e2-c99c-466a-9a26-9240fb8012d1,Owner 1614,+91XXXXXXXXXX,,New York,IN,Seller,Generated
e2b33b69-e360-4a18-99dd-965c29b3cd93,Owner 4637,+91XXXXXXXXXX,,London,IN,Seller,Generated
db05c64e-ab5e-4017-ae6e-a0a193180c9a,Owner 639,+91XXXXXXXXXX,,Mumbai,IN,Seller,Generated
2170aba9-8124-4a22-a8ce-1e6177ecc207,Owner 1246,+91XXXXXXXXXX,,Mumbai,IN,Seller,Generated
b680e180-7687-465e-a3cc-a08b3ab6a14e,Owner 8487,+91XXXXXXXXXX,,New York,IN,Seller,Generated
57758a34-e7e7-43f6-ba0a-6f6a290f4e15,Owner 5783,+91XXXXXXXXXX,,London,IN,Seller,Generated
8e77f56f-241d-4ead-ad2f-f053f1824054,Owner 8097,+91XXXXXXXXXX,,New York,IN,Seller,Generated
892f40fe-f6f4-4e0e-8c4d-2c79a96f97b2,Owner 5414,+91XXXXXXXXXX,,New York,IN,Seller,Generated
90bb3893-594a-499e-b328-22c3d4d30f59,Owner 7355,+91XXXXXXXXXX,,New York,IN,Seller,Generated
0df298da-78b2-422c-b94a-6a4934e46876,Owner 1942,+91XXXXXXXXXX,,New York,IN,Seller,Generated
9b0ff220-7964-4689-b27e-e822d203d97d,Owner 9112,+91XXXXXXXXXX,,Mumbai,IN,Seller,Generated
0de17cf2-e299-440b-bada-9ec4955305b4,Owner 2364,+91XXXXXXXXXX,,London,IN,Seller,Generated
977b4993-ff81-4514-9a84-504253aa8e9b,Owner 6647,+91XXXXXXXXXX,,Mumbai,IN,Seller,Generated
945583f2-80ce-4e9a-ad71-9a0f7e5ce100,Owner 9877,+91XXXXXXXXXX,,Delhi,IN,Seller,Generated
2e1d37b0-8349-4674-bd46-d659768694b6,Owner 3109,+91XXXXXXXXXX,,New York,IN,Seller,Generated
35df25b9-9c0d-40f6-a5a7-4a15fd8ae73d,Owner 1542,+91XXXXXXXXXX,,New York,IN,Seller,Generated
2b96b759-ede6-46a6-92a3-6b0ee39ce44a,Owner 9634,+91XXXXXXXXXX,,Delhi,IN,Seller,Generated
f7679ed2-c5ff-41a2-a7e6-f0a1cf3ca326,Owner 3915,+91XXXXXXXXXX,,Mumbai,IN,Seller,Generated
3ee3843f-9ed0-4bed-9ee8-a86b22a3dfe2,Owner 4695,+91XXXXXXXXXX,,London,IN,Seller,Generated
abd6b968-3536-4252-992b-59dbdbcd7bb0,Owner 7133,+91XXXXXXXXXX,,Delhi,IN,Seller,Generated
22d81a24-8cd0-410e-8597-df06857db59f,Owner 5507,+91XXXXXXXXXX,,Mumbai,IN,Seller,Generated
01ea6636-f8c0-4942-937a-0908979e3930,Owner 7075,+91XXXXXXXXXX,,Delhi,IN,Seller,Generated
b3e1309b-dd30-40c4-a7c4-a54d351f4ef0,Owner 6703,+91XXXXXXXXXX,,London,IN,Seller,Generated
56bccaae-9fe6-4a1b-9a03-ad61180717ba,Owner 7887,+91XXXXXXXXXX,,Delhi,IN,Seller,Generated
3c78f664-9c3f-4f03-955e-99f8da8b5ef8,Owner 910,+91XXXXXXXXXX,,New York,IN,Seller,Generated
4f76f5cd-b60d-4946-8046-f287486099ab,Owner 447,+91XXXXXXXXXX,,London,IN,Seller,Generated
acd9fcca-7164-40d0-80c9-3981551a09ed,Owner 5623,+91XXXXXXXXXX,,London,IN,Seller,Generated
4555ebe7-0427-474e-a329-7002a7eea505,Owner 4615,+91XXXXXXXXXX,,New York,IN,Seller,Generated
747943ca-8312-462d-bd13-deea96c84b1d,Owner 5834,+91XXXXXXXXXX,,Delhi,IN,Seller,Generated
d1b29c7d-2d36-45b1-b87b-9d01fd9662aa,Owner 9190,+91XXXXXXXXXX,,Mumbai,IN,Seller,Generated
b69c2b4c-ae4b-4589-8225-d61f881a66f4,Owner 7499,+91XXXXXXXXXX,,Delhi,IN,Seller,Generated
46899c61-ac2a-4846-8ecd-7bb73851d85a,Owner 6183,+91XXXXXXXXXX,,London,IN,Seller,Generated
8819d22e-147b-49ff-a54b-c1fe7891e54f,Owner 3219,+91XXXXXXXXXX,,Mumbai,IN,Seller,Generated
d140e8a8-b263-4283-94f3-15a356b0f880,Owner 9211,+91XXXXXXXXXX,,London,IN,Seller,Generated
a19dd2be-0c7e-4697-ab17-551d42739aea,Owner 4928,+91XXXXXXXXXX,,London,IN,Seller,Generated
feff5d9e-6218-4434-85be-226e804c7d85,Owner 7775,+91XXXXXXXXXX,,Delhi,IN,Seller,Generated
ae6b2c38-8581-4547-aee7-0cd1d690c648,Owner 4652,+91XXXXXXXXXX,,Mumbai,IN,Seller,Generated
1b5169d1-6f22-4861-9d90-1da999da73b7,Owner 2373,+91XXXXXXXXXX,,New York,IN,Seller,Generated
44dc1d80-e0d7-4a50-aa64-187f7f931e73,Owner 8171,+91XXXXXXXXXX,,London,IN,Seller,Generated
c2641878-6a4b-44b5-81ed-6093c9df2a69,Owner 1536,+91XXXXXXXXXX,,London,IN,Seller,Generated
890e694a-a8cb-43cb-83b6-eba196e2384d,Owner 7474,+91XXXXXXXXXX,,New York,IN,Seller,Generated
d7033f4b-0ed3-4264-abdc-62569b215982,Owner 1659,+91XXXXXXXXXX,,London,IN,Seller,Generated
babdcdeb-16eb-4592-ab79-6768cd787525,Owner 9442,+91XXXXXXXXXX,,Mumbai,IN,Seller,Generated
f936388d-cd9b-4c68-bd50-299c4b27126a,Owner 9988,+91XXXXXXXXXX,,London,IN,Seller,Generated
b7721d72-640c-4f3e-98e0-59fcacea8290,Owner 1902,+91XXXXXXXXXX,,London,IN,Seller,Generated
ad256205-7128-4c1c-884c-23c9d2159d2d,Owner 3293,+91XXXXXXXXXX,,New York,IN,Seller,Generated
ec8c2709-5b8b-48fd-8d51-8e6a9510dc27,Owner 3837,+91XXXXXXXXXX,,New York,IN,Seller,Generated
526a90c6-9ad1-4f9c-82ac-6f3f3016f6a8,Owner 6174,+91XXXXXXXXXX,,London,IN,Seller,Generated
a10bd52a-ae01-4789-9b12-3614e7faecb3,Owner 3495,+91XXXXXXXXXX,,Delhi,IN,Seller,Generated
4855206d-dc6a-488c-a893-59f04ba89016,Owner 6102,+91XXXXXXXXXX,,Mumbai,IN,Seller,Generated
4dda3aaf-4479-48e7-9df8-87ad1e2f73c0,Owner 8120,+91XXXXXXXXXX,,Delhi,IN,Seller,Generated
6f63a705-b7c6-407e-a096-85390149726c,Owner 1096,+91XXXXXXXXXX,,London,IN,Seller,Generated
3f81c14a-56c1-44a6-a065-8c71440294cf,Owner 4546,+91XXXXXXXXXX,,Delhi,IN,Seller,Generated
bc9d7255-b425-49fb-9827-b4ab779e2d29,Owner 1110,+91XXXXXXXXXX,,New York,IN,Seller,Generated
4581dbdb-30a9-4145-ae6c-4cbd18247e83,Owner 9931,+91XXXXXXXXXX,,New York,IN,Seller,Generated
64bc4d7c-cde2-4355-9457-47c477668633,Owner 3605,+91XXXXXXXXXX,,Delhi,IN,Seller,Generated
c1dcfc9b-8c12-43db-8923-055119f48004,Owner 7302,+91XXXXXXXXXX,,Mumbai,IN,Seller,Generated
d7306812-743e-45e5-ad05-17030aa8fcfc,Owner 3191,+91XXXXXXXXXX,,London,IN,Seller,Generated
6fabe697-c10e-4b80-84d9-34823d8cef94,Owner 163,+91XXXXXXXXXX,,Mumbai,IN,Seller,Generated
1bcdd210-eb52-4b31-8d28-3d0073ce7c31,Owner 5712,+91XXXXXXXXXX,,Mumbai,IN,Seller,Generated
c6f522b3-6221-4b98-b7cf-59b3f6a33e4f,Owner 1144,+91XXXXXXXXXX,,Delhi,IN,Seller,Generated
97f86abd-182c-42c0-98e0-6886785de591,Owner 4441,+91XXXXXXXXXX,,London,IN,Seller,Generated
d4acb274-44f4-4b12-bb7d-805c3ff02605,Owner 6348,+91XXXXXXXXXX,,London,IN,Seller,Generated
b3cb8021-e698-49de-bde5-a9906aa0c641,Owner 3937,+91XXXXXXXXXX,,Mumbai,IN,Seller,Generated
a23acb11-2af4-4538-8a46-315e1690c526,Owner 3388,+91XXXXXXXXXX,,London,IN,Seller,Generated
91558d17-4b43-4858-8e25-26b4752f5543,Owner 2901,+91XXXXXXXXXX,,New York,IN,Seller,Generated
ceea48fd-5134-4b1a-a699-7330d86fd92a,Owner 457,+91XXXXXXXXXX,,Delhi,IN,Seller,Generated
7597e785-7af7-4481-bb69-e412f1b5115a,Owner 7761,+91XXXXXXXXXX,,Mumbai,IN,Seller,Generated
04cb4ae7-828e-40f4-bc83-de7fcc7be4a2,Owner 1835,+91XXXXXXXXXX,,Mumbai,IN,Seller,Generated
e0e2b36a-4b12-4bc8-abb6-dfea708819ee,Owner 6178,+91XXXXXXXXXX,,Mumbai,IN,Seller,Generated
29bb901b-19de-4758-8594-a071c6a1e3f2,Owner 1744,+91XXXXXXXXXX,,London,IN,Seller,Generated
e65cd637-d3f8-4336-b3b0-e8c6949a6888,Owner 8140,+91XXXXXXXXXX,,Delhi,IN,Seller,Generated
d186b299-2abf-4522-907a-e10e07e0ed68,Owner 1052,+91XXXXXXXXXX,,Delhi,IN,Seller,Generated
d5ab3889-ddd6-453e-9f2b-67c6a929ecf5,Owner 2340,+91XXXXXXXXXX,,London,IN,Seller,Generated
0cc7293b-aeda-4b28-96b6-e76d52fced7b,Owner 1433,+91XXXXXXXXXX,,Delhi,IN,Seller,Generated
8d0a14f2-f033-460b-af48-6185cc5b10cb,Owner 1597,+91XXXXXXXXXX,,Mumbai,IN,Seller,Generated
a8c2caab-fe1e-4592-b00f-65b924212b26,Owner 2628,+91XXXXXXXXXX,,London,IN,Seller,Generated
7bd3743c-8242-4204-ba4f-7813dfa8ed20,Owner 3051,+91XXXXXXXXXX,,Delhi,IN,Seller,Generated
f9aae70b-b00f-41ca-8d8c-96be49c8003c,Owner 8519,+91XXXXXXXXXX,,New York,IN,Seller,Generated
c2464e5e-7e4f-4943-9484-78298b06d1fe,Owner 4843,+91XXXXXXXXXX,,Delhi,IN,Seller,Generated
c5b76bf4-21ec-4d39-8f01-ae2178c2b309,Owner 6779,+91XXXXXXXXXX,,New York,IN,Seller,Generated
b9bf8589-9605-4d16-9074-aafbff9cca27,Owner 3175,+91XXXXXXXXXX,,New York,IN,Seller,Generated
7f761be4-ea23-4f1e-9275-469596fa6220,Owner 5740,+91XXXXXXXXXX,,New York,IN,Seller,Generated
84d8f234-15d4-42dc-b5c8-a4be347561a8,Owner 8197,+91XXXXXXXXXX,,Delhi,IN,Seller,Generated
c9828b0c-6cd6-4506-9a11-6b2669286274,Owner 2454,+91XXXXXXXXXX,,London,IN,Seller,Generated
306170fb-4abf-411b-b3e2-6600f90ead20,Owner 6613,+91XXXXXXXXXX,,New York,IN,Seller,Generated
0eaecd9e-9878-4dbc-987e-30c127937249,Owner 9486,+91XXXXXXXXXX,,London,IN,Seller,Generated
138703e5-fc7e-4653-b412-3aa6ade4e661,Owner 4011,+91XXXXXXXXXX,,New York,IN,Seller,Generated
3a76341c-dc87-4bd9-bfd3-fafb4c14a696,Owner 5825,+91XXXXXXXXXX,,London,IN,Seller,Generated
f60a4e88-ffd3-4e6c-9f3c-8681bdc16771,Owner 4616,+91XXXXXXXXXX,,Mumbai,IN,Seller,Generated
102f6adb-fd4f-422c-98fb-1b76e19f0b15,Owner 5068,+91XXXXXXXXXX,,London,IN,Seller,Generated
07a48ed3-5d10-4ba2-b6b1-b006414df70f,Owner 1243,+91XXXXXXXXXX,,New York,IN,Seller,Generated
28088129-4e76-4bc1-ab30-6a58459b5c26,Owner 1575,+91XXXXXXXXXX,,New York,IN,Seller,Generated
79144bdf-6c14-4fac-98b4-0b813e43a658,Owner 432,+91XXXXXXXXXX,,London,IN,Seller,Generated
44f76ee5-0e59-4f9a-88bd-86ba0c924b80,Owner 4262,+91XXXXXXXXXX,,New York,IN,Seller,Generated
0cbf5c4a-1c6e-4eed-b9f9-e2782f46f860,Owner 20,+91XXXXXXXXXX,,Mumbai,IN,Seller,Generated
c33a0ede-b95e-4ef0-a6bd-9fb4afbe9745,Owner 130,+91XXXXXXXXXX,,London,IN,Seller,Generated
31b365a1-5acb-4310-8f56-34759273b69e,Owner 1869,+91XXXXXXXXXX,,London,IN,Seller,Generated
d5aeff1a-c3f0-49b7-bc27-9af565b9b4d7,Owner 2519,+91XXXXXXXXXX,,Delhi,IN,Seller,Generated
9f7cfcda-4483-4ef0-8890-f2412d679bdf,Owner 9556,+91XXXXXXXXXX,,New York,IN,Seller,Generated
59ead2c0-a294-4b18-92bb-95b75b3cd285,Owner 1138,+91XXXXXXXXXX,,Delhi,IN,Seller,Generated
cc85c857-1bc1-4c95-9c11-3b27a71f3e0f,Owner 4524,+91XXXXXXXXXX,,New York,IN,Seller,Generated
29946a55-53af-4b60-a9e9-690c8dc8d270,Owner 5223,+91XXXXXXXXXX,,Mumbai,IN,Seller,Generated
c270ce58-4d9a-4bfb-b041-e837927524bd,Owner 8611,+91XXXXXXXXXX,,Mumbai,IN,Seller,Generated
2fd0588d-71d1-420f-b489-8c668f8983b2,Owner 9887,+91XXXXXXXXXX,,Delhi,IN,Seller,Generated
a69f59db-d045-4fe5-8599-39b658bf007a,Owner 3856,+91XXXXXXXXXX,,New York,IN,Seller,Generated
1e5b15f3-dedf-4f06-8f73-71d6fef1d25b,Owner 1034,+91XXXXXXXXXX,,Mumbai,IN,Seller,Generated
9d7c877f-789c-44b3-9620-251c2ccff8c7,Owner 2979,+91XXXXXXXXXX,,Delhi,IN,Seller,Generated
0ac7cf3e-fed3-4d34-a07e-a47fa7ec4bee,Owner 1452,+91XXXXXXXXXX,,Delhi,IN,Seller,Generated
bce2c8fe-3c23-43f4-81cb-5e56a22d0456,Owner 4949,+91XXXXXXXXXX,,London,IN,Seller,Generated
800e6fb2-5911-4575-93df-e015a31429d0,Owner 7192,+91XXXXXXXXXX,,Mumbai,IN,Seller,Generated
4aa643f3-3000-4e90-b0fc-a07d7de36a27,Owner 7391,+91XXXXXXXXXX,,London,IN,Seller,Generated
9c55df5e-ec55-42b4-bb5b-66b64248260d,Owner 8762,+91XXXXXXXXXX,,Delhi,IN,Seller,Generated
509ab76c-9447-4ed3-a36d-4a682e3f8a31,Owner 7825,+91XXXXXXXXXX,,Delhi,IN,Seller,Generated
b2d2940b-b664-4957-a474-8bab2543a708,Owner 8340,+91XXXXXXXXXX,,Mumbai,IN,Seller,Generated
12f167dd-a049-4c6b-a6e1-1d401262a19b,Owner 961,+91XXXXXXXXXX,,New York,IN,Seller,Generated
8f4d6d26-a3b6-4730-8c6c-16efb5fb2fec,Owner 455,+91XXXXXXXXXX,,London,IN,Seller,Generated
23d2d9cf-e865-4d22-9160-19b4d2a53799,Owner 1743,+91XXXXXXXXXX,,Delhi,IN,Seller,Generated
2754fd2c-da4c-41fe-aa61-74d6b6faa26c,Owner 7624,+91XXXXXXXXXX,,New York,IN,Seller,Generated
a1c55c1a-0f08-4091-95cb-12ff55c28aa4,Owner 7439,+91XXXXXXXXXX,,London,IN,Seller,Generated
d85fa89c-00c4-413b-9083-37abb2cb7d27,Owner 7591,+91XXXXXXXXXX,,Delhi,IN,Seller,Generated
6bcb7f01-8e1c-4774-82cb-8c105ec952ca,Owner 6986,+91XXXXXXXXXX,,London,IN,Seller,Generated
6b5a1dfb-e3e9-49db-8f53-7ac24d7ca7ca,Owner 4957,+91XXXXXXXXXX,,New York,IN,Seller,Generated
bfba0849-fe70-4e57-ba3a-6868ed2da572,Owner 5051,+91XXXXXXXXXX,,New York,IN,Seller,Generated
df88335e-a73c-438e-a343-ab50bb9a788d,Owner 9257,+91XXXXXXXXXX,,Delhi,IN,Seller,Generated
4f0dc6c7-b875-4b66-9a36-ae02e6ee8871,Owner 8319,+91XXXXXXXXXX,,New York,IN,Seller,Generated
c096c144-42e3-4972-b244-f0b84aa9ff0b,Owner 6414,+91XXXXXXXXXX,,London,IN,Seller,Generated
fcef35cb-aef8-426d-b42c-62e3a635b580,Owner 9144,+91XXXXXXXXXX,,London,IN,Seller,Generated
54595284-07f7-49dd-8d57-08081e025c9a,Owner 2999,+91XXXXXXXXXX,,Delhi,IN,Seller,Generated
7f144812-0a3c-43cc-974d-ff5352c47b9a,Owner 3601,+91XXXXXXXXXX,,Mumbai,IN,Seller,Generated
96cf43d2-23f9-43b1-8ff9-a5b4aca8b420,Owner 8314,+91XXXXXXXXXX,,London,IN,Seller,Generated
4ff95c8e-e528-4943-8544-81451f98ce9d,Owner 7561,+91XXXXXXXXXX,,New York,IN,Seller,Generated
59aebaf7-748c-457c-9ed6-83c3a7ad8474,Owner 5274,+91XXXXXXXXXX,,London,IN,Seller,Generated
0283c8d6-4395-4eb9-854c-8a09610d7e14,Owner 2268,+91XXXXXXXXXX,,Mumbai,IN,Seller,Generated
dcc670b8-7389-4d82-897d-ba918693da52,Owner 5641,+91XXXXXXXXXX,,Mumbai,IN,Seller,Generated
3cd6edff-18ab-4a54-9bc9-dfd797d4adfb,Owner 4914,+91XXXXXXXXXX,,Mumbai,IN,Seller,Generated
dcc2a369-4284-434a-8093-ebb039a3e5c8,Owner 4214,+91XXXXXXXXXX,,Mumbai,IN,Seller,Generated
eee4af32-266f-41de-b470-c0b52ac48bd9,Owner 5863,+91XXXXXXXXXX,,London,IN,Seller,Generated
11b061de-d291-4c40-a74a-7aa3c305183c,Owner 7251,+91XXXXXXXXXX,,London,IN,Seller,Generated
370839ee-948a-4198-a82e-45f8b9c7a4c5,Owner 5292,+91XXXXXXXXXX,,London,IN,Seller,Generated
aa042f2d-65e7-4d1b-9ec8-0c8eebfd443e,Owner 7181,+91XXXXXXXXXX,,London,IN,Seller,Generated
1f12c7c8-0e92-4e9b-98ee-3b5dbe0f7606,Owner 5583,+91XXXXXXXXXX,,New York,IN,Seller,Generated
11268554-2c99-4e91-a48a-273178af36d1,Owner 2291,+91XXXXXXXXXX,,London,IN,Seller,Generated
79488d69-fb28-4ed4-a87a-b69f6ab22621,Owner 8850,+91XXXXXXXXXX,,London,IN,Seller,Generated
779ff791-42da-4437-a836-fe9a90a2a608,Owner 8733,+91XXXXXXXXXX,,Delhi,IN,Seller,Generated
1de358db-ce18-44f2-87f5-ecfb059d2d6f,Owner 3187,+91XXXXXXXXXX,,London,IN,Seller,Generated
3d6019a8-c605-4c62-b9ab-5a4de5bdb359,Owner 9681,+91XXXXXXXXXX,,New York,IN,Seller,Generated
315c82e9-4eee-4f8e-836e-d3f49f84d197,Owner 5422,+91XXXXXXXXXX,,New York,IN,Seller,Generated
2a675fc6-711c-449c-a439-c6e5a4984e4e,Owner 7720,+91XXXXXXXXXX,,Mumbai,IN,Seller,Generated
4a8754b5-0b29-4aa6-b913-a36ffad77514,Owner 762,+91XXXXXXXXXX,,London,IN,Seller,Generated
10438fc0-712d-439a-af9e-026447588405,Owner 6520,+91XXXXXXXXXX,,New York,IN,Seller,Generated
533be6e6-e58b-48f8-a2c6-465558249d4e,Owner 4584,+91XXXXXXXXXX,,London,IN,Seller,Generated
693c3822-f0cd-4c49-94f2-cff905e19549,Owner 6204,+91XXXXXXXXXX,,London,IN,Seller,Generated
be21a7ec-0af3-41b7-a07b-801d717f2de2,Owner 1070,+91XXXXXXXXXX,,London,IN,Seller,Generated
5e935e83-5c92-4f82-b5c8-5f1a52751ee5,Owner 9322,+91XXXXXXXXXX,,New York,IN,Seller,Generated
bfe8c06c-bd8f-4a7d-9769-47118a7fae93,Owner 5728,+91XXXXXXXXXX,,Mumbai,IN,Seller,Generated
2b2fbc83-10ca-451c-ac9e-e590225288d4,Owner 704,+91XXXXXXXXXX,,Delhi,IN,Seller,Generated
24e41931-db20-4706-b923-01d34cad1ebb,Owner 9091,+91XXXXXXXXXX,,New York,IN,Seller,Generated
242ac9b0-bd80-41ac-8a8f-f135fdcc6d0c,Owner 3260,+91XXXXXXXXXX,,New York,IN,Seller,Generated
d8b05655-0848-43a3-b3fc-f9838ae17cda,Owner 3535,+91XXXXXXXXXX,,New York,IN,Seller,Generated
47ce7dcc-658f-4e16-9bb9-4a729649a03b,Owner 3322,+91XXXXXXXXXX,,London,IN,Seller,Generated
19f14432-a70c-4a28-b633-c4c321d58909,Owner 3092,+91XXXXXXXXXX,,New York,IN,Seller,Generated
2ea422f9-4e3a-4689-af77-215863b08d8d,Owner 3108,+91XXXXXXXXXX,,New York,IN,Seller,Generated
d0e2df61-a324-46ee-921c-fc045568f483,Owner 2830,+91XXXXXXXXXX,,Mumbai,IN,Seller,Generated
95357e57-1d61-4bf0-81f8-3e4f406dd8ca,Owner 6888,+91XXXXXXXXXX,,New York,IN,Seller,Generated
7645c901-c03a-4441-8bf0-ab1ac99e25a7,Owner 5355,+91XXXXXXXXXX,,New York,IN,Seller,Generated
ce1b5f88-012b-4525-a66a-68ceec25b278,Owner 5364,+91XXXXXXXXXX,,London,IN,Seller,Generated
f0634adf-68b7-4307-8168-0b33a1153b76,Owner 6857,+91XXXXXXXXXX,,Delhi,IN,Seller,Generated
406be900-a266-471c-b382-53d763f07fbb,Owner 9136,+91XXXXXXXXXX,,Delhi,IN,Seller,Generated
84788ff2-b61c-48f7-9068-cf490a61eb0a,Owner 1191,+91XXXXXXXXXX,,Delhi,IN,Seller,Generated
87f20929-8366-4b67-bea2-81df863e6aea,Owner 6429,+91XXXXXXXXXX,,New York,IN,Seller,Generated
bd017c17-1916-4bbd-baf7-bdaf8ad69be1,Owner 2025,+91XXXXXXXXXX,,Delhi,IN,Seller,Generated
12c99dec-773e-4ddc-b8de-c041382daef6,Owner 9285,+91XXXXXXXXXX,,London,IN,Seller,Generated
c0a60a82-05a2-4e39-b67c-80001730917c,Owner 525,+91XXXXXXXXXX,,New York,IN,Seller,Generated
b4da31a3-38ce-4cf4-ae4a-636dc9108404,Owner 7242,+91XXXXXXXXXX,,London,IN,Seller,Generated
d17840fe-1ff5-4716-8821-c124af577b2d,Owner 4973,+91XXXXXXXXXX,,Mumbai,IN,Seller,Generated
b0f29b67-3b58-4c23-b6a1-9d359827b7c7,Owner 3131,+91XXXXXXXXXX,,Mumbai,IN,Seller,Generated
f6ee4f1e-3c51-47e0-a251-4f143cd1c8b3,Owner 8994,+91XXXXXXXXXX,,Delhi,IN,Seller,Generated
9d72b3b7-301d-4129-aaeb-8b607453c642,Owner 1953,+91XXXXXXXXXX,,Delhi,IN,Seller,Generated
4e2f9c1e-8bfa-4bd3-ad8a-2eadf1e273bd,Owner 1556,+91XXXXXXXXXX,,New York,IN,Seller,Generated
f1c3a8ab-f485-42a4-bd0a-a9b6e25154e8,Owner 9675,+91XXXXXXXXXX,,New York,IN,Seller,Generated
0c3ff79e-7af1-4eae-8cc2-520641c9173e,Owner 272,+91XXXXXXXXXX,,Delhi,IN,Seller,Generated
2bf1e7e3-79cc-4b1f-b40d-f0da3d6a6410,Owner 5620,+91XXXXXXXXXX,,Mumbai,IN,Seller,Generated
c3199d0b-73ad-4617-a7db-0cc1c2d65f93,Owner 5902,+91XXXXXXXXXX,,London,IN,Seller,Generated
70d0e2f6-1ed2-4309-9f7d-e7717f755b4f,Owner 9681,+91XXXXXXXXXX,,London,IN,Seller,Generated
c2a27ab2-48fc-4656-896d-056cdd741a5e,Owner 8281,+91XXXXXXXXXX,,London,IN,Seller,Generated
28cbc470-64d1-4e08-8f6e-7b660ecdfed4,Owner 5198,+91XXXXXXXXXX,,Delhi,IN,Seller,Generated
339cd84f-f3ce-45e9-92b3-e4bbc075439e,Owner 5631,+91XXXXXXXXXX,,New York,IN,Seller,Generated
15a04016-04a0-49ec-aed1-8723cb5fa98e,Owner 4620,+91XXXXXXXXXX,,Mumbai,IN,Seller,Generated
8763c5ca-25de-4a13-acea-70fb476ed1e8,Owner 7182,+91XXXXXXXXXX,,London,IN,Seller,Generated
147799ff-e09c-4078-9f2a-b8b96711adaf,Owner 9986,+91XXXXXXXXXX,,New York,IN,Seller,Generated
8d61c90d-7ac7-4cda-9b01-ee70717cf0bd,Owner 9556,+91XXXXXXXXXX,,London,IN,Seller,Generated
b0b552b4-45ab-4c81-84f3-647c4e4ccbb5,Owner 1164,+91XXXXXXXXXX,,London,IN,Seller,Generated
4dbe99ed-8d30-4fa5-a5c8-f5db14f40ffb,Owner 3441,+91XXXXXXXXXX,,Delhi,IN,Seller,Generated
d4dc2a4f-ce6b-444b-81fa-57f0ed2595a3,Owner 188,+91XXXXXXXXXX,,Delhi,IN,Seller,Generated
64013792-52b2-4b71-b37e-e54074e14c48,Owner 2041,+91XXXXXXXXXX,,New York,IN,Seller,Generated
ebcc01f7-390b-45bc-8486-a22aa57c8f47,Owner 6472,+91XXXXXXXXXX,,Delhi,IN,Seller,Generated
71278916-46b7-44b7-b1c1-fe70a7c8bfa0,Owner 5345,+91XXXXXXXXXX,,New York,IN,Seller,Generated
3399c31b-ffa2-4d23-bf3e-b6a416952af2,Owner 3008,+91XXXXXXXXXX,,Mumbai,IN,Seller,Generated
edf1e0e5-5278-4fed-9a2a-2f0e890fd6f7,Owner 4105,+91XXXXXXXXXX,,Delhi,IN,Seller,Generated
06f5417e-839a-4da3-b954-10f36cc12d75,Owner 7630,+91XXXXXXXXXX,,Delhi,IN,Seller,Generated
5859f2be-84fd-455a-995f-a08ea0003408,Owner 5821,+91XXXXXXXXXX,,New York,IN,Seller,Generated
6c6e0612-557a-4fe7-87d0-0f10f51c9e9a,Owner 2998,+91XXXXXXXXXX,,London,IN,Seller,Generated
18365f53-6ea8-4dcb-92fa-83ae49391b57,Owner 39,+91XXXXXXXXXX,,Mumbai,IN,Seller,Generated
1b7a3a0a-5db4-40f3-a6d5-88faaab8feb4,Owner 4516,+91XXXXXXXXXX,,New York,IN,Seller,Generated
9e391315-cc2a-4ef1-8b39-499aeefb7866,Owner 5366,+91XXXXXXXXXX,,New York,IN,Seller,Generated
cc5ea870-5f3c-40d0-b77c-1dda27cc63dc,Owner 7142,+91XXXXXXXXXX,,London,IN,Seller,Generated
6780d314-93a5-447c-8911-c6cf45bd1c7f,Owner 1394,+91XXXXXXXXXX,,New York,IN,Seller,Generated
7e3ca89a-8c9e-43ec-9e1a-5af506abee91,Owner 4744,+91XXXXXXXXXX,,New York,IN,Seller,Generated
8be113ea-cca5-440e-943b-0893cc9e8229,Owner 13,+91XXXXXXXXXX,,Delhi,IN,Seller,Generated
e93b7e6f-185f-4b1f-bdd5-a5b4d3f44543,Owner 317,+91XXXXXXXXXX,,Delhi,IN,Seller,Generated
ee85eb75-5dc8-479b-9915-80619b73e6cf,Owner 6280,+91XXXXXXXXXX,,Mumbai,IN,Seller,Generated
b5d25857-5b72-497d-9467-7ea3b4e098ce,Owner 5837,+91XXXXXXXXXX,,New York,IN,Seller,Generated
1989dc25-af70-4937-a5d0-a83c3aba49aa,Owner 8609,+91XXXXXXXXXX,,Delhi,IN,Seller,Generated
bb68a1f2-0d1d-4f50-ad84-5395a814b5e2,Owner 5023,+91XXXXXXXXXX,,Mumbai,IN,Seller,Generated
905b2beb-fe34-4f3c-b82a-dc6320c4f5ee,Owner 8909,+91XXXXXXXXXX,,Delhi,IN,Seller,Generated
33a96e9b-264a-4065-9ee7-00a0e4ffbb8a,Owner 6613,+91XXXXXXXXXX,,Mumbai,IN,Seller,Generated
14c174f0-fb36-4e98-9100-20c62734cef6,Owner 8847,+91XXXXXXXXXX,,Mumbai,IN,Seller,Generated
c43eac47-7827-49a8-954f-1c28785c8847,Owner 4065,+91XXXXXXXXXX,,Delhi,IN,Seller,Generated
2b08f34f-c860-43a7-8a54-42b4de0689ca,Owner 3876,+91XXXXXXXXXX,,London,IN,Seller,Generated
8129d767-25ec-44fb-b539-9f6556671c3b,Owner 8937,+91XXXXXXXXXX,,Mumbai,IN,Seller,Generated
0945464e-df3d-4031-a68f-f6494929d57d,Owner 6214,+91XXXXXXXXXX,,Delhi,IN,Seller,Generated
e64e7c6c-115b-4d6d-b643-ad7d7da60eb1,Owner 6829,+91XXXXXXXXXX,,Mumbai,IN,Seller,Generated
3b7eec43-1b21-491b-8863-27e4abda94ec,Owner 4683,+91XXXXXXXXXX,,Delhi,IN,Seller,Generated
fc2949bf-7dc9-4927-9bee-c313fa00e9d6,Owner 2396,+91XXXXXXXXXX,,New York,IN,Seller,Generated
5a0c4ad0-1f85-4a9b-8cf9-144144f80dd7,Owner 8501,+91XXXXXXXXXX,,New York,IN,Seller,Generated
b13c442a-dc21-4943-87ca-4d4801d4be81,Owner 1876,+91XXXXXXXXXX,,Delhi,IN,Seller,Generated
862d3b4f-0dc1-45b7-8b71-d732d61b554a,Owner 3923,+91XXXXXXXXXX,,New York,IN,Seller,Generated
7f1effa3-78a6-48d5-abde-33777feff3bc,Owner 9672,+91XXXXXXXXXX,,London,IN,Seller,Generated
decf3c47-6e43-4d57-b1ac-71ec36b2638b,Owner 1899,+91XXXXXXXXXX,,Delhi,IN,Seller,Generated
096470c0-b87d-4bba-b0e4-30494e680eac,Owner 7876,+91XXXXXXXXXX,,Mumbai,IN,Seller,Generated
b130aa01-1def-4e3e-8a80-2e3c08e69ad2,Owner 2627,+91XXXXXXXXXX,,London,IN,Seller,Generated
bbf7eed4-5230-47e9-80af-dbe38074a6c6,Owner 936,+91XXXXXXXXXX,,New York,IN,Seller,Generated
d300e475-0277-43aa-886b-b0187b30d813,Owner 1279,+91XXXXXXXXXX,,New York,IN,Seller,Generated
2c019062-7694-4322-8b87-c2dbacf4c60e,Owner 5058,+91XXXXXXXXXX,,New York,IN,Seller,Generated
7771553a-1583-49d4-a359-bdeb6c2a126b,Owner 3760,+91XXXXXXXXXX,,New York,IN,Seller,Generated
b2fceed2-22d0-4f08-8ef4-48ee257cb20f,Owner 9460,+91XXXXXXXXXX,,New York,IN,Seller,Generated
f4d9b2f9-4cf3-437c-9d59-d3e32d3272c5,Owner 2631,+91XXXXXXXXXX,,New York,IN,Seller,Generated
08be0dce-7def-48c0-9e09-48b011b05588,Owner 4737,+91XXXXXXXXXX,,Delhi,IN,Seller,Generated
3a2e96e9-75c4-40c3-b379-5c30d2e32b6e,Owner 2114,+91XXXXXXXXXX,,London,IN,Seller,Generated
3e1671ec-bba5-4d56-97dc-30bc0257cfe6,Owner 3428,+91XXXXXXXXXX,,New York,IN,Seller,Generated
73d4a307-4c66-4fbc-8849-042f2c5caab3,Owner 1096,+91XXXXXXXXXX,,Delhi,IN,Seller,Generated
221cc5bf-6781-4c6c-a24e-0c6108c79363,Owner 2765,+91XXXXXXXXXX,,New York,IN,Seller,Generated
d213adbf-7345-4263-b6bf-36e868347a02,Owner 7822,+91XXXXXXXXXX,,Delhi,IN,Seller,Generated
1154c9a8-0e17-4d1e-82cd-bf9bc45cfc5c,Owner 9525,+91XXXXXXXXXX,,New York,IN,Seller,Generated
ffe36a49-6e0e-4f0d-92c9-d2a5649d36a5,Owner 7711,+91XXXXXXXXXX,,London,IN,Seller,Generated
a3e60cb4-9f5b-440e-b596-e2d099957a04,Owner 7711,+91XXXXXXXXXX,,Delhi,IN,Seller,Generated
606d4149-229f-4169-b738-1536113c98f8,Owner 6241,+91XXXXXXXXXX,,New York,IN,Seller,Generated
6586ea60-dd4d-4a8a-8429-1d6f7988c016,Owner 9861,+91XXXXXXXXXX,,London,IN,Seller,Generated
9533b968-3003-46e3-b070-d871f8322dbe,Owner 6690,+91XXXXXXXXXX,,Mumbai,IN,Seller,Generated
ca1aae2a-b82c-4f84-9a2e-bde35c03af6f,Owner 1998,+91XXXXXXXXXX,,London,IN,Seller,Generated
97f04080-a829-4441-9a8c-af84d626da4d,Owner 9536,+91XXXXXXXXXX,,Delhi,IN,Seller,Generated
6b6dcd95-733c-486c-b7cc-93bab277b291,Owner 4577,+91XXXXXXXXXX,,London,IN,Seller,Generated
4645a298-0e72-4472-a20d-6e79ac0999bc,Owner 4320,+91XXXXXXXXXX,,Delhi,IN,Seller,Generated
0459f5a5-1a66-4060-b1f0-fb5099bac368,Owner 3789,+91XXXXXXXXXX,,London,IN,Seller,Generated
4e7997cf-8d80-4239-bbc2-73306e92aa2f,Owner 9349,+91XXXXXXXXXX,,Mumbai,IN,Seller,Generated
78480681-ba98-4daf-9955-8fe21c7736e9,Owner 5265,+91XXXXXXXXXX,,New York,IN,Seller,Generated
d17416e3-160f-41bb-8556-b66e7701b248,Owner 8342,+91XXXXXXXXXX,,London,IN,Seller,Generated
7e8991b3-66bd-461e-a888-99bc073c81f6,Owner 3097,+91XXXXXXXXXX,,London,IN,Seller,Generated
30194c01-4232-4d56-ab4e-4f29b5e8bf7e,Owner 7503,+91XXXXXXXXXX,,London,IN,Seller,Generated
5a24db43-ea13-4b36-9f97-4c8dc4b5db21,Owner 4643,+91XXXXXXXXXX,,London,IN,Seller,Generated
4fd095d3-c03b-4ddc-a198-c8864b547635,Owner 1989,+91XXXXXXXXXX,,London,IN,Seller,Generated
8d9aeff2-f224-4190-bc58-b62faf5747cb,Owner 6661,+91XXXXXXXXXX,,New York,IN,Seller,Generated
e8ba3fbd-e3fd-4478-867d-aca0040eed16,Owner 7625,+91XXXXXXXXXX,,New York,IN,Seller,Generated
cb1e6770-cdb9-45aa-b108-6bab34f6d27c,Owner 1617,+91XXXXXXXXXX,,Mumbai,IN,Seller,Generated
a16d32fd-fa6c-4e5a-971e-57ced2e036de,Owner 1012,+91XXXXXXXXXX,,London,IN,Seller,Generated
91c2db09-11f4-45f2-8f52-37bb5d998e9c,Owner 4286,+91XXXXXXXXXX,,London,IN,Seller,Generated
784eb9f5-2a2f-4c54-9cec-6c0f02258313,Owner 6348,+91XXXXXXXXXX,,Mumbai,IN,Seller,Generated
b8a81175-7b2d-4fd8-a125-f303554c8605,Owner 2771,+91XXXXXXXXXX,,London,IN,Seller,Generated
7987e655-e82c-4285-9941-b0d641b90df0,Owner 541,+91XXXXXXXXXX,,London,IN,Seller,Generated
109d393f-4f24-4675-a0cb-1eede0bbbadd,Owner 7155,+91XXXXXXXXXX,,New York,IN,Seller,Generated
7ae3df67-34b3-4ca5-b8dd-5f0bb71d1ca1,Owner 4804,+91XXXXXXXXXX,,Mumbai,IN,Seller,Generated
73e04f6a-010a-4aa3-9eb6-e51b980cb2e0,Owner 8093,+91XXXXXXXXXX,,Delhi,IN,Seller,Generated
71d800bd-f415-4620-883c-ab1254aec521,Owner 6116,+91XXXXXXXXXX,,Delhi,IN,Seller,Generated
6b70abcb-0c40-4799-a10d-faa23c3135ff,Owner 2555,+91XXXXXXXXXX,,New York,IN,Seller,Generated
09505b25-5553-4576-8876-553ba5ed2b62,Owner 3867,+91XXXXXXXXXX,,Delhi,IN,Seller,Generated
1384a610-8003-4861-8707-8211a591f3ff,Owner 7098,+91XXXXXXXXXX,,London,IN,Seller,Generated
a6d19e0e-1520-4ad6-8b52-d001c45c7b70,Owner 8513,+91XXXXXXXXXX,,New York,IN,Seller,Generated
9291f60f-7178-42b2-9cd6-e2f0187b286d,Owner 7685,+91XXXXXXXXXX,,Mumbai,IN,Seller,Generated
2cb15725-3399-4d31-9d97-4ea5b0514a71,Owner 4580,+91XXXXXXXXXX,,New York,IN,Seller,Generated
547a8aaa-26fc-4031-86b8-74b432e6bc54,Owner 4572,+91XXXXXXXXXX,,Delhi,IN,Seller,Generated
8abb9d10-5e78-404d-a0b3-86ac3a576fe1,Owner 8742,+91XXXXXXXXXX,,Delhi,IN,Seller,Generated
f62a0da3-e48e-4bc7-8eb3-2cff1519386c,Owner 3258,+91XXXXXXXXXX,,Mumbai,IN,Seller,Generated
7304e167-6e2b-4244-9f3f-b810c8fd4cf5,Owner 955,+91XXXXXXXXXX,,New York,IN,Seller,Generated
fedd08cd-7021-4ca9-ae27-33f1c4e1e88c,Owner 5701,+91XXXXXXXXXX,,Mumbai,IN,Seller,Generated
93476cb6-42f3-4c4a-bae8-3ed373295344,Owner 2184,+91XXXXXXXXXX,,New York,IN,Seller,Generated
36947e87-068a-470e-8f60-28309a960dff,Owner 9681,+91XXXXXXXXXX,,London,IN,Seller,Generated
7d42d953-8402-499d-ac93-1bc2df794b21,Owner 7018,+91XXXXXXXXXX,,New York,IN,Seller,Generated
0a8900b9-5a00-4117-8ca7-0f96732283fb,Owner 207,+91XXXXXXXXXX,,New York,IN,Seller,Generated
95e940df-8b27-447d-b907-e5def2eb55ad,Owner 6483,+91XXXXXXXXXX,,London,IN,Seller,Generated
f002ed09-f9d7-48c7-9822-5219461db51e,Owner 921,+91XXXXXXXXXX,,Delhi,IN,Seller,Generated
508a27fd-389a-4dc5-885b-e95cfb83fa81,Owner 846,+91XXXXXXXXXX,,New York,IN,Seller,Generated
d57c6482-2aa8-4871-a478-66656b4a75df,Owner 7009,+91XXXXXXXXXX,,Mumbai,IN,Seller,Generated
7559757e-38b2-4601-99c1-9bd603ef4aac,Owner 2096,+91XXXXXXXXXX,,Mumbai,IN,Seller,Generated
099d8165-5d85-4e6f-9a2b-dbe24e874d10,Owner 3717,+91XXXXXXXXXX,,Delhi,IN,Seller,Generated
5b4c40d9-ae5d-4c5b-bd60-92f4de8a5cfe,Owner 1883,+91XXXXXXXXXX,,London,IN,Seller,Generated
b4451623-32e6-42e4-804b-0c25115d5884,Owner 4944,+91XXXXXXXXXX,,Mumbai,IN,Seller,Generated
d7f53e1b-2d62-4edd-b269-022095f1641d,Owner 7332,+91XXXXXXXXXX,,Delhi,IN,Seller,Generated
af45325f-a0a2-47e0-a637-cc1b0d7208b3,Owner 6884,+91XXXXXXXXXX,,Delhi,IN,Seller,Generated
ad427ce7-ab55-4a67-b1dd-d6a389b3c9b3,Owner 9549,+91XXXXXXXXXX,,Mumbai,IN,Seller,Generated
93b2c033-fe64-4616-ac8d-d92c5d391d34,Owner 1168,+91XXXXXXXXXX,,Delhi,IN,Seller,Generated
d90f7d0c-a55b-4235-9a99-c288a9c15b6c,Owner 1531,+91XXXXXXXXXX,,London,IN,Seller,Generated
120a9659-0287-4277-8405-c8d9f9719e3c,Owner 101,+91XXXXXXXXXX,,London,IN,Seller,Generated
1b72f8f7-a302-4314-8eee-95ac3a5405f8,Owner 5369,+91XXXXXXXXXX,,Delhi,IN,Seller,Generated
2e850c00-ed9b-4e02-a4aa-efbcd15d93fc,Owner 4131,+91XXXXXXXXXX,,Delhi,IN,Seller,Generated
90ff58f5-0674-46f6-be6e-4c36e420d135,Owner 87,+91XXXXXXXXXX,,New York,IN,Seller,Generated
80e351eb-fce4-4d7f-8420-86b9d6a0d652,Owner 8381,+91XXXXXXXXXX,,New York,IN,Seller,Generated
6d30dadc-741b-4c2b-b4c8-3d014df4ee54,Owner 7396,+91XXXXXXXXXX,,London,IN,Seller,Generated
b1bce09c-265c-421c-bda1-62287639cc85,Owner 3526,+91XXXXXXXXXX,,London,IN,Seller,Generated
e2e20f94-3242-43b4-8d49-c666616a9c55,Owner 1399,+91XXXXXXXXXX,,London,IN,Seller,Generated
179ded8e-00c5-48b7-bef3-ff8f56f5a48c,Owner 1436,+91XXXXXXXXXX,,Mumbai,IN,Seller,Generated
d1523dde-5553-44b7-8954-de4ed86420a0,Owner 1225,+91XXXXXXXXXX,,Mumbai,IN,Seller,Generated
8dbb0142-ae0e-4f37-85c8-84d3629b6644,Owner 710,+91XXXXXXXXXX,,Delhi,IN,Seller,Generated
042f249b-8960-428b-bc05-007c15e9db16,Owner 5670,+91XXXXXXXXXX,,New York,IN,Seller,Generated
180f3968-dd5f-4cfb-a291-20bec110c632,Owner 9522,+91XXXXXXXXXX,,Mumbai,IN,Seller,Generated
8cc20e38-2e84-4e93-a72a-27fb98c822a8,Owner 9528,+91XXXXXXXXXX,,Delhi,IN,Seller,Generated
93a6ff5e-9e50-4cbf-8ecf-793053757f7a,Owner 5205,+91XXXXXXXXXX,,Delhi,IN,Seller,Generated
b1ab3eb6-848c-45cb-ab36-29e57e1cbde1,Owner 3499,+91XXXXXXXXXX,,London,IN,Seller,Generated
1da6e9ce-bd24-49d2-8357-23a5d534c2b0,Owner 2830,+91XXXXXXXXXX,,Mumbai,IN,Seller,Generated
f0b6cc9f-d042-482f-85c0-88547b94121e,Owner 5177,+91XXXXXXXXXX,,London,IN,Seller,Generated
1ed00794-d8a6-4db4-a7f0-cad0df356aca,Owner 7855,+91XXXXXXXXXX,,London,IN,Seller,Generated
465d6bf7-51be-480c-b462-af88f99c236f,Owner 5899,+91XXXXXXXXXX,,Mumbai,IN,Seller,Generated
d11c52cd-587d-43b0-ac6e-b8bdd7b0c4db,Owner 6266,+91XXXXXXXXXX,,New York,IN,Seller,Generated
34729c49-31c6-4765-ba03-a71c0852a582,Owner 9779,+91XXXXXXXXXX,,Delhi,IN,Seller,Generated
75851e37-cc67-4202-95f5-9356906c6a61,Owner 8222,+91XXXXXXXXXX,,London,IN,Seller,Generated
10dca419-cdce-4f8b-9953-c2b1d0022573,Owner 2675,+91XXXXXXXXXX,,Mumbai,IN,Seller,Generated
2383757a-c051-47ea-89a3-2fa21d845bc9,Owner 8972,+91XXXXXXXXXX,,London,IN,Seller,Generated
efa7b4da-6f7b-42dc-889b-5161df262030,Owner 2642,+91XXXXXXXXXX,,New York,IN,Seller,Generated
a8dd8f30-c0dc-4108-b27a-781f5f99e836,Owner 970,+91XXXXXXXXXX,,New York,IN,Seller,Generated
4dc0aaa1-fbee-4343-9d0d-c0c4ab721f39,Owner 70,+91XXXXXXXXXX,,London,IN,Seller,Generated
93d0a2eb-90ef-44e4-b2fa-de827f39264c,Owner 6941,+91XXXXXXXXXX,,London,IN,Seller,Generated
d529d7b6-66a1-4b0d-b541-5deaadf5f98b,Owner 679,+91XXXXXXXXXX,,Delhi,IN,Seller,Generated
b8141cdc-ca0c-41a0-b7f3-a8f9044c852b,Owner 1067,+91XXXXXXXXXX,,New York,IN,Seller,Generated
d8dddf2d-3571-46e1-841e-5bac9aab2ab9,Owner 2615,+91XXXXXXXXXX,,Delhi,IN,Seller,Generated
db9e18aa-dba5-4e0a-b3c1-4150c418caa0,Owner 7000,+91XXXXXXXXXX,,New York,IN,Seller,Generated
b67432dd-63c1-4a26-a0b6-f59765f6a7e9,Owner 1309,+91XXXXXXXXXX,,New York,IN,Seller,Generated
46fd8d5f-8718-4a49-82c7-ade284395b96,Owner 4964,+91XXXXXXXXXX,,Delhi,IN,Seller,Generated
322f8cd0-dd12-4a1b-9126-647ac6ef0348,Owner 2301,+91XXXXXXXXXX,,New York,IN,Seller,Generated
d1addf7f-586d-4263-94ef-2dc85dae40f8,Owner 7920,+91XXXXXXXXXX,,London,IN,Seller,Generated
5264cb9d-3921-4f99-bfcd-b5c0d7904283,Owner 7650,+91XXXXXXXXXX,,London,IN,Seller,Generated
5e4cfa61-3aa5-4737-92ed-8af407cdae99,Owner 3173,+91XXXXXXXXXX,,Delhi,IN,Seller,Generated
63464e61-84ee-4bac-8aa2-97cecb189bf9,Owner 8421,+91XXXXXXXXXX,,New York,IN,Seller,Generated
7beadec6-ba38-4da5-be67-4ed8207e3011,Owner 6898,+91XXXXXXXXXX,,Mumbai,IN,Seller,Generated
48bcacc8-9e3d-4fea-ac3d-cd1c5502879d,Owner 9500,+91XXXXXXXXXX,,Mumbai,IN,Seller,Generated
bfea104e-ab98-4eaf-9dbd-d604e222b973,Owner 4191,+91XXXXXXXXXX,,Delhi,IN,Seller,Generated
9bdab7dc-0055-47ec-b4a4-722b4977a951,Owner 6862,+91XXXXXXXXXX,,New York,IN,Seller,Generated
1139b1a5-5e45-46fa-952a-1b4cf9421856,Owner 2421,+91XXXXXXXXXX,,London,IN,Seller,Generated
b91154cd-f135-429f-9ad9-578eea25cb9b,Owner 8814,+91XXXXXXXXXX,,New York,IN,Seller,Generated
10a109cb-d895-4eaf-bbd6-8b3f98b1fd0c,Owner 4704,+91XXXXXXXXXX,,New York,IN,Seller,Generated
4d8da1fe-6b26-4e4f-b3f6-08bfa620beaf,Owner 7126,+91XXXXXXXXXX,,Delhi,IN,Seller,Generated
99344be7-98dd-4489-bbe5-027a86c5c8d0,Owner 9906,+91XXXXXXXXXX,,London,IN,Seller,Generated
9edea190-eff6-469e-a4f6-efaeff416966,Owner 7898,+91XXXXXXXXXX,,Mumbai,IN,Seller,Generated
a7eab5c4-fe91-4190-845e-6f4e45faa308,Owner 7461,+91XXXXXXXXXX,,London,IN,Seller,Generated
b8f30567-e9cb-4887-89d7-0bfbbbaf4aa6,Owner 7397,+91XXXXXXXXXX,,London,IN,Seller,Generated
adab930f-54e6-4a0c-a737-84944ffff881,Owner 8488,+91XXXXXXXXXX,,New York,IN,Seller,Generated
cabdce40-0355-4668-8ceb-17d2c782c29c,Owner 8871,+91XXXXXXXXXX,,New York,IN,Seller,Generated
7abde7a2-00e7-4da4-8adf-9208735a1033,Owner 7905,+91XXXXXXXXXX,,London,IN,Seller,Generated
8f2b1354-124e-4e58-aee4-77c5b61edecb,Owner 9771,+91XXXXXXXXXX,,London,IN,Seller,Generated
22e252f1-094c-4bb1-bebe-a3bbc58b8816,Owner 7219,+91XXXXXXXXXX,,London,IN,Seller,Generated
e49bf100-6223-41ee-94e8-b67a53877a65,Owner 1232,+91XXXXXXXXXX,,Mumbai,IN,Seller,Generated
5d8907bb-fa47-4c9c-84bb-3b48fea24fbd,Owner 2023,+91XXXXXXXXXX,,New York,IN,Seller,Generated
68e55f26-90b6-4054-b044-3c4bc67ca848,Owner 2584,+91XXXXXXXXXX,,London,IN,Seller,Generated
e080b394-1622-4f49-b720-c92a832e59a2,Owner 5041,+91XXXXXXXXXX,,Mumbai,IN,Seller,Generated
32e9af78-474e-4dd5-b3b8-1c091e6836b8,Owner 4325,+91XXXXXXXXXX,,London,IN,Seller,Generated
f691039e-663a-4635-a2dc-6ce613d53ea1,Owner 9955,+91XXXXXXXXXX,,London,IN,Seller,Generated
a38ad898-4734-4c11-ad53-b38944de3004,Owner 9769,+91XXXXXXXXXX,,London,IN,Seller,Generated
f17955b0-5052-4bb6-a321-a0c570cbdab3,Owner 3443,+91XXXXXXXXXX,,Mumbai,IN,Seller,Generated
dffaa849-0ac2-496e-9ae5-5742d4cde875,Owner 2752,+91XXXXXXXXXX,,London,IN,Seller,Generated
092241a6-7a8f-4b03-bcf4-e718722a2bc7,Owner 4773,+91XXXXXXXXXX,,Mumbai,IN,Seller,Generated
501a5b45-77eb-4c29-a905-6f1dc8181dc3,Owner 8320,+91XXXXXXXXXX,,New York,IN,Seller,Generated
8f20351e-055b-4b1c-8c1f-8779dd945a48,Owner 9667,+91XXXXXXXXXX,,Mumbai,IN,Seller,Generated
5694bd09-46b0-4fb7-8261-29ac6051bf5b,Owner 5077,+91XXXXXXXXXX,,Mumbai,IN,Seller,Generated
395bb46e-aa65-4e20-a9c8-919f0530637c,Owner 5845,+91XXXXXXXXXX,,Delhi,IN,Seller,Generated
b7253b75-baac-4f2d-b1f4-d25b3ec7bcd4,Owner 7609,+91XXXXXXXXXX,,London,IN,Seller,Generated
e1594a37-b729-4b97-b8ea-90eaa6bace3e,Owner 8977,+91XXXXXXXXXX,,London,IN,Seller,Generated
3ebeaa13-7009-4556-bd4b-0689b0a7fa96,Owner 7161,+91XXXXXXXXXX,,Mumbai,IN,Seller,Generated
df684025-6f51-4efc-95dd-937a7cd3eee1,Owner 8846,+91XXXXXXXXXX,,London,IN,Seller,Generated
1d48f3ea-df82-402f-97d1-0a9887d91510,Owner 5940,+91XXXXXXXXXX,,London,IN,Seller,Generated
27973789-8d66-4f87-ae9e-fc44f0f2369e,Owner 9446,+91XXXXXXXXXX,,London,IN,Seller,Generated
5ec9dcc5-255c-4c73-a7eb-6f38f0090ab7,Owner 3554,+91XXXXXXXXXX,,Mumbai,IN,Seller,Generated
44584ec1-2f44-46ba-af40-8f6f2eca0a5b,Owner 8323,+91XXXXXXXXXX,,Mumbai,IN,Seller,Generated
75516b35-2d55-4de7-b848-17b1c89ca1ed,Owner 2320,+91XXXXXXXXXX,,Mumbai,IN,Seller,Generated
c61b035b-e700-4a11-97d2-d7b1b3432e39,Owner 3095,+91XXXXXXXXXX,,New York,IN,Seller,Generated
0649717b-c9e4-4d9b-96f5-bf6c05ad2818,Owner 2856,+91XXXXXXXXXX,,Mumbai,IN,Seller,Generated
aaa106a6-e304-46a3-9229-7a065bbb7a44,Owner 1735,+91XXXXXXXXXX,,London,IN,Seller,Generated
70107c7c-8bc0-48c6-b555-906b43cc0795,Owner 4333,+91XXXXXXXXXX,,London,IN,Seller,Generated
70663089-37d8-4126-b466-0c415e92a31b,Owner 3769,+91XXXXXXXXXX,,Mumbai,IN,Seller,Generated
0564500b-e840-4c82-884e-077cfa763664,Owner 3498,+91XXXXXXXXXX,,Delhi,IN,Seller,Generated
72450f78-9b25-4b34-b52d-684c64e1f6b4,Owner 5448,+91XXXXXXXXXX,,Delhi,IN,Seller,Generated
062551bf-36bc-4389-80f8-540c4e7ded7d,Owner 6462,+91XXXXXXXXXX,,Mumbai,IN,Seller,Generated
ff08cae1-620f-47a5-ae1f-db66c50da12a,Owner 6739,+91XXXXXXXXXX,,New York,IN,Seller,Generated
cdcf8482-cb5e-47e8-a3eb-345cf97267ee,Owner 370,+91XXXXXXXXXX,,Mumbai,IN,Seller,Generated
feb243a3-ea93-45c2-b735-b1258b646c9a,Owner 3865,+91XXXXXXXXXX,,Delhi,IN,Seller,Generated
3d872859-ad33-45c9-b9c5-889008f0e8dc,Owner 8110,+91XXXXXXXXXX,,New York,IN,Seller,Generated
cfff95e5-517a-4649-8f44-9ae1b31020c8,Owner 9248,+91XXXXXXXXXX,,London,IN,Seller,Generated
4f92cc01-4942-4f74-95ff-93aebd79b112,Owner 7277,+91XXXXXXXXXX,,London,IN,Seller,Generated
c6b33f04-88b1-45fd-b1e2-2ea2af909282,Owner 5934,+91XXXXXXXXXX,,Mumbai,IN,Seller,Generated
c8e3f9f1-fda5-4c83-b0cb-5d06512f67ee,Owner 5521,+91XXXXXXXXXX,,Delhi,IN,Seller,Generated
309586a9-0f36-4578-995f-cb0e014c9e6c,Owner 7203,+91XXXXXXXXXX,,Mumbai,IN,Seller,Generated
f71944e5-7324-47a9-bd13-ac3b4d8761bd,Owner 8432,+91XXXXXXXXXX,,London,IN,Seller,Generated
76487db7-3895-43eb-ad31-72f9320c5ed3,Owner 6816,+91XXXXXXXXXX,,Mumbai,IN,Seller,Generated
f3a6dbce-2a53-4921-9ad0-0d7168c6bda1,Owner 3564,+91XXXXXXXXXX,,London,IN,Seller,Generated
7eebff34-aaac-4ab8-873c-11b1dbc5f321,Owner 9184,+91XXXXXXXXXX,,New York,IN,Seller,Generated
4cba3835-9fdb-41e0-b1ad-7947f56d264e,Owner 7384,+91XXXXXXXXXX,,Delhi,IN,Seller,Generated
9a51b6db-9bac-485b-b6a0-62b31320a20c,Owner 4811,+91XXXXXXXXXX,,Mumbai,IN,Seller,Generated
ba741842-b256-4283-b010-1b94c0bed46f,Owner 2239,+91XXXXXXXXXX,,Mumbai,IN,Seller,Generated
98e51341-7f14-4383-a066-9f7443d1cd24,Owner 2265,+91XXXXXXXXXX,,New York,IN,Seller,Generated
c3d6a457-180f-44d4-a610-98d4dad5c12f,Owner 6219,+91XXXXXXXXXX,,Delhi,IN,Seller,Generated
60d4dd57-7349-418f-9930-6bcdc32f44a0,Owner 8280,+91XXXXXXXXXX,,Delhi,IN,Seller,Generated
d013119f-a0ba-4233-8347-b4f714552104,Owner 8591,+91XXXXXXXXXX,,Mumbai,IN,Seller,Generated
2bd1581c-5955-42b6-ac06-d05562d0380f,Owner 2524,+91XXXXXXXXXX,,London,IN,Seller,Generated
0180d177-1b27-4a3d-877e-7f75bb06b3df,Owner 7597,+91XXXXXXXXXX,,Mumbai,IN,Seller,Generated
65f14328-6636-4f25-b11f-037a18c0ff51,Owner 6355,+91XXXXXXXXXX,,Delhi,IN,Seller,Generated
df015c6c-5e0f-4b50-b85d-700b6c80f853,Owner 6683,+91XXXXXXXXXX,,New York,IN,Seller,Generated
a80b7851-4b7b-41ee-b12c-ef5388087409,Owner 9151,+91XXXXXXXXXX,,New York,IN,Seller,Generated
6bda7188-55ec-4d9c-94f3-f1b223861127,Owner 4599,+91XXXXXXXXXX,,London,IN,Seller,Generated
eb927c36-c24d-4476-984d-ee0693e883ba,Owner 4502,+91XXXXXXXXXX,,London,IN,Seller,Generated
a69aaf17-3587-4531-8a76-16ad05d54c60,Owner 4549,+91XXXXXXXXXX,,London,IN,Seller,Generated
108110ca-fbaa-4bad-a5d2-d33f7a611fda,Owner 314,+91XXXXXXXXXX,,Delhi,IN,Seller,Generated
0ff1e618-cb63-4179-ac74-7c1ef7d2576f,Owner 1517,+91XXXXXXXXXX,,Mumbai,IN,Seller,Generated
3f89ce6b-e027-4e16-a5ca-40cc258df9b1,Owner 5340,+91XXXXXXXXXX,,Delhi,IN,Seller,Generated
a3d3c8d5-2caf-48f3-b283-cdbeb3df258d,Owner 9615,+91XXXXXXXXXX,,New York,IN,Seller,Generated
06ff8c9a-c0c3-470d-98c8-99a9c2b3ff01,Owner 1357,+91XXXXXXXXXX,,Delhi,IN,Seller,Generated
fced2f22-bcd5-4b62-b399-3d613ccc1b16,Owner 5689,+91XXXXXXXXXX,,Delhi,IN,Seller,Generated
6ff6e0e9-1fb7-47cc-9186-5940f60a3d89,Owner 2490,+91XXXXXXXXXX,,London,IN,Seller,Generated
ed8e1a5e-80db-4423-8e25-a97d263030e6,Owner 2953,+91XXXXXXXXXX,,London,IN,Seller,Generated
a9e01c6f-7b8b-450a-bd5d-b936e0549608,Owner 9732,+91XXXXXXXXXX,,London,IN,Seller,Generated
1f4d08f4-4f7b-47eb-b293-4aabe1b49042,Owner 6831,+91XXXXXXXXXX,,Delhi,IN,Seller,Generated
bfeeaa0c-a850-452f-89a4-6e6a4da420fd,Owner 3009,+91XXXXXXXXXX,,London,IN,Seller,Generated
eb4d30a3-a8b3-4c70-843b-fb3f676695b0,Owner 919,+91XXXXXXXXXX,,Delhi,IN,Seller,Generated
4459c165-19f5-40ec-ac32-c5b317b515b9,Owner 6737,+91XXXXXXXXXX,,Mumbai,IN,Seller,Generated
082d3657-f740-4904-96ff-8a112c99a95d,Owner 6617,+91XXXXXXXXXX,,Mumbai,IN,Seller,Generated
526f7c19-77b8-4445-992a-8d7901800944,Owner 2229,+91XXXXXXXXXX,,Delhi,IN,Seller,Generated
69b37b76-5e3c-4ea8-86be-83033fcacaf5,Owner 7868,+91XXXXXXXXXX,,Mumbai,IN,Seller,Generated
bf3dfa68-8cee-4755-8a3f-1954d6be7a9e,Owner 8698,+91XXXXXXXXXX,,Delhi,IN,Seller,Generated
9d7b4805-7d7f-4ffe-9d06-fe269e3b1cd6,Owner 5045,+91XXXXXXXXXX,,Delhi,IN,Seller,Generated
a2c00014-d87d-49f5-9f90-a3ba30d0541f,Owner 3195,+91XXXXXXXXXX,,London,IN,Seller,Generated
637f3cf7-b0cd-4bb0-bfef-e65fe854dd97,Owner 3951,+91XXXXXXXXXX,,Delhi,IN,Seller,Generated
34afb0e4-7a89-4f21-8fe6-210734124d21,Owner 5498,+91XXXXXXXXXX,,New York,IN,Seller,Generated
b6321c1b-3be7-4026-a170-f5ca8ab24538,Owner 8560,+91XXXXXXXXXX,,New York,IN,Seller,Generated
17dc2c2c-9fdf-43a5-98ca-d569212f5237,Owner 8083,+91XXXXXXXXXX,,Mumbai,IN,Seller,Generated
2a6e40f3-ca9c-45ec-a66c-b99ba946b874,Owner 2922,+91XXXXXXXXXX,,Mumbai,IN,Seller,Generated
fc22d1e4-393f-4ab4-a7b3-60deaf1dd4a0,Owner 5174,+91XXXXXXXXXX,,London,IN,Seller,Generated
ca153a46-ac4d-4056-a1b7-b03ade3285e7,Owner 8066,+91XXXXXXXXXX,,New York,IN,Seller,Generated
8cf7914a-5b8d-4ada-ab00-cdfab22ee683,Owner 8458,+91XXXXXXXXXX,,Mumbai,IN,Seller,Generated
a1181454-5aab-45dd-bc95-b027bc7303cd,Owner 1112,+91XXXXXXXXXX,,New York,IN,Seller,Generated
fa657da4-3c1b-47cd-b830-bffa4f32945b,Owner 8011,+91XXXXXXXXXX,,London,IN,Seller,Generated
5c6835aa-8010-4bf7-b5b0-8cbccf907d36,Owner 3774,+91XXXXXXXXXX,,Delhi,IN,Seller,Generated
c553372d-942c-4320-bfdf-c9715128b9d4,Owner 3541,+91XXXXXXXXXX,,New York,IN,Seller,Generated
a319b52d-9ce9-481a-8349-65ee749b38a9,Owner 5522,+91XXXXXXXXXX,,London,IN,Seller,Generated
389595e5-719a-439e-9cdd-15934cf5ec11,Owner 1466,+91XXXXXXXXXX,,Delhi,IN,Seller,Generated
2f55cd77-cc57-4d3f-a261-6f77eea498b0,Owner 9456,+91XXXXXXXXXX,,Mumbai,IN,Seller,Generated
e62aafb4-5885-4077-8d5c-123d02f2efd5,Owner 9685,+91XXXXXXXXXX,,Delhi,IN,Seller,Generated
c8b7ae8f-f52b-41f2-8030-20d09665c366,Owner 3345,+91XXXXXXXXXX,,London,IN,Seller,Generated
9943c817-aeec-4506-908d-8d537e9c9360,Owner 4260,+91XXXXXXXXXX,,Mumbai,IN,Seller,Generated
d5dac690-e4cd-4108-87c6-d574cf55849f,Owner 5068,+91XXXXXXXXXX,,Delhi,IN,Seller,Generated
97477f9d-ccaf-4f02-9832-a291916a121b,Owner 1124,+91XXXXXXXXXX,,London,IN,Seller,Generated
7d97364f-4715-48e1-85be-c40b4ae05af7,Owner 8541,+91XXXXXXXXXX,,New York,IN,Seller,Generated
ea67263a-2bcc-4eec-b2c9-3ada3dd2abc4,Owner 4942,+91XXXXXXXXXX,,Delhi,IN,Seller,Generated
f5f2b5a4-f51b-432a-b86e-98f8a6416b21,Owner 825,+91XXXXXXXXXX,,London,IN,Seller,Generated
08eaf1d8-2ad3-4f2e-b470-2b42e5f317f0,Owner 8894,+91XXXXXXXXXX,,Mumbai,IN,Seller,Generated
f1c2411f-4aba-4f05-b664-e72bbf65d68d,Owner 1971,+91XXXXXXXXXX,,London,IN,Seller,Generated
75dfc0df-ebc7-428b-b30d-6abd46e432ad,Owner 3461,+91XXXXXXXXXX,,New York,IN,Seller,Generated
eb55be2f-cee4-40b0-84cd-f83c6716c483,Owner 250,+91XXXXXXXXXX,,London,IN,Seller,Generated
3f2aaa69-709e-44e3-bbca-bc959e350192,Owner 9324,+91XXXXXXXXXX,,London,IN,Seller,Generated
e358ad79-bedb-4c22-b4f3-8cfe37e10360,Owner 7245,+91XXXXXXXXXX,,New York,IN,Seller,Generated
3c683bef-6c9c-4eaf-981e-cfc616080eb9,Owner 4777,+91XXXXXXXXXX,,New York,IN,Seller,Generated
d465512e-d993-416d-b3fd-57ba98450a00,Owner 7190,+91XXXXXXXXXX,,New York,IN,Seller,Generated
e3e09112-14eb-4a15-b4d8-118202be08f3,Owner 9726,+91XXXXXXXXXX,,London,IN,Seller,Generated
