lead_id,name,phone,email,city,country,type,notes
ad847294-a456-4643-b7f4-713c889c2c47,Owner 3426,+91XXXXXXXXXX,,New York,IN,Seller,Generated
042a1d3f-42d3-4644-8dd8-b12e4d5ce7b8,Owner 9789,+91XXXXXXXXXX,,Mumbai,IN,Seller,Generated
1cdfb3d2-270c-4c3e-ac20-d594210f9d26,Owner 2481,+91XXXXXXXXXX,,New York,IN,Seller,Generated
a51a0316-271d-4c13-a16a-51202ff868c4,Owner 5799,+91XXXXXXXXXX,,New York,IN,Seller,Generated
5b0c971b-e504-4b71-9ac6-f2a5b02e7325,Owner 5531,+91XXXXXXXXXX,,London,IN,Seller,Generated
2bace7e2-d694-4ff2-b90f-ca92da5981df,Owner 1963,+91XXXXXXXXXX,,London,IN,Seller,Generated
2fa1d0f0-de91-4aa1-ba3b-00bec1d93b57,Owner 1157,+91XXXXXXXXXX,,New York,IN,Seller,Generated
9c722604-6d2e-4dcb-8a6a-d51c009d6f94,Owner 3776,+91XXXXXXXXXX,,Mumbai,IN,Seller,Generated
63fed812-9724-4e36-9c7e-68014e13f743,Owner 724,+91XXXXXXXXXX,,London,IN,Seller,Generated
83a50123-c9c0-414b-abea-0aa7b187291a,Owner 4348,+91XXXXXXXXXX,,Delhi,IN,Seller,Generated
286d5fc9-9dd3-4a36-9a82-bbf331425187,Owner 2111,+91XXXXXXXXXX,,Mumbai,IN,Seller,Generated
9b3d1e30-a8bd-4aa6-b204-9d37db1107f3,Owner 5967,+91XXXXXXXXXX,,Mumbai,IN,Seller,Generated
768273bb-4113-49d9-be71-273985a58caf,Owner 3337,+91XXXXXXXXXX,,Mumbai,IN,Seller,Generated
2ae8164d-fc86-4d35-896b-2d7040a0b382,Owner 7937,+91XXXXXXXXXX,,New York,IN,Seller,Generated
86c5db7a-6520-4339-a289-2b868ab086fc,Owner 6499,+91XXXXXXXXXX,,New York,IN,Seller,Generated
e6ae431f-9a8c-4db6-8fec-bd3ff71762b2,Owner 1936,+91XXXXXXXXXX,,Mumbai,IN,Seller,Generated
484eac63-249b-4e91-98d7-2e49c6b92e45,Owner 9129,+91XXXXXXXXXX,,Mumbai,IN,Seller,Generated
7c8e3408-819a-482d-8fb7-0112cd9a8860,Owner 6169,+91XXXXXXXXXX,,London,IN,Seller,Generated
0b006631-aa19-4294-8acf-c6e8d7e098e3,Owner 9400,+91XXXXXXXXXX,,Delhi,IN,Seller,Generated
594ad3a7-fc46-413a-9f90-2eb6e775bba3,Owner 1226,+91XXXXXXXXXX,,Mumbai,IN,Seller,Generated
32a485bc-5d21-4d91-8f40-1f40f97ce62c,Owner 7184,+91XXXXXXXXXX,,New York,IN,Seller,Generated
150d6e77-4050-4706-b34a-c9db537ea6f9,Owner 9422,+91XXXXXXXXXX,,Mumbai,IN,Seller,Generated
f18d04c2-ff7c-4604-a9a4-82b172229cfe,Owner 4462,+91XXXXXXXXXX,,New York,IN,Seller,Generated
0563db0a-f408-465c-9c62-f8fbc1d6436d,Owner 2626,+91XXXXXXXXXX,,New York,IN,Seller,Generated
9332804d-4df9-424c-964d-160916b226c4,Owner 1430,+91XXXXXXXXXX,,New York,IN,Seller,Generated
19eee8ea-c218-4fa6-a9cf-f762597d7cd7,Owner 7216,+91XXXXXXXXXX,,London,IN,Seller,Generated
e7cfb218-14ff-4ef4-bdd9-e653297d23c1,Owner 1202,+91XXXXXXXXXX,,Delhi,IN,Seller,Generated
55183847-8653-4177-b7b3-430bfaa33ebd,Owner 3575,+91XXXXXXXXXX,,Delhi,IN,Seller,Generated
a4ea6de3-e5b2-4c66-bedb-9e9020796106,Owner 4410,+91XXXXXXXXXX,,Mumbai,IN,Seller,Generated
880be62e-ffd9-464e-8111-f03047160ed8,Owner 6342,+91XXXXXXXXXX,,Delhi,IN,Seller,Generated
bec8b4ec-3012-4172-b7d6-9a8637f34223,Owner 8032,+91XXXXXXXXXX,,New York,IN,Seller,Generated
6536e99e-d368-4e9b-b734-c94d8973d6d7,Owner 2949,+91XXXXXXXXXX,,London,IN,Seller,Generated
043e1894-0518-4533-89ce-dd3bfe7470f4,Owner 1969,+91XXXXXXXXXX,,Mumbai,IN,Seller,Generated
4c447a2f-1fd2-46cc-9515-6b6487332f78,Owner 271,+91XXXXXXXXXX,,New York,IN,Seller,Generated
11e0fdb1-c5ff-4952-9ba1-30b6076fdf9a,Owner 896,+91XXXXXXXXXX,,Mumbai,IN,Seller,Generated
3ef212f4-10c7-409f-8641-c4286601fb94,Owner 5587,+91XXXXXXXXXX,,New York,IN,Seller,Generated
4c124f8a-eec7-41f5-8382-30a61ed20df4,Owner 9671,+91XXXXXXXXXX,,London,IN,Seller,Generated
a62015d3-b2e7-4451-aba9-d0bf2a74808e,Owner 9419,+91XXXXXXXXXX,,Delhi,IN,Seller,Generated
0408a251-a3fc-49ce-ba77-73586dee1431,Owner 4536,+91XXXXXXXXXX,,Delhi,IN,Seller,Generated
53ce1123-3cbd-4be8-b01a-cedf9de4cd08,Owner 9571,+91XXXXXXXXXX,,New York,IN,Seller,Generated
a6074b43-4a96-4f6e-b15d-11dedc494b1e,Owner 523,+91XXXXXXXXXX,,Delhi,IN,Seller,Generated
789ff6b2-d55b-40a2-807b-1dafe2207a33,Owner 5474,+91XXXXXXXXXX,,London,IN,Seller,Generated
3537f997-7b09-4ece-8e37-10a04caf4715,Owner 6745,+91XXXXXXXXXX,,London,IN,Seller,Generated
6da58ca1-4dc0-479f-a53c-cfeb5d7d6a94,Owner 4464,+91XXXXXXXXXX,,Mumbai,IN,Seller,Generated
43005da4-ff84-44b5-b2d1-74fa1072fe33,Owner 8024,+91XXXXXXXXXX,,Mumbai,IN,Seller,Generated
81785d06-34ee-4f9e-97dd-42f9211fb37e,Owner 4921,+91XXXXXXXXXX,,New York,IN,Seller,Generated
664c7fa8-8b40-4592-b36d-71ffaa687513,Owner 9821,+91XXXXXXXXXX,,Delhi,IN,Seller,Generated
c7597a29-a6fd-4c4b-bd61-5ac0979c9893,Owner 4918,+91XXXXXXXXXX,,London,IN,Seller,Generated
ed708f77-a33c-4113-b40e-26d2ec6d18fc,Owner 8288,+91XXXXXXXXXX,,Delhi,IN,Seller,Generated
eac9f082-ef18-45fc-8336-ddba33ec3ff1,Owner 7263,+91XXXXXXXXXX,,Mumbai,IN,Seller,Generated
ee3572b4-fbc1-4d62-91a3-0192f946d8b0,Owner 4496,+91XXXXXXXXXX,,Delhi,IN,Seller,Generated
976d5c65-21c5-41fe-8a90-c037d0a0f52d,Owner 1232,+91XXXXXXXXXX,,New York,IN,Seller,Generated
f0b77b04-21d8-49f1-9e21-56a62b4a6ca8,Owner 3976,+91XXXXXXXXXX,,Mumbai,IN,Seller,Generated
be7b166a-d019-41ff-85fa-87e7c1b7dc9a,Owner 7704,+91XXXXXXXXXX,,Mumbai,IN,Seller,Generated
9cd7e906-a92d-4e0b-9bf8-b6ca7dc1abb4,Owner 8506,+91XXXXXXXXXX,,Delhi,IN,Seller,Generated
4818bab3-9ff2-4f8d-9c61-b28cb6973c8a,Owner 6330,+91XXXXXXXXXX,,London,IN,Seller,Generated
5ad93be5-e947-4f16-bf09-e7002ed7a909,Owner 3207,+91XXXXXXXXXX,,Mumbai,IN,Seller,Generated
e6e475f7-fe79-423c-a967-e39962aa7d50,Owner 3598,+91XXXXXXXXXX,,London,IN,Seller,Generated
bf804285-f8b1-47c7-841c-d2230b90e632,Owner 9226,+91XXXXXXXXXX,,Delhi,IN,Seller,Generated
ff17fa1c-0c47-4518-a7f5-77675c946fb6,Owner 9083,+91XXXXXXXXXX,,New York,IN,Seller,Generated
4027d3bc-3428-43bb-bacb-b1859670790c,Owner 7514,+91XXXXXXXXXX,,Mumbai,IN,Seller,Generated
8de8194b-bccd-44a8-9ff8-77c50163cabd,Owner 3182,+91XXXXXXXXXX,,Mumbai,IN,Seller,Generated
5866cecd-2e49-49a2-80f0-445aaa448407,Owner 9913,+91XXXXXXXXXX,,Mumbai,IN,Seller,Generated
a1b46c69-7484-4dbe-a172-cfd8bed1ba59,Owner 1944,+91XXXXXXXXXX,,New York,IN,Seller,Generated
bd11cf56-8a50-4544-8d14-4c03bed34e72,Owner 6512,+91XXXXXXXXXX,,New York,IN,Seller,Generated
b6a9c4e4-cb18-453a-9aea-8eef62749e5e,Owner 6446,+91XXXXXXXXXX,,Delhi,IN,Seller,Generated
51a84b87-2aef-4f3e-b84d-afdc9b4ce6ec,Owner 7857,+91XXXXXXXXXX,,Mumbai,IN,Seller,Generated
fabdbdd3-9ac4-4a63-9fd3-6fe17239dce4,Owner 5757,+91XXXXXXXXXX,,New York,IN,Seller,Generated
1d528c41-f956-4ab4-a77d-fb455d6bc988,Owner 7681,+91XXXXXXXXXX,,London,IN,Seller,Generated
797590fc-dd0f-4034-bae9-44864f45c399,Owner 1329,+91XXXXXXXXXX,,Mumbai,IN,Seller,Generated
439ff11c-fd1b-4cc9-9fb1-bb77d9696850,Owner 7030,+91XXXXXXXXXX,,London,IN,Seller,Generated
942def64-ca7e-430e-9b51-f4af28544659,Owner 5851,+91XXXXXXXXXX,,London,IN,Seller,Generated
8c42a1d2-cb35-46cb-bb0f-3963d9ce87e0,Owner 4323,+91XXXXXXXXXX,,London,IN,Seller,Generated
eed98176-7b75-424b-a470-3507237d560b,Owner 3874,+91XXXXXXXXXX,,Mumbai,IN,Seller,Generated
1ff423f8-bd3f-4832-a233-6060915cdfa5,Owner 1094,+91XXXXXXXXXX,,New York,IN,Seller,Generated
86978f3d-a857-47ba-a975-a7c25da3dfb8,Owner 5937,+91XXXXXXXXXX,,London,IN,Seller,Generated
09dbc54b-24be-43db-b842-070949acd435,Owner 9570,+91XXXXXXXXXX,,Delhi,IN,Seller,Generated
a259a5b4-ccd6-42a3-b48a-c4cfb7460110,Owner 2613,+91XXXXXXXXXX,,London,IN,Seller,Generated
3b2af554-a63c-4929-8ec6-4fa8ae5aea07,Owner 5291,+91XXXXXXXXXX,,Delhi,IN,Seller,Generated
d53cc7f8-bba2-408a-945b-2675ae6c5f2b,Owner 5869,+91XXXXXXXXXX,,New York,IN,Seller,Generated
6d0ca95c-82ad-40b0-9f0d-25d18dd82db1,Owner 3498,+91XXXXXXXXXX,,New York,IN,Seller,Generated
b9ed89d0-3556-42f3-be1a-505842334b80,Owner 5711,+91XXXXXXXXXX,,Mumbai,IN,Seller,Generated
4f7afbe2-200f-42c6-b1f7-ccc755a28f34,Owner 604,+91XXXXXXXXXX,,Mumbai,IN,Seller,Generated
1301b6c4-de71-4e5d-a4b5-aed97039c6c7,Owner 4962,+91XXXXXXXXXX,,New York,IN,Seller,Generated
9f2fad64-cd06-4998-9cc2-06a3c29a4782,Owner 2601,+91XXXXXXXXXX,,London,IN,Seller,Generated
0071fb43-4bf0-4aeb-96fa-6f4fd40cc119,Owner 8712,+91XXXXXXXXXX,,Mumbai,IN,Seller,Generated
e7046a48-4adb-4a51-b2fc-c64be70adb6d,Owner 646,+91XXXXXXXXXX,,London,IN,Seller,Generated
429191db-1074-445e-b958-4f5c012f8d0b,Owner 6120,+91XXXXXXXXXX,,London,IN,Seller,Generated
cecdaeb6-8cfc-44a4-9e08-4ce77ff65d5d,Owner 7731,+91XXXXXXXXXX,,Mumbai,IN,Seller,Generated
0a747262-c538-480c-ad57-1c58219adda6,Owner 6836,+91XXXXXXXXXX,,London,IN,Seller,Generated
671a6d46-624b-4a05-bf75-f7fb00af2bfe,Owner 1975,+91XXXXXXXXXX,,London,IN,Seller,Generated
1f17f0c0-8ebd-47d8-b6a4-933b6cac58e4,Owner 5588,+91XXXXXXXXXX,,Delhi,IN,Seller,Generated
7fdc14c6-045a-4104-9983-38d68a2fbf88,Owner 8828,+91XXXXXXXXXX,,Mumbai,IN,Seller,Generated
71ef99bc-6106-44bc-876f-de989ebb9f64,Owner 1919,+91XXXXXXXXXX,,London,IN,Seller,Generated
f3373a1e-ce02-4e05-9ba8-79e625ad6a5b,Owner 5761,+91XXXXXXXXXX,,New York,IN,Seller,Generated
b4801190-ae7b-4620-a150-5f1412e51504,Owner 9227,+91XXXXXXXXXX,,Mumbai,IN,Seller,Generated
66b2c7df-4c0b-4b03-bb94-754d1bab342b,Owner 3612,+91XXXXXXXXXX,,New York,IN,Seller,Generated
012605e7-347c-48da-90db-b6121296533a,Owner 8024,+91XXXXXXXXXX,,New York,IN,Seller,Generated
ac34ac15-2070-49c9-85eb-508a9c06eee6,Owner 511,+91XXXXXXXXXX,,Delhi,IN,Seller,Generated
f27c10db-e655-403a-88af-8b3ff7cb72a1,Owner 5641,+91XXXXXXXXXX,,London,IN,Seller,Generated
61b4ac5d-4a51-4e13-be22-e18fc378a433,Owner 3914,+91XXXXXXXXXX,,Mumbai,IN,Seller,Generated
4934ab5b-9801-4636-9039-9685882a0bb6,Owner 2651,+91XXXXXXXXXX,,Mumbai,IN,Seller,Generated
56fb9052-7c69-45e1-bae2-3b0dcc7d68ed,Owner 7391,+91XXXXXXXXXX,,London,IN,Seller,Generated
bdfdc829-5717-4d27-ad3f-342b1254230f,Owner 6714,+91XXXXXXXXXX,,London,IN,Seller,Generated
773768e1-02cf-472c-9b97-096b03995ecb,Owner 8100,+91XXXXXXXXXX,,London,IN,Seller,Generated
30193497-e026-4361-9a3d-9c3ec84e49d2,Owner 3291,+91XXXXXXXXXX,,New York,IN,Seller,Generated
737ad865-359a-4943-9df4-1c683b3cf1f8,Owner 205,+91XXXXXXXXXX,,New York,IN,Seller,Generated
2c2f3ca4-5631-4205-9309-2712c58a64c3,Owner 6858,+91XXXXXXXXXX,,London,IN,Seller,Generated
bebc17d7-edf5-4057-8035-26f52e3ec9e2,Owner 3785,+91XXXXXXXXXX,,Delhi,IN,Seller,Generated
fd667ff4-01ba-4979-b9f7-a5d996cdcc31,Owner 9297,+91XXXXXXXXXX,,Delhi,IN,Seller,Generated
3a038587-b58a-4ec7-a79d-9fa4051df8d0,Owner 7242,+91XXXXXXXXXX,,London,IN,Seller,Generated
a8e493ab-186f-4eca-890d-cdb249fe68dc,Owner 6566,+91XXXXXXXXXX,,Mumbai,IN,Seller,Generated
f27dd6bd-9f2c-435c-b9c4-1db9ede0dcd0,Owner 6396,+91XXXXXXXXXX,,Mumbai,IN,Seller,Generated
a228e9dc-180e-4ace-af44-ecd8b7c57b0b,Owner 5489,+91XXXXXXXXXX,,London,IN,Seller,Generated
7ff4c494-ea94-4f44-a5cc-4c7d619f24f9,Owner 9647,+91XXXXXXXXXX,,London,IN,Seller,Generated
347e6512-aeec-44df-91ce-eacd7f0993ef,Owner 9862,+91XXXXXXXXXX,,Delhi,IN,Seller,Generated
91d498d2-8a02-4ccb-8224-a91cea61874e,Owner 8112,+91XXXXXXXXXX,,London,IN,Seller,Generated
01dcf5b5-cb7c-4916-ae94-66654b29386c,Owner 2251,+91XXXXXXXXXX,,New York,IN,Seller,Generated
59314dc2-1a1c-4c4b-9e18-8afb2da3299d,Owner 5687,+91XXXXXXXXXX,,Delhi,IN,Seller,Generated
37550162-2063-448b-b9bf-ba552e838aaa,Owner 5123,+91XXXXXXXXXX,,New York,IN,Seller,Generated
c6ebf488-f0f7-4057-bdbf-c5006e367b04,Owner 7823,+91XXXXXXXXXX,,Mumbai,IN,Seller,Generated
b1816c36-02da-48bd-bebc-11cd36ea4a18,Owner 5571,+91XXXXXXXXXX,,Mumbai,IN,Seller,Generated
da7b7789-0b31-419a-b0ca-28a5e5d6c08a,Owner 7992,+91XXXXXXXXXX,,New York,IN,Seller,Generated
1a569e60-40e8-4e5b-9e21-e8a0aa6eea0b,Owner 9393,+91XXXXXXXXXX,,New York,IN,Seller,Generated
d16164fe-adb0-403e-af4a-bcac26ff7d62,Owner 5956,+91XXXXXXXXXX,,New York,IN,Seller,Generated
26f2cfcc-7d50-4b62-b1d1-ce220a73ec67,Owner 3111,+91XXXXXXXXXX,,Delhi,IN,Seller,Generated
69d97766-0441-4c60-a6a1-286881a347fa,Owner 1135,+91XXXXXXXXXX,,Mumbai,IN,Seller,Generated
e5e9d34d-b698-44c5-8fc8-f2215cfa2714,Owner 1019,+91XXXXXXXXXX,,London,IN,Seller,Generated
4b6ba3e3-87fe-485e-8c4a-62c0d1f6921d,Owner 3238,+91XXXXXXXXXX,,London,IN,Seller,Generated
5f1c4857-c4df-4be6-a031-e703cac509dc,Owner 1490,+91XXXXXXXXXX,,Delhi,IN,Seller,Generated
8a54078c-d449-47b6-8b2e-06f6fb71ccdd,Owner 4077,+91XXXXXXXXXX,,Delhi,IN,Seller,Generated
81331cee-e4eb-4901-bf8e-341955c8d61c,Owner 9844,+91XXXXXXXXXX,,London,IN,Seller,Generated
4edb368b-1ff9-481c-97c7-a57f0aa14a40,Owner 4671,+91XXXXXXXXXX,,Delhi,IN,Seller,Generated
ba65c1ed-78e3-4990-887b-822ba47bff59,Owner 7546,+91XXXXXXXXXX,,New York,IN,Seller,Generated
9ec822d8-bcc2-49a7-a8ac-194ed18df0d5,Owner 4638,+91XXXXXXXXXX,,Delhi,IN,Seller,Generated
82a58998-859e-490f-9cad-76a124c8501b,Owner 7533,+91XXXXXXXXXX,,Mumbai,IN,Seller,Generated
2757ca4d-8f53-4ed6-98e8-3683c3467337,Owner 4318,+91XXXXXXXXXX,,Mumbai,IN,Seller,Generated
13b6846e-5753-414e-8fe3-9db28eba9106,Owner 2958,+91XXXXXXXXXX,,Mumbai,IN,Seller,Generated
b6742120-26d6-4e38-817c-5cdff9b8c715,Owner 5038,+91XXXXXXXXXX,,London,IN,Seller,Generated
fb824468-dbdc-4059-b464-aaff98ba60ae,Owner 3425,+91XXXXXXXXXX,,New York,IN,Seller,Generated
4b8fac67-2ae5-49e5-a5fb-02c7dfa0e643,Owner 561,+91XXXXXXXXXX,,Mumbai,IN,Seller,Generated
c469ba6b-5af0-4126-a441-a7977c220cb4,Owner 6253,+91XXXXXXXXXX,,New York,IN,Seller,Generated
957c51d4-1abe-4cb5-af52-44dcceee2aa9,Owner 2081,+91XXXXXXXXXX,,New York,IN,Seller,Generated
96d2fe9a-b517-487d-b451-45d609bdaceb,Owner 5237,+91XXXXXXXXXX,,Mumbai,IN,Seller,Generated
5a23ac69-b440-4174-b335-20df23d3e537,Owner 5764,+91XXXXXXXXXX,,Delhi,IN,Seller,Generated
bbb7d32d-0810-461b-aba3-44325f9bae4b,Owner 5913,+91XXXXXXXXXX,,Mumbai,IN,Seller,Generated
0431553c-9dca-4145-a8ea-694cacf9b62c,Owner 7138,+91XXXXXXXXXX,,Delhi,IN,Seller,Generated
a87e5d2c-c592-4679-84f4-f4f975b3ec4b,Owner 318,+91XXXXXXXXXX,,New York,IN,Seller,Generated
ab829c90-9b7c-4dbc-91aa-a736b2d233d5,Owner 2955,+91XXXXXXXXXX,,New York,IN,Seller,Generated
4ee34545-abb1-4df1-a977-e3dd9347fdad,Owner 4973,+91XXXXXXXXXX,,Delhi,IN,Seller,Generated
73e4164e-c638-4f62-b59a-cc998ee47631,Owner 3982,+91XXXXXXXXXX,,New York,IN,Seller,Generated
de940bd9-edac-484c-94ac-3cbb5232dcfe,Owner 9959,+91XXXXXXXXXX,,Mumbai,IN,Seller,Generated
269bc7d5-e6fc-47c5-9f55-a319c6d5fc9f,Owner 3597,+91XXXXXXXXXX,,Mumbai,IN,Seller,Generated
e43d3f64-c257-4fcc-b8c3-5b696066bfa9,Owner 8887,+91XXXXXXXXXX,,Delhi,IN,Seller,Generated
9bbd71fc-47d5-4c37-bfc4-e722561818aa,Owner 7175,+91XXXXXXXXXX,,Delhi,IN,Seller,Generated
4259e563-28dc-4165-ba8e-0bb2de39dedb,Owner 3117,+91XXXXXXXXXX,,Delhi,IN,Seller,Generated
33943693-4b3d-496f-bdb4-0e55a86149da,Owner 3021,+91XXXXXXXXXX,,London,IN,Seller,Generated
f01ad8fc-b92e-427e-8588-90251819e721,Owner 3263,+91XXXXXXXXXX,,Mumbai,IN,Seller,Generated
56e96dc6-c0b3-4a00-a761-cc8fe7f38ab1,Owner 5737,+91XXXXXXXXXX,,Mumbai,IN,Seller,Generated
b68a8b12-a35b-4fdc-b36c-46c9343fe289,Owner 9507,+91XXXXXXXXXX,,Mumbai,IN,Seller,Generated
141d902c-abe3-4ae0-b597-52620817077e,Owner 4097,+91XXXXXXXXXX,,Mumbai,IN,Seller,Generated
3d780204-60d0-4af4-9266-1e92655b2a38,Owner 4490,+91XXXXXXXXXX,,Delhi,IN,Seller,Generated
8f880dbc-3852-495e-be39-50b665e040b5,Owner 3682,+91XXXXXXXXXX,,Mumbai,IN,Seller,Generated
6ca5dcc9-2278-4905-a100-5e9de1985047,Owner 499,+91XXXXXXXXXX,,London,IN,Seller,Generated
8e13184e-7e6f-4551-8e1b-c5fa5a9fb855,Owner 2931,+91XXXXXXXXXX,,London,IN,Seller,Generated
a7e1de01-d0df-4452-98dd-30c8bc340c33,Owner 5080,+91XXXXXXXXXX,,Delhi,IN,Seller,Generated
e67f71e6-6065-4e7c-a760-5de3a8664f00,Owner 5751,+91XXXXXXXXXX,,Mumbai,IN,Seller,Generated
fef51175-f191-4009-925d-23f819ebf441,Owner 2032,+91XXXXXXXXXX,,London,IN,Seller,Generated
1521fa9d-e475-4a60-b280-2c53e4555b6d,Owner 9925,+91XXXXXXXXXX,,New York,IN,Seller,Generated
ea7030df-414e-4ca6-baa1-f7896cc266c7,Owner 765,+91XXXXXXXXXX,,Mumbai,IN,Seller,Generated
d55a53be-6c55-4927-98e6-7d932f77b210,Owner 9090,+91XXXXXXXXXX,,New York,IN,Seller,Generated
664e5741-dc49-4f7c-bbd0-8977035fd57a,Owner 3979,+91XXXXXXXXXX,,London,IN,Seller,Generated
d33ee62b-5764-4ddc-9688-19ff293aa58b,Owner 3903,+91XXXXXXXXXX,,Delhi,IN,Seller,Generated
e90b05bb-dfe2-4457-81d6-c4e78ce3f5ce,Owner 7060,+91XXXXXXXXXX,,New York,IN,Seller,Generated
7715d3d4-07b1-4b35-a6b0-ba8e2866908b,Owner 4902,+91XXXXXXXXXX,,Delhi,IN,Seller,Generated
7d7eacfd-1cd0-4e1f-947a-04977c395de5,Owner 1844,+91XXXXXXXXXX,,London,IN,Seller,Generated
12b59fc3-951c-497b-b7af-0fcd1b042d30,Owner 3502,+91XXXXXXXXXX,,Mumbai,IN,Seller,Generated
0c8c3373-0bcc-45de-8fcf-c2c61cdd36eb,Owner 9727,+91XXXXXXXXXX,,New York,IN,Seller,Generated
d8857505-2b7a-4701-a297-610c9f78a5d4,Owner 580,+91XXXXXXXXXX,,New York,IN,Seller,Generated
ed37f490-7793-4892-a78c-c66de1b4ed99,Owner 2370,+91XXXXXXXXXX,,Mumbai,IN,Seller,Generated
3820d32d-94a5-4b23-a1e6-c9cfb5854627,Owner 9786,+91XXXXXXXXXX,,Mumbai,IN,Seller,Generated
6f795c29-ae19-4d6b-b2a4-0acf37f9dee8,Owner 4367,+91XXXXXXXXXX,,New York,IN,Seller,Generated
60aca7ae-761d-473e-a013-cc339ca02882,Owner 4637,+91XXXXXXXXXX,,New York,IN,Seller,Generated
fc049905-dbef-4db3-8b2c-4c28227b25de,Owner 9962,+91XXXXXXXXXX,,Mumbai,IN,Seller,Generated
acd57884-c380-42fb-834d-53decd56a7fe,Owner 4866,+91XXXXXXXXXX,,Mumbai,IN,Seller,Generated
37b744b4-526f-481d-ae8a-b20d43a56ecd,Owner 6628,+91XXXXXXXXXX,,Delhi,IN,Seller,Generated
821be086-4f4e-4563-9606-61868589db0b,Owner 2714,+91XXXXXXXXXX,,Mumbai,IN,Seller,Generated
1413b69c-be4e-485e-ab0e-b35a06a9df2f,Owner 594,+91XXXXXXXXXX,,New York,IN,Seller,Generated
7fe488c2-f07f-43cc-a67f-43e6210d8879,Owner 3380,+91XXXXXXXXXX,,London,IN,Seller,Generated
0cc4543a-91e1-4998-a9cd-729c8dda2429,Owner 4669,+91XXXXXXXXXX,,London,IN,Seller,Generated
275c3458-0b12-4173-9a19-1f3836c3dc7e,Owner 4690,+91XXXXXXXXXX,,Mumbai,IN,Seller,Generated
19e40c6a-5127-4f2a-8b42-3f35ceaa8f9a,Owner 814,+91XXXXXXXXXX,,London,IN,Seller,Generated
18d57c02-1cd5-4c8a-98dd-a0c4c5b4f24b,Owner 4079,+91XXXXXXXXXX,,London,IN,Seller,Generated
43883ece-a8ec-4e4f-bb15-cccbae1e5381,Owner 5972,+91XXXXXXXXXX,,London,IN,Seller,Generated
6d3ad699-c927-4c3e-9751-3c20e6aa21a2,Owner 392,+91XXXXXXXXXX,,Mumbai,IN,Seller,Generated
d4fe6946-1cff-42c5-95e6-df6bef724d9e,Owner 6887,+91XXXXXXXXXX,,Delhi,IN,Seller,Generated
d1819d75-d673-4c89-926b-947776b7bfd3,Owner 5748,+91XXXXXXXXXX,,New York,IN,Seller,Generated
87648d7a-1a0e-4a4b-9be6-e28da17dc16c,Owner 302,+91XXXXXXXXXX,,New York,IN,Seller,Generated
b552d504-220f-4f1e-bd98-8a8b2a0242de,Owner 8890,+91XXXXXXXXXX,,Mumbai,IN,Seller,Generated
4e2c79fc-7664-4a25-8d9e-0b464f50e50e,Owner 6345,+91XXXXXXXXXX,,Delhi,IN,Seller,Generated
78fd76e8-6207-46f1-97a0-5bbcea94bb4c,Owner 977,+91XXXXXXXXXX,,Mumbai,IN,Seller,Generated
883414e3-a0fa-4411-80a2-43c488b52dc1,Owner 7283,+91XXXXXXXXXX,,New York,IN,Seller,Generated
eaa8a260-64c8-4efb-b0c0-31b5e011227f,Owner 975,+91XXXXXXXXXX,,New York,IN,Seller,Generated
60ef4b00-5951-4813-84f4-7f22e0c1cecb,Owner 2220,+91XXXXXXXXXX,,Mumbai,IN,Seller,Generated
daa12b4c-bcb3-4b67-8482-62153396e967,Owner 8013,+91XXXXXXXXXX,,Mumbai,IN,Seller,Generated
62fb2b8b-ca4b-43d2-a1e0-8471f5966493,Owner 1731,+91XXXXXXXXXX,,London,IN,Seller,Generated
bab5a213-8bdc-4bad-9735-4d0ec012a251,Owner 6129,+91XXXXXXXXXX,,London,IN,Seller,Generated
42e7435d-fa53-4ac8-931a-4acbb4bf18b6,Owner 420,+91XXXXXXXXXX,,London,IN,Seller,Generated
635dbf7b-625e-490a-a24f-059e3f73bdae,Owner 8622,+91XXXXXXXXXX,,London,IN,Seller,Generated
d44ca733-61ef-4874-9e74-517dc2d43c8b,Owner 7659,+91XXXXXXXXXX,,Mumbai,IN,Seller,Generated
28951a52-c0a8-4c22-9ea5-d371fa2f478e,Owner 3495,+91XXXXXXXXXX,,Mumbai,IN,Seller,Generated
5218738f-bcb2-4d0e-92bc-9986101e9db0,Owner 9801,+91XXXXXXXXXX,,New York,IN,Seller,Generated
91927e53-e56f-4d1d-a4da-81b4b25442e3,Owner 9635,+91XXXXXXXXXX,,New York,IN,Seller,Generated
238156c6-dcbf-428f-9ca3-105587cc2c51,Owner 8649,+91XXXXXXXXXX,,London,IN,Seller,Generated
343ca5dd-0702-445b-9980-4826d4007bc9,Owner 995,+91XXXXXXXXXX,,Delhi,IN,Seller,Generated
9de208c3-9652-4cf5-9625-411d8b3101c4,Owner 7133,+91XXXXXXXXXX,,Mumbai,IN,Seller,Generated
5059a10a-d4c9-4c2a-ae4e-697a0f24eadb,Owner 388,+91XXXXXXXXXX,,London,IN,Seller,Generated
ad697585-487f-4570-9416-0467b5efb015,Owner 2858,+91XXXXXXXXXX,,Delhi,IN,Seller,Generated
d30fb214-d5cd-4eae-bb1d-112d0e1b9b8d,Owner 7251,+91XXXXXXXXXX,,Mumbai,IN,Seller,Generated
12f7e881-f339-4a9c-8fdc-1684fea95961,Owner 2828,+91XXXXXXXXXX,,Delhi,IN,Seller,Generated
635ea87c-4775-4510-af3a-a5c769ba4003,Owner 1245,+91XXXXXXXXXX,,Delhi,IN,Seller,Generated
c700d65d-f35b-436a-b0d2-40c6185b5e2d,Owner 4521,+91XXXXXXXXXX,,London,IN,Seller,Generated
0e68c351-8621-4c37-ac0f-d349d2d41ff0,Owner 1534,+91XXXXXXXXXX,,Delhi,IN,Seller,Generated
17b0700e-ff6d-4b15-8182-b088a474ef7d,Owner 6890,+91XXXXXXXXXX,,Mumbai,IN,Seller,Generated
dbde6486-62ca-42d1-879b-b00d3d661c30,Owner 3555,+91XXXXXXXXXX,,London,IN,Seller,Generated
2f53dac2-3f22-466f-b8cd-9a825c8e3e37,Owner 665,+91XXXXXXXXXX,,Delhi,IN,Seller,Generated
9e2408d2-599f-487e-8e9b-df9d4e6bf7f9,Owner 2689,+91XXXXXXXXXX,,New York,IN,Seller,Generated
a8cf0312-213f-4434-862b-5e531e63f350,Owner 9418,+91XXXXXXXXXX,,Mumbai,IN,Seller,Generated
b154755f-3568-4401-804f-0936ed04f281,Owner 6645,+91XXXXXXXXXX,,Mumbai,IN,Seller,Generated
24c64abd-66e9-496a-be6e-0f2b8a2a25ae,Owner 2182,+91XXXXXXXXXX,,Delhi,IN,Seller,Generated
95e98d42-2764-40c0-a946-b9058ad11ade,Owner 1337,+91XXXXXXXXXX,,London,IN,Seller,Generated
68f6bdf2-31ce-4f37-a39f-89553440ea5b,Owner 3716,+91XXXXXXXXXX,,New York,IN,Seller,Generated
f8e19871-0338-40b7-ae4e-e5dff2da2857,Owner 2639,+91XXXXXXXXXX,,Mumbai,IN,Seller,Generated
635d23ec-ccd4-40f8-bc36-49c6ee08ee60,Owner 7734,+91XXXXXXXXXX,,Mumbai,IN,Seller,Generated
8605f2c1-193e-47d0-93ab-dd66f98b344a,Owner 3919,+91XXXXXXXXXX,,Mumbai,IN,Seller,Generated
ae7b96bf-d218-4090-b2d7-3ed0b34a22f9,Owner 4586,+91XXXXXXXXXX,,New York,IN,Seller,Generated
cf612737-1693-4ba0-bb7a-65467e68082d,Owner 5334,+91XXXXXXXXXX,,New York,IN,Seller,Generated
98eb9992-d4a8-44aa-9539-1b731217f3cc,Owner 7297,+91XXXXXXXXXX,,Mumbai,IN,Seller,Generated
9420b5e8-20e2-490b-89e0-4a270b135a97,Owner 7958,+91XXXXXXXXXX,,Mumbai,IN,Seller,Generated
8fed6f3f-1bdb-4988-873e-7be5dcc27d00,Owner 5080,+91XXXXXXXXXX,,London,IN,Seller,Generated
15cc3405-9450-4493-b483-0f55a929a9cb,Owner 4392,+91XXXXXXXXXX,,London,IN,Seller,Generated
69f5a18f-287a-49d8-b515-45448ea3e17b,Owner 5415,+91XXXXXXXXXX,,Mumbai,IN,Seller,Generated
40b02daa-41e3-487d-9914-6253a7e28730,Owner 6467,+91XXXXXXXXXX,,London,IN,Seller,Generated
9d52d95f-2819-488a-965f-cbabffde7d8c,Owner 2919,+91XXXXXXXXXX,,Mumbai,IN,Seller,Generated
c1f0385f-341b-4bf2-8a53-3343a633f281,Owner 3168,+91XXXXXXXXXX,,London,IN,Seller,Generated
0f4ee1c2-8176-4d42-92b5-83eaddac8d02,Owner 7521,+91XXXXXXXXXX,,Delhi,IN,Seller,Generated
5de982f0-b296-4808-8d53-e60ceeb6f1e7,Owner 7124,+91XXXXXXXXXX,,London,IN,Seller,Generated
12b2ab6c-8b2d-4456-bf48-6b2dc0c35a3d,Owner 4842,+91XXXXXXXXXX,,Delhi,IN,Seller,Generated
3e744ecd-db35-4f12-b05d-cdedc59c4320,Owner 5702,+91XXXXXXXXXX,,New York,IN,Seller,Generated
d32cf4e7-b2aa-4cff-a5dc-d949e00d9a9b,Owner 738,+91XXXXXXXXXX,,Mumbai,IN,Seller,Generated
3043f278-430d-46f6-8504-64a5c3f7d07f,Owner 989,+91XXXXXXXXXX,,Mumbai,IN,Seller,Generated
7d03edb6-7011-44e0-8ed8-c7c15c531e2c,Owner 4899,+91XXXXXXXXXX,,London,IN,Seller,Generated
2dcb65b8-04f4-450d-a7f0-5b6697929f98,Owner 2640,+91XXXXXXXXXX,,Delhi,IN,Seller,Generated
48ac1821-f8cb-4d0c-997a-030a79633aa1,Owner 6518,+91XXXXXXXXXX,,Delhi,IN,Seller,Generated
380a6c55-804c-4725-91b4-4a66e7b610d7,Owner 1260,+91XXXXXXXXXX,,New York,IN,Seller,Generated
cebbb74e-1a4d-4345-814a-2ef3d8b7ea19,Owner 597,+91XXXXXXXXXX,,London,IN,Seller,Generated
971f74b6-8b7b-41ef-9d02-d2290ab3f770,Owner 8218,+91XXXXXXXXXX,,London,IN,Seller,Generated
bd507090-2db6-46e0-a647-c18d5836b044,Owner 9028,+91XXXXXXXXXX,,Delhi,IN,Seller,Generated
d923d7cb-bbd5-4030-b5f7-31f326aab18f,Owner 7613,+91XXXXXXXXXX,,London,IN,Seller,Generated
773dc563-0a68-4b4d-a98a-d4a408dcad0f,Owner 3906,+91XXXXXXXXXX,,Delhi,IN,Seller,Generated
8c2fa2e7-32ab-4835-89a5-ff74391879ca,Owner 3949,+91XXXXXXXXXX,,New York,IN,Seller,Generated
d22d6e0b-c0a4-414c-b735-761ac74b3a05,Owner 2599,+91XXXXXXXXXX,,Mumbai,IN,Seller,Generated
501133fb-7253-4503-aaff-9422096ef5eb,Owner 8640,+91XXXXXXXXXX,,New York,IN,Seller,Generated
6d98322f-1148-4ada-874a-82f6b35019fd,Owner 2303,+91XXXXXXXXXX,,Delhi,IN,Seller,Generated
f93811de-7224-4fe5-9f30-89c8386de8e5,Owner 7589,+91XXXXXXXXXX,,Mumbai,IN,Seller,Generated
490bd655-d158-4bb0-9033-abcd54167146,Owner 2935,+91XXXXXXXXXX,,New York,IN,Seller,Generated
242b09c6-b789-463c-bfcd-90a22c304108,Owner 308,+91XXXXXXXXXX,,New York,IN,Seller,Generated
8a03383c-ea29-4197-8cb5-f003c11cce99,Owner 8146,+91XXXXXXXXXX,,Delhi,IN,Seller,Generated
6e99f067-989a-41fb-be02-fb46bf8ca6ff,Owner 4073,+91XXXXXXXXXX,,Mumbai,IN,Seller,Generated
127fe677-3a65-4308-af24-57d580f0f045,Owner 2641,+91XXXXXXXXXX,,Mumbai,IN,Seller,Generated
ed168128-c77c-4c00-bff1-0f4dcddf397b,Owner 4877,+91XXXXXXXXXX,,Delhi,IN,Seller,Generated
64d0c179-ac70-4f7d-8330-3e31792a7121,Owner 2989,+91XXXXXXXXXX,,Delhi,IN,Seller,Generated
0be07192-19f5-4f0a-9c72-3bbd0d96d900,Owner 3862,+91XXXXXXXXXX,,Mumbai,IN,Seller,Generated
b5d865b1-b7ef-4bbd-b561-d7d2e94b17ff,Owner 7392,+91XXXXXXXXXX,,New York,IN,Seller,Generated
162b199a-8d70-4f6d-98d4-51014c342f31,Owner 7236,+91XXXXXXXXXX,,New York,IN,Seller,Generated
7657c984-ce5c-4145-8edb-63a40b3f216c,Owner 9781,+91XXXXXXXXXX,,London,IN,Seller,Generated
51b22ba1-29ed-42e8-ab79-7e396cd71d10,Owner 5715,+91XXXXXXXXXX,,Mumbai,IN,Seller,Generated
db0e3da4-055d-482b-8543-2bf755d575eb,Owner 7170,+91XXXXXXXXXX,,New York,IN,Seller,Generated
1d617772-b1af-4f31-a709-6f3ef0811631,Owner 7278,+91XXXXXXXXXX,,Mumbai,IN,Seller,Generated
2b29c89a-8f8b-48e7-8052-40678d2ab28f,Owner 4361,+91XXXXXXXXXX,,Mumbai,IN,Seller,Generated
cca4b773-c6d0-4921-a256-a506cd1011b1,Owner 2942,+91XXXXXXXXXX,,Delhi,IN,Seller,Generated
909bbfce-378e-4ae5-b2d7-060db2012c24,Owner 7823,+91XXXXXXXXXX,,London,IN,Seller,Generated
8898af89-8c0a-4b9c-af43-7e4b565b1496,Owner 7510,+91XXXXXXXXXX,,Mumbai,IN,Seller,Generated
8a281896-0e11-4539-92a9-e4b1d8abfe3b,Owner 6360,+91XXXXXXXXXX,,London,IN,Seller,Generated
09a1f9d5-c4d6-48a8-b0cc-872dcff2f5a1,Owner 696,+91XXXXXXXXXX,,London,IN,Seller,Generated
2e2d5000-575e-42e0-a0c2-47951909042c,Owner 2372,+91XXXXXXXXXX,,Mumbai,IN,Seller,Generated
b33a90c2-661f-4a7b-9866-82a9dcfbcda4,Owner 2400,+91XXXXXXXXXX,,Delhi,IN,Seller,Generated
69d4c9a1-cff6-42db-b1cb-d7475ea4627b,Owner 1936,+91XXXXXXXXXX,,Delhi,IN,Seller,Generated
d527d9fd-f026-4d1a-8ca5-5937b33cf925,Owner 4298,+91XXXXXXXXXX,,London,IN,Seller,Generated
5c34adac-81a9-4c43-901a-ad55cfea979c,Owner 4939,+91XXXXXXXXXX,,Mumbai,IN,Seller,Generated
02e8f927-60ae-4895-9a4a-11cbcce59559,Owner 3031,+91XXXXXXXXXX,,Delhi,IN,Seller,Generated
f9df3b74-2e8f-44ae-bcb1-ca57981c964b,Owner 2600,+91XXXXXXXXXX,,Mumbai,IN,Seller,Generated
c24bfe87-7fbb-4b3d-9301-279d9edf0f6c,Owner 1742,+91XXXXXXXXXX,,Delhi,IN,Seller,Generated
13c7bd72-82e8-4fe1-9209-97c78569ebcb,Owner 1901,+91XXXXXXXXXX,,London,IN,Seller,Generated
cefbcc00-63c4-42f2-abd7-bf91988bf5cd,Owner 9395,+91XXXXXXXXXX,,New York,IN,Seller,Generated
f87ce4b2-acc6-4668-9d26-cdd81491249a,Owner 5723,+91XXXXXXXXXX,,Delhi,IN,Seller,Generated
d028c1bb-6af2-4b8c-8852-ca0d52ca6aa8,Owner 8058,+91XXXXXXXXXX,,Mumbai,IN,Seller,Generated
3d452a54-099f-40fd-8c1a-cb2b170ff0cb,Owner 7841,+91XXXXXXXXXX,,Mumbai,IN,Seller,Generated
52f0e3c2-c796-4164-b924-012666241bb0,Owner 1143,+91XXXXXXXXXX,,Delhi,IN,Seller,Generated
a9147267-e9b2-4969-bb11-4b87e8ef881f,Owner 3798,+91XXXXXXXXXX,,New York,IN,Seller,Generated
9830639a-e111-46f2-87b1-4ec1ebd59d0f,Owner 7841,+91XXXXXXXXXX,,Delhi,IN,Seller,Generated
6e00de5c-8700-4b51-aff4-1dc4b6fe6a64,Owner 107,+91XXXXXXXXXX,,London,IN,Seller,Generated
215b482c-4783-4c9c-9f50-254d09f1afdb,Owner 6499,+91XXXXXXXXXX,,Mumbai,IN,Seller,Generated
b9054a99-453d-48d1-8d82-e79933f83621,Owner 6790,+91XXXXXXXXXX,,Mumbai,IN,Seller,Generated
f78a00c9-041f-40d5-a912-245d7fcaf633,Owner 9038,+91XXXXXXXXXX,,Delhi,IN,Seller,Generated
5cc234b7-9ae2-46a5-9f59-fd59c1d8736c,Owner 8465,+91XXXXXXXXXX,,New York,IN,Seller,Generated
f02f1a41-35da-4d5a-ac95-6cb8880afe1f,Owner 3765,+91XXXXXXXXXX,,Delhi,IN,Seller,Generated
05a59b98-ae23-4c59-bcdf-f59089003a38,Owner 1192,+91XXXXXXXXXX,,Delhi,IN,Seller,Generated
1aaffa24-a3d4-4548-97a5-3b0e0b7b5839,Owner 8934,+91XXXXXXXXXX,,London,IN,Seller,Generated
29f0987b-39bd-4f44-aa39-41864611a388,Owner 4243,+91XXXXXXXXXX,,Mumbai,IN,Seller,Generated
74b76956-4ff1-49e1-8ad4-10f6a811ca4f,Owner 478,+91XXXXXXXXXX,,New York,IN,Seller,Generated
f0912d88-e35f-43bd-ac63-7f1914ab0415,Owner 5613,+91XXXXXXXXXX,,Mumbai,IN,Seller,Generated
f45638d7-1e2c-471b-b9e1-e03ade9214df,Owner 6852,+91XXXXXXXXXX,,Delhi,IN,Seller,Generated
b3cdc7b3-9a7b-414e-83f8-a3099c67e267,Owner 5355,+91XXXXXXXXXX,,Delhi,IN,Seller,Generated
fb54e421-52d7-4481-9d19-09884c8b0d01,Owner 3096,+91XXXXXXXXXX,,Delhi,IN,Seller,Generated
d6427ec6-f2eb-4c07-9039-a262d984d612,Owner 8188,+91XXXXXXXXXX,,New York,IN,Seller,Generated
03bb6c93-97f8-438b-a3d0-fe1220d632f8,Owner 8964,+91XXXXXXXXXX,,Delhi,IN,Seller,Generated
ac65eb73-3402-4731-bd60-627df9e09fb8,Owner 7031,+91XXXXXXXXXX,,New York,IN,Seller,Generated
8c2907c0-3da8-4a47-a9e3-6f987ce46b1a,Owner 7536,+91XXXXXXXXXX,,London,IN,Seller,Generated
ed2a492b-e69c-428f-a836-61ab4684913f,Owner 5836,+91XXXXXXXXXX,,New York,IN,Seller,Generated
3c74ddec-b3c0-4f68-82e8-a87d1d6f02e1,Owner 3430,+91XXXXXXXXXX,,London,IN,Seller,Generated
f7077b68-dcc9-4fd1-8307-81f1e9c0d670,Owner 5897,+91XXXXXXXXXX,,Delhi,IN,Seller,Generated
0a33b235-998f-4987-b218-b9eab83ab028,Owner 2128,+91XXXXXXXXXX,,Delhi,IN,Seller,Generated
8f306e2e-499d-464c-b807-95a4da6441f8,Owner 9313,+91XXXXXXXXXX,,London,IN,Seller,Generated
deba7b30-848b-45ee-9647-79d89d1c1221,Owner 1313,+91XXXXXXXXXX,,Mumbai,IN,Seller,Generated
208f2cf5-e92c-4cf5-abcb-666023306359,Owner 1638,+91XXXXXXXXXX,,New York,IN,Seller,Generated
5730821f-2994-4f76-bc2e-5f68bf9e14a6,Owner 336,+91XXXXXXXXXX,,Mumbai,IN,Seller,Generated
a217cf43-f56a-4893-8ee6-ac7e7652a2c4,Owner 7205,+91XXXXXXXXXX,,Mumbai,IN,Seller,Generated
9684f6b3-7914-46c2-9813-13d5e33e7664,Owner 4918,+91XXXXXXXXXX,,New York,IN,Seller,Generated
9186411d-c9f8-4b42-b45d-fcfaed27769b,Owner 3659,+91XXXXXXXXXX,,New York,IN,Seller,Generated
008fd709-6910-44c4-b4c9-2472f9ea1034,Owner 461,+91XXXXXXXXXX,,Mumbai,IN,Seller,Generated
e77be9af-8a9a-413e-96a9-c51d0eeaf7e3,Owner 1260,+91XXXXXXXXXX,,Delhi,IN,Seller,Generated
2b63132b-8e22-4b79-b176-8934839bc83b,Owner 2886,+91XXXXXXXXXX,,Mumbai,IN,Seller,Generated
095711c3-27d4-4bfd-970c-7398110f5591,Owner 4760,+91XXXXXXXXXX,,New York,IN,Seller,Generated
2e359827-9cb1-409a-8ff8-e596794f3000,Owner 3922,+91XXXXXXXXXX,,Delhi,IN,Seller,Generated
0def221c-1baf-4746-962b-46b88606a719,Owner 6685,+91XXXXXXXXXX,,Delhi,IN,Seller,Generated
db42091b-8972-48a8-b855-5b1f92e55d34,Owner 6645,+91XXXXXXXXXX,,London,IN,Seller,Generated
acb13379-294f-4d1e-93b4-60d89763bb0e,Owner 9744,+91XXXXXXXXXX,,New York,IN,Seller,Generated
f3aae7aa-268b-4c19-a3d9-748ec3fa84af,Owner 5919,+91XXXXXXXXXX,,London,IN,Seller,Generated
798e5a63-a323-4e47-a5fd-f07fec2e2753,Owner 9945,+91XXXXXXXXXX,,New York,IN,Seller,Generated
1c81cfa5-b716-490f-ab8f-86d635569bad,Owner 2286,+91XXXXXXXXXX,,London,IN,Seller,Generated
78870337-d015-45d3-b76a-9528c78f036b,Owner 2388,+91XXXXXXXXXX,,London,IN,Seller,Generated
c36ca607-237a-4038-948e-14931c4ebbe9,Owner 3418,+91XXXXXXXXXX,,New York,IN,Seller,Generated
d5b2b79a-2bb5-4c03-a475-01a02cd35ab0,Owner 5129,+91XXXXXXXXXX,,Mumbai,IN,Seller,Generated
d4457f5f-5feb-4785-938e-e63783da8957,Owner 7399,+91XXXXXXXXXX,,Delhi,IN,Seller,Generated
32135496-c6f1-4eb6-958d-4c67ff18ca16,Owner 1810,+91XXXXXXXXXX,,Delhi,IN,Seller,Generated
c11a0e1f-dca6-47c1-bb0b-c3e98d8c8c02,Owner 7296,+91XXXXXXXXXX,,London,IN,Seller,Generated
529f1d46-8158-412b-b41c-e05209006e38,Owner 1954,+91XXXXXXXXXX,,New York,IN,Seller,Generated
ba273837-3075-4262-8bb4-ce945c2b3eb4,Owner 9551,+91XXXXXXXXXX,,Mumbai,IN,Seller,Generated
bcc2d25a-be40-425c-9957-c48dd5624fef,Owner 4600,+91XXXXXXXXXX,,New York,IN,Seller,Generated
e709c53f-a719-46bd-8388-84eee3dea456,Owner 3555,+91XXXXXXXXXX,,London,IN,Seller,Generated
a0c107b4-6b9b-4d28-b50e-119a90ebe95b,Owner 8117,+91XXXXXXXXXX,,New York,IN,Seller,Generated
0fe7db9b-6c91-4126-be1d-8d2e6d8d795d,Owner 7869,+91XXXXXXXXXX,,Delhi,IN,Seller,Generated
894e4472-c5e4-4939-a2e3-54bda6a8c5e5,Owner 1020,+91XXXXXXXXXX,,Mumbai,IN,Seller,Generated
5804310f-ed80-4c77-9b5d-bd1fed543a92,Owner 442,+91XXXXXXXXXX,,London,IN,Seller,Generated
fcd88e02-395f-4826-9c7a-909b2e2d004b,Owner 2501,+91XXXXXXXXXX,,New York,IN,Seller,Generated
73a85298-8805-4367-a91b-af8944293806,Owner 4662,+91XXXXXXXXXX,,New York,IN,Seller,Generated
83882d73-0209-4e4e-90db-5017c4940c72,Owner 8616,+91XXXXXXXXXX,,Mumbai,IN,Seller,Generated
38dbed42-51b3-49e7-8051-73d5eb5460f3,Owner 5207,+91XXXXXXXXXX,,Mumbai,IN,Seller,Generated
79c42cf8-8656-4c11-b0ca-4f423a369acf,Owner 5832,+91XXXXXXXXXX,,Mumbai,IN,Seller,Generated
9bb4f27c-9565-4994-8867-82039dd05f51,Owner 8539,+91XXXXXXXXXX,,Delhi,IN,Seller,Generated
4bd4bb20-7d0b-4875-9aff-f70810059d39,Owner 1593,+91XXXXXXXXXX,,Delhi,IN,Seller,Generated
6853a1e6-7c91-4e5d-94dd-15be729729c6,Owner 6741,+91XXXXXXXXXX,,New York,IN,Seller,Generated
ebf10e7d-98fd-464e-82b2-b469a3f95559,Owner 2156,+91XXXXXXXXXX,,Mumbai,IN,Seller,Generated
63294c80-0507-4a35-af58-87d07ab6fbd6,Owner 2754,+91XXXXXXXXXX,,Mumbai,IN,Seller,Generated
c3470c49-46f3-474f-9dad-cea5c965affd,Owner 5304,+91XXXXXXXXXX,,New York,IN,Seller,Generated
3c959de9-eb0e-4338-8713-aaa57deae87a,Owner 9450,+91XXXXXXXXXX,,New York,IN,Seller,Generated
4b910a97-6af5-4b30-9af9-2297815db508,Owner 3076,+91XXXXXXXXXX,,Delhi,IN,Seller,Generated
53eea950-929c-4218-979a-e28f83fbb354,Owner 6361,+91XXXXXXXXXX,,London,IN,Seller,Generated
ff1dc91e-bac6-4af6-9834-6f3a4ec78caf,Owner 5885,+91XXXXXXXXXX,,New York,IN,Seller,Generated
b03fffeb-3e12-4d54-90b1-0efa82f8c021,Owner 953,+91XXXXXXXXXX,,London,IN,Seller,Generated
f9cb87fd-79be-4737-9ff6-bbb0e4222777,Owner 8592,+91XXXXXXXXXX,,New York,IN,Seller,Generated
a985dc00-dcff-49a8-9a99-a9a1896667cb,Owner 7176,+91XXXXXXXXXX,,New York,IN,Seller,Generated
19e49db2-31fd-4a78-9396-10082f58558a,Owner 3288,+91XXXXXXXXXX,,London,IN,Seller,Generated
7c48dea8-d44f-4b9c-85a5-b8bf17834a2b,Owner 4537,+91XXXXXXXXXX,,London,IN,Seller,Generated
e3dd4838-e681-4dc3-bc24-73d4857148fe,Owner 6664,+91XXXXXXXXXX,,Delhi,IN,Seller,Generated
46608f6b-4a83-4221-b6db-d1c34343bbe8,Owner 4040,+91XXXXXXXXXX,,Delhi,IN,Seller,Generated
313d16d9-72b3-4792-9e62-982d211545c2,Owner 832,+91XXXXXXXXXX,,Mumbai,IN,Seller,Generated
9794e6b7-106a-4ce8-9018-b0ccec7cda38,Owner 7520,+91XXXXXXXXXX,,New York,IN,Seller,Generated
4b32dd20-591e-423c-924c-4cc87fc673af,Owner 4086,+91XXXXXXXXXX,,Mumbai,IN,Seller,Generated
ed90e703-39ff-4af0-998f-cd0351e9f5f6,Owner 7963,+91XXXXXXXXXX,,London,IN,Seller,Generated
29f4f947-ad61-40b0-b597-e34a7d072cab,Owner 4107,+91XXXXXXXXXX,,Mumbai,IN,Seller,Generated
bcd57c29-5916-4bc3-9092-565c639f9cc6,Owner 4437,+91XXXXXXXXXX,,Delhi,IN,Seller,Generated
52664cc2-c5c4-4ff6-bbec-50343b477d70,Owner 4975,+91XXXXXXXXXX,,Delhi,IN,Seller,Generated
afbb4aa2-c420-413e-82b2-ff4e5ee1cc94,Owner 1413,+91XXXXXXXXXX,,Delhi,IN,Seller,Generated
4e41368e-f61f-4f56-83b1-b8804f937805,Owner 7636,+91XXXXXXXXXX,,London,IN,Seller,Generated
68e6ec89-9f9f-4812-80f8-ba92f57540ca,Owner 654,+91XXXXXXXXXX,,Delhi,IN,Seller,Generated
17f709bf-9d1c-4ada-b234-4d162984cbc6,Owner 3039,+91XXXXXXXXXX,,Mumbai,IN,Seller,Generated
08ef157d-6811-4393-8404-b0c088f29dec,Owner 3374,+91XXXXXXXXXX,,Delhi,IN,Seller,Generated
3c3d99f1-da4f-4dcb-bba7-6cc391c3ede6,Owner 7743,+91XXXXXXXXXX,,Delhi,IN,Seller,Generated
a80ed361-5935-46d9-80b2-1c049167218c,Owner 1692,+91XXXXXXXXXX,,Delhi,IN,Seller,Generated
64aaeb30-6201-4fcf-95f0-7422585aacc2,Owner 889,+91XXXXXXXXXX,,London,IN,Seller,Generated
8e1fa9fc-9c5f-4864-8d0d-19a92bac7cb4,Owner 9742,+91XXXXXXXXXX,,New York,IN,Seller,Generated
51310edd-7a6e-46ec-b097-00279630fdc1,Owner 7889,+91XXXXXXXXXX,,New York,IN,Seller,Generated
474f9b85-87df-44f5-b7ef-485a8f31563f,Owner 7862,+91XXXXXXXXXX,,New York,IN,Seller,Generated
d0cdfd41-b8cc-4466-bcfe-5a81bc38cad0,Owner 2289,+91XXXXXXXXXX,,Delhi,IN,Seller,Generated
89d97c68-5744-4c2d-b315-d4b768721490,Owner 9042,+91XXXXXXXXXX,,Mumbai,IN,Seller,Generated
64317ee9-5d02-4706-bda6-0600cfc1512d,Owner 8026,+91XXXXXXXXXX,,Mumbai,IN,Seller,Generated
1bdc7750-e272-4943-8b05-0f77334a2fbe,Owner 2398,+91XXXXXXXXXX,,Mumbai,IN,Seller,Generated
a3461829-2b54-4256-8f99-2c0bca4c160a,Owner 7099,+91XXXXXXXXXX,,Mumbai,IN,Seller,Generated
b5fd6f94-587e-4378-b5c1-9e3c4a3b36c3,Owner 9802,+91XXXXXXXXXX,,Mumbai,IN,Seller,Generated
1c2a32a6-a5e0-470a-9a68-cedbf1e02416,Owner 4265,+91XXXXXXXXXX,,Mumbai,IN,Seller,Generated
6a680534-1820-47d6-8b93-b52294bbc311,Owner 6835,+91XXXXXXXXXX,,New York,IN,Seller,Generated
5ac16bac-b897-4d6d-b069-ee9b5d45ce02,Owner 7499,+91XXXXXXXXXX,,Mumbai,IN,Seller,Generated
dd44223e-0ce2-4b24-9a02-c2e385df670a,Owner 8015,+91XXXXXXXXXX,,Mumbai,IN,Seller,Generated
ef0d71dd-80e1-4b7b-8785-92ce58c42d4e,Owner 1464,+91XXXXXXXXXX,,Mumbai,IN,Seller,Generated
739b32b2-c13d-45dd-aaf7-f691983cfa10,Owner 9113,+91XXXXXXXXXX,,New York,IN,Seller,Generated
d7a19591-57ad-4b68-9985-c1ec055e13c3,Owner 4043,+91XXXXXXXXXX,,London,IN,Seller,Generated
6152f7b0-543a-45bd-bcdb-70799bf8fdcb,Owner 9610,+91XXXXXXXXXX,,New York,IN,Seller,Generated
eab60f58-f533-441b-8ef9-980c3d684abc,Owner 1150,+91XXXXXXXXXX,,Mumbai,IN,Seller,Generated
f5ab58d2-74ce-41dc-af8e-de6740cf00a8,Owner 9042,+91XXXXXXXXXX,,Delhi,IN,Seller,Generated
51c1ad00-4ea7-49dc-8d7b-ba392404857d,Owner 1017,+91XXXXXXXXXX,,New York,IN,Seller,Generated
8fbb8a2b-ffd2-40d0-959a-ab3458cd016e,Owner 2269,+91XXXXXXXXXX,,Delhi,IN,Seller,Generated
7bf0c3ac-0528-49de-81d9-07eb5955d5f5,Owner 4909,+91XXXXXXXXXX,,New York,IN,Seller,Generated
6c0cd408-b2c4-4603-aa6d-b4bbda2c504f,Owner 907,+91XXXXXXXXXX,,London,IN,Seller,Generated
b4e0a49f-b1f8-4769-9c8e-e6ec6403ebc3,Owner 1458,+91XXXXXXXXXX,,London,IN,Seller,Generated
a6e0f861-a207-4d46-b026-3fb2079ca2ea,Owner 1142,+91XXXXXXXXXX,,New York,IN,Seller,Generated
971b1b04-3acf-4766-a350-be69c4821504,Owner 3390,+91XXXXXXXXXX,,Delhi,IN,Seller,Generated
e804e09e-a876-4c5b-a125-317bbd891cb0,Owner 9517,+91XXXXXXXXXX,,Delhi,IN,Seller,Generated
6583630a-97fa-4a53-80df-caaddaa85343,Owner 61,+91XXXXXXXXXX,,New York,IN,Seller,Generated
143416d7-f044-4b9e-b97b-3af9200d62e1,Owner 5107,+91XXXXXXXXXX,,London,IN,Seller,Generated
7ceefc9a-5265-4bbb-ba45-4a0212d14763,Owner 107,+91XXXXXXXXXX,,Mumbai,IN,Seller,Generated
e29016f2-3af6-4658-aca3-375859c68f71,Owner 978,+91XXXXXXXXXX,,London,IN,Seller,Generated
3bdbb5e2-fe90-44ec-8ef2-ce388c526737,Owner 4875,+91XXXXXXXXXX,,Mumbai,IN,Seller,Generated
a36f6b2a-231d-420f-963a-7ee4b0fd1949,Owner 7145,+91XXXXXXXXXX,,New York,IN,Seller,Generated
34885b2f-ed08-40b0-bcbd-28a5f05b9c4d,Owner 3268,+91XXXXXXXXXX,,New York,IN,Seller,Generated
5df981bf-8f06-4540-a6f2-4970de7fee98,Owner 3274,+91XXXXXXXXXX,,New York,IN,Seller,Generated
414f7e1f-82c4-4e34-a5bd-4bdfd06d51e0,Owner 9133,+91XXXXXXXXXX,,New York,IN,Seller,Generated
e5e8ca5f-a66a-4df4-b03a-a58b7f03f0d1,Owner 705,+91XXXXXXXXXX,,New York,IN,Seller,Generated
884445bf-999c-4293-ade8-4492de3911c4,Owner 8618,+91XXXXXXXXXX,,New York,IN,Seller,Generated
64017cf3-37f0-4a04-acaa-d4eb2cf267a9,Owner 3550,+91XXXXXXXXXX,,Delhi,IN,Seller,Generated
09a1a55d-c801-4b4e-9def-9136a6cced3c,Owner 3801,+91XXXXXXXXXX,,New York,IN,Seller,Generated
06650706-a3ab-4fa8-a268-b67f6f3cc8cf,Owner 7867,+91XXXXXXXXXX,,New York,IN,Seller,Generated
db19f453-93e8-4765-a792-c330a250f68b,Owner 9369,+91XXXXXXXXXX,,New York,IN,Seller,Generated
e4a0f69f-e08c-4972-8c9d-c2ce23ac9fa2,Owner 9202,+91XXXXXXXXXX,,New York,IN,Seller,Generated
c74d1dc3-80b4-4558-a6ac-17765646412e,Owner 870,+91XXXXXXXXXX,,London,IN,Seller,Generated
e0d23657-91d4-4aa9-b923-243282658a12,Owner 6180,+91XXXXXXXXXX,,London,IN,Seller,Generated
9ea6d3b4-a856-4823-983e-32b028d7261e,Owner 7320,+91XXXXXXXXXX,,Mumbai,IN,Seller,Generated
ddf2910d-700f-449f-be8a-cd63466ac367,Owner 8549,+91XXXXXXXXXX,,London,IN,Seller,Generated
0bfaf83d-f65b-4acb-a654-61767dc5342f,Owner 1398,+91XXXXXXXXXX,,London,IN,Seller,Generated
a3dd4489-a333-4df0-811f-4ea0ef9436c7,Owner 2493,+91XXXXXXXXXX,,Delhi,IN,Seller,Generated
c1aa8ada-729d-4ca7-a456-c35123e48672,Owner 9850,+91XXXXXXXXXX,,New York,IN,Seller,Generated
c7baf428-58d7-4d71-af03-ab5e001a7dea,Owner 2429,+91XXXXXXXXXX,,New York,IN,Seller,Generated
8779fbec-af86-4652-b565-03f736071ddf,Owner 6097,+91XXXXXXXXXX,,New York,IN,Seller,Generated
4f168b17-519a-4788-8367-78644cdf0b5c,Owner 424,+91XXXXXXXXXX,,Mumbai,IN,Seller,Generated
1583b7b6-ea6a-4be1-8844-f80ccc533e4e,Owner 7781,+91XXXXXXXXXX,,Delhi,IN,Seller,Generated
521883fc-4a5c-46ae-a354-380e52f49a9c,Owner 230,+91XXXXXXXXXX,,London,IN,Seller,Generated
a0b8da9d-b4a2-4a84-a63f-79498e17b149,Owner 4134,+91XXXXXXXXXX,,London,IN,Seller,Generated
21e103d5-0ef9-4424-a0da-4a347f2174c0,Owner 3866,+91XXXXXXXXXX,,Delhi,IN,Seller,Generated
20c08982-86f8-4acf-be90-40b382b18f50,Owner 4887,+91XXXXXXXXXX,,London,IN,Seller,Generated
00108682-cc35-400d-9935-001e70afd700,Owner 2603,+91XXXXXXXXXX,,New York,IN,Seller,Generated
f8d15b06-05b3-4a9d-b180-74436e2affe7,Owner 5648,+91XXXXXXXXXX,,Mumbai,IN,Seller,Generated
d76b59d6-ed54-4692-ad09-1c8165d33642,Owner 8856,+91XXXXXXXXXX,,New York,IN,Seller,Generated
d4c7bd43-24aa-49e9-ab8c-ffbbc2196741,Owner 6398,+91XXXXXXXXXX,,Delhi,IN,Seller,Generated
c26f7ea3-503d-4b89-9a5a-034b37aaabaa,Owner 3056,+91XXXXXXXXXX,,Delhi,IN,Seller,Generated
b3c054bd-21ea-4607-aa79-f04a0e0b3d24,Owner 97,+91XXXXXXXXXX,,Mumbai,IN,Seller,Generated
6c7e1e8d-7ca5-4e30-a1e4-f3146d24542c,Owner 7911,+91XXXXXXXXXX,,Delhi,IN,Seller,Generated
e522d76f-ab7d-434a-8a7e-bb088781d5d8,Owner 8268,+91XXXXXXXXXX,,New York,IN,Seller,Generated
3439355c-bc20-49af-b78e-072254a60fcb,Owner 3103,+91XXXXXXXXXX,,Mumbai,IN,Seller,Generated
44a4d4b9-39fb-400f-bd59-b328d08f581f,Owner 9533,+91XXXXXXXXXX,,New York,IN,Seller,Generated
629cc671-dfa3-4760-bcec-5bb07363715c,Owner 1268,+91XXXXXXXXXX,,New York,IN,Seller,Generated
34c1d6dd-71fd-4665-b12f-7d5af6bbe1da,Owner 2273,+91XXXXXXXXXX,,London,IN,Seller,Generated
8007f80c-4b1d-4866-b6a6-18b412fe7e14,Owner 8392,+91XXXXXXXXXX,,Delhi,IN,Seller,Generated
7117d7fd-a7bb-4476-bcfd-f2d48c922883,Owner 6503,+91XXXXXXXXXX,,New York,IN,Seller,Generated
868f996f-6f79-4d57-8385-4edd45c90feb,Owner 7299,+91XXXXXXXXXX,,London,IN,Seller,Generated
1b990d09-d8e9-4259-8877-541eb0c6a2a6,Owner 4212,+91XXXXXXXXXX,,Mumbai,IN,Seller,Generated
299e50e1-da87-49ed-b929-d7765ac3837d,Owner 1282,+91XXXXXXXXXX,,Mumbai,IN,Seller,Generated
de62dede-145c-4e82-bc79-1cd42a8b9ec2,Owner 9097,+91XXXXXXXXXX,,Delhi,IN,Seller,Generated
4cd6bd84-a376-4a55-8cd5-898b51909ce8,Owner 6734,+91XXXXXXXXXX,,Mumbai,IN,Seller,Generated
14169124-19e4-42af-9b64-5243ee14073c,Owner 3956,+91XXXXXXXXXX,,Delhi,IN,Seller,Generated
5251d829-3afd-4602-8116-642d28b8c4de,Owner 432,+91XXXXXXXXXX,,London,IN,Seller,Generated
5a74510a-a6fd-4689-80ae-0aa5fe719914,Owner 1806,+91XXXXXXXXXX,,Mumbai,IN,Seller,Generated
c2f5c406-3475-4c0a-a4e0-acdd16ccb32b,Owner 7501,+91XXXXXXXXXX,,Mumbai,IN,Seller,Generated
79e561ff-ceac-4595-8531-ac2a7f5ded57,Owner 4566,+91XXXXXXXXXX,,London,IN,Seller,Generated
2ab1e379-ea31-45df-b0fd-b8fbb81bbefb,Owner 8497,+91XXXXXXXXXX,,London,IN,Seller,Generated
d6169f57-eb9c-42fa-b645-2426bff482dc,Owner 4120,+91XXXXXXXXXX,,Mumbai,IN,Seller,Generated
b46a71af-84ec-4a93-8398-5072388339c3,Owner 1969,+91XXXXXXXXXX,,New York,IN,Seller,Generated
52a6260d-9041-4fe6-8c24-bf9b71638f79,Owner 4055,+91XXXXXXXXXX,,Delhi,IN,Seller,Generated
79993f88-20f9-487c-9723-2ee82194c396,Owner 1151,+91XXXXXXXXXX,,Delhi,IN,Seller,Generated
8a90e4dd-7ace-43a5-b72e-c4776797e49b,Owner 5647,+91XXXXXXXXXX,,Delhi,IN,Seller,Generated
65539357-c6bd-4c0c-b9bc-edeb5fb529a3,Owner 9480,+91XXXXXXXXXX,,Delhi,IN,Seller,Generated
cc422f37-d90a-426e-a3f3-3ec07d5eec84,Owner 5296,+91XXXXXXXXXX,,Delhi,IN,Seller,Generated
0f1f9c68-fda4-46b0-aba1-6a78b6eba213,Owner 5696,+91XXXXXXXXXX,,New York,IN,Seller,Generated
34137409-61b5-490f-a37f-8cfed81831e3,Owner 8738,+91XXXXXXXXXX,,New York,IN,Seller,Generated
4b2b3368-45ff-4cf3-a5d1-ab7c4259eae3,Owner 6689,+91XXXXXXXXXX,,Mumbai,IN,Seller,Generated
eb133ed9-206d-4b80-9de5-fc66b7299345,Owner 657,+91XXXXXXXXXX,,London,IN,Seller,Generated
d4f11ddc-526d-43c0-9754-8e1ee8ed2eac,Owner 8790,+91XXXXXXXXXX,,Delhi,IN,Seller,Generated
b41bb456-7b2c-446d-9315-3a6b2d838e1e,Owner 8397,+91XXXXXXXXXX,,London,IN,Seller,Generated
6eca001e-58d9-4016-91eb-73d0afdae664,Owner 9362,+91XXXXXXXXXX,,Mumbai,IN,Seller,Generated
c6eb6ebc-876c-4b4a-b318-b2a74e88df07,Owner 4748,+91XXXXXXXXXX,,New York,IN,Seller,Generated
9a030de4-34ee-4979-8da5-c8f85cf705ed,Owner 6493,+91XXXXXXXXXX,,New York,IN,Seller,Generated
26082161-dcaf-49e7-b4ff-fec428a88066,Owner 9887,+91XXXXXXXXXX,,London,IN,Seller,Generated
88325d48-2fd4-4e3e-806f-41321b6838e7,Owner 4742,+91XXXXXXXXXX,,Mumbai,IN,Seller,Generated
62ca7223-2586-400f-b09e-3a759fe58506,Owner 7414,+91XXXXXXXXXX,,Mumbai,IN,Seller,Generated
67a4c2d4-ac78-4950-b9d7-b315de246427,Owner 5964,+91XXXXXXXXXX,,Mumbai,IN,Seller,Generated
0ae04a55-37f3-48dc-9a0f-50f4736f092f,Owner 8254,+91XXXXXXXXXX,,New York,IN,Seller,Generated
f1cdb3f6-ad2e-46f9-a467-4a1bf51a5ef0,Owner 3228,+91XXXXXXXXXX,,Delhi,IN,Seller,Generated
55c36577-94cb-4cef-97ba-377e1ed1c950,Owner 5415,+91XXXXXXXXXX,,Delhi,IN,Seller,Generated
f207db96-bcbf-4719-ba4e-ec8d5722388f,Owner 641,+91XXXXXXXXXX,,London,IN,Seller,Generated
beddc85b-0b63-42f0-8c4e-1a79874da8c6,Owner 9079,+91XXXXXXXXXX,,London,IN,Seller,Generated
