lead_id,name,phone,email,city,country,type,notes
53dc285c-a35c-432c-95f0-4feca2597567,Owner 267,+91XXXXXXXXXX,,New York,IN,Seller,Generated
99d21c92-8ae1-40d2-8064-d63da464dc37,Owner 9974,+91XXXXXXXXXX,,Mumbai,IN,Seller,Generated
d8097109-ed72-49f4-a7e5-cf9182a5f652,Owner 9727,+91XXXXXXXXXX,,Delhi,IN,Seller,Generated
cddf2e68-3190-449f-b18e-ba0e267c5cbf,Owner 6925,+91XXXXXXXXXX,,London,IN,Seller,Generated
2da2ea99-a9e8-426e-a6c5-2a14698b0c69,Owner 5968,+91XXXXXXXXXX,,Delhi,IN,Seller,Generated
34f3747c-e235-4d22-ae51-435b5e8ec487,Owner 8572,+91XXXXXXXXXX,,New York,IN,Seller,Generated
c38017a3-9b4b-49c5-a7c0-bb0b3056e83a,Owner 9668,+91XXXXXXXXXX,,London,IN,Seller,Generated
211f17b6-52ea-41d9-af56-a572c14d6c67,Owner 9040,+91XXXXXXXXXX,,New York,IN,Seller,Generated
4ecfe1c5-1c5f-47a2-9d50-659564ead952,Owner 7991,+91XXXXXXXXXX,,London,IN,Seller,Generated
7507c5b4-0158-448d-9af9-b46f4816b11b,Owner 6971,+91XXXXXXXXXX,,London,IN,Seller,Generated
c7ef33fc-7a5a-47b7-8a71-e3457566e708,Owner 4719,+91XXXXXXXXXX,,Mumbai,IN,Seller,Generated
dd3cb208-037c-4c08-b8f6-f83e2387d13d,Owner 2210,+91XXXXXXXXXX,,London,IN,Seller,Generated
5ddffcf2-687a-482b-9f43-8f47a78bf4c8,Owner 7698,+91XXXXXXXXXX,,New York,IN,Seller,Generated
fb117303-4daf-4528-911d-0217eb6a0904,Owner 1642,+91XXXXXXXXXX,,Mumbai,IN,Seller,Generated
4598268b-4c08-4976-a511-f03c53674ad6,Owner 8296,+91XXXXXXXXXX,,Delhi,IN,Seller,Generated
312b1952-5d6d-49f5-a846-ef9abddedf06,Owner 2862,+91XXXXXXXXXX,,New York,IN,Seller,Generated
7fa3af5f-742a-4998-9907-4f3093cae2d8,Owner 1404,+91XXXXXXXXXX,,New York,IN,Seller,Generated
52bd6e73-70d5-461d-9203-7af52330296b,Owner 1552,+91XXXXXXXXXX,,Delhi,IN,Seller,Generated
9fd57fc4-f277-4542-8e2d-1c76671b4e48,Owner 3549,+91XXXXXXXXXX,,London,IN,Seller,Generated
f4521689-b9ec-4e7a-be89-e821c5da01f3,Owner 6520,+91XXXXXXXXXX,,Delhi,IN,Seller,Generated
881bf3be-2c6c-4d79-8bd9-725fde86109f,Owner 2277,+91XXXXXXXXXX,,Mumbai,IN,Seller,Generated
0a7a2e56-9cd5-4403-9c77-ed662e43cc2a,Owner 537,+91XXXXXXXXXX,,Delhi,IN,Seller,Generated
eb2dff7a-62b2-436d-9e4a-39b2498f21c3,Owner 866,+91XXXXXXXXXX,,Mumbai,IN,Seller,Generated
f2110571-9cca-48c1-846f-2cae4801b314,Owner 5785,+91XXXXXXXXXX,,New York,IN,Seller,Generated
50e2fdaf-77a2-4d87-b4ff-39df370d60aa,Owner 8994,+91XXXXXXXXXX,,Delhi,IN,Seller,Generated
f77a2555-8206-419e-ba48-c9eb338a2bd9,Owner 1546,+91XXXXXXXXXX,,New York,IN,Seller,Generated
36d97706-45b7-4c51-b9b8-77c233b2c188,Owner 4144,+91XXXXXXXXXX,,London,IN,Seller,Generated
89eb803a-699a-4d5c-ae2d-764885ba235a,Owner 5201,+91XXXXXXXXXX,,Delhi,IN,Seller,Generated
0c8cd090-37af-4b8b-8947-12f826f99584,Owner 2813,+91XXXXXXXXXX,,New York,IN,Seller,Generated
69d6ec40-4b43-461f-8a09-b8e18b50a801,Owner 8705,+91XXXXXXXXXX,,Delhi,IN,Seller,Generated
62a6e6ed-ce1f-4875-a243-8274de08ec73,Owner 7479,+91XXXXXXXXXX,,London,IN,Seller,Generated
0233dbb9-e503-4d80-ae79-ad8f080c6764,Owner 9615,+91XXXXXXXXXX,,London,IN,Seller,Generated
f3788b5b-0cfc-4eee-9606-723a4f40aa25,Owner 9812,+91XXXXXXXXXX,,Mumbai,IN,Seller,Generated
6f1d7937-c25f-4c64-bcc7-8819391a93a8,Owner 6553,+91XXXXXXXXXX,,Mumbai,IN,Seller,Generated
54092c08-53da-4b10-9dc3-9005c141c555,Owner 7203,+91XXXXXXXXXX,,Mumbai,IN,Seller,Generated
4efda8b0-5698-47c5-8930-31a93996ff3e,Owner 246,+91XXXXXXXXXX,,Mumbai,IN,Seller,Generated
a6cd9541-1a14-4cab-905b-8b5e31e403a7,Owner 2384,+91XXXXXXXXXX,,Mumbai,IN,Seller,Generated
1792d43e-2ad1-48c1-9d0a-39030cf560ce,Owner 3860,+91XXXXXXXXXX,,Mumbai,IN,Seller,Generated
f32016c8-ac5d-4fc8-b1a4-bd6c14eb000c,Owner 2587,+91XXXXXXXXXX,,New York,IN,Seller,Generated
67c708bf-fe5c-46ed-8518-eaf60fed6692,Owner 9167,+91XXXXXXXXXX,,Delhi,IN,Seller,Generated
b86e9129-b468-491b-8dd2-9c59e63fa16e,Owner 3000,+91XXXXXXXXXX,,New York,IN,Seller,Generated
2da92292-a510-42dd-9185-1f54113d2653,Owner 900,+91XXXXXXXXXX,,London,IN,Seller,Generated
a9d25d27-08ee-4cda-9156-4e7f79b3ee65,Owner 8432,+91XXXXXXXXXX,,Delhi,IN,Seller,Generated
cf358815-9c38-467f-912c-41785e4d2247,Owner 4010,+91XXXXXXXXXX,,New York,IN,Seller,Generated
31c93b75-5f00-49d3-a88c-336a846e423f,Owner 8441,+91XXXXXXXXXX,,Delhi,IN,Seller,Generated
d670c492-a2a8-45ab-88f2-4049a5ce45da,Owner 4074,+91XXXXXXXXXX,,Delhi,IN,Seller,Generated
5cfc98c0-07c4-4b2d-a0ca-f9ef7183ef60,Owner 9712,+91XXXXXXXXXX,,New York,IN,Seller,Generated
8dc60fc1-fb04-408e-906d-b8fb71be17e2,Owner 8065,+91XXXXXXXXXX,,Delhi,IN,Seller,Generated
ed9b2440-d998-4899-9ac9-87a1b157c66b,Owner 8479,+91XXXXXXXXXX,,Delhi,IN,Seller,Generated
25d6a1cd-51d9-4bf1-8c08-2c03ac612b4c,Owner 5721,+91XXXXXXXXXX,,Delhi,IN,Seller,Generated
3817aced-8262-4d95-a1c6-3308c9a1a67f,Owner 7808,+91XXXXXXXXXX,,London,IN,Seller,Generated
1f2d2d19-8524-4a74-914f-fe18723a437b,Owner 1470,+91XXXXXXXXXX,,New York,IN,Seller,Generated
6b988eb0-60d1-4694-b693-ddbf1787e3e1,Owner 896,+91XXXXXXXXXX,,Mumbai,IN,Seller,Generated
567a1d51-d6b8-4b1a-95ed-30f438a3b1a4,Owner 3290,+91XXXXXXXXXX,,New York,IN,Seller,Generated
fba63198-917a-4937-a084-c7151567925f,Owner 7785,+91XXXXXXXXXX,,London,IN,Seller,Generated
f71a5dd8-84e3-4b11-b20f-96d016cf4667,Owner 2935,+91XXXXXXXXXX,,London,IN,Seller,Generated
3e6b7d59-bfc4-42d1-b958-d1ef5971e379,Owner 5602,+91XXXXXXXXXX,,London,IN,Seller,Generated
ceae4e69-72c7-4974-bf9f-364fe8ccccf5,Owner 8711,+91XXXXXXXXXX,,Mumbai,IN,Seller,Generated
231d2fc4-186a-499a-97c3-75cef1c91a02,Owner 2926,+91XXXXXXXXXX,,Mumbai,IN,Seller,Generated
731a55ed-7326-4d53-b0b9-ac0a5e860f0d,Owner 9512,+91XXXXXXXXXX,,London,IN,Seller,Generated
c0226804-f172-4d3d-b65d-a448a8203fb9,Owner 7127,+91XXXXXXXXXX,,Delhi,IN,Seller,Generated
a491ac35-86e4-4cd5-923c-edc5e5f635e4,Owner 4008,+91XXXXXXXXXX,,Delhi,IN,Seller,Generated
8df97267-f699-46bb-a76f-c05d79a2045c,Owner 2570,+91XXXXXXXXXX,,London,IN,Seller,Generated
a872c3a2-6a7f-4d6d-b3f7-26713abe283a,Owner 8813,+91XXXXXXXXXX,,New York,IN,Seller,Generated
cdbf89bb-01c5-41ba-a3e2-b93c6b76a63b,Owner 2862,+91XXXXXXXXXX,,Mumbai,IN,Seller,Generated
d272ca4f-9c40-47bb-9b36-6737511838c1,Owner 5689,+91XXXXXXXXXX,,Mumbai,IN,Seller,Generated
fa6a46ba-9c7b-4a1c-b690-fd30e6b3401d,Owner 4673,+91XXXXXXXXXX,,London,IN,Seller,Generated
73148339-17d0-4887-bc63-e2054c42ca75,Owner 887,+91XXXXXXXXXX,,London,IN,Seller,Generated
0cba7920-2379-4f5f-94bd-ef6fa1869997,Owner 2414,+91XXXXXXXXXX,,Delhi,IN,Seller,Generated
54d606ad-403f-4dc2-bf75-4e943b338df0,Owner 2072,+91XXXXXXXXXX,,Mumbai,IN,Seller,Generated
826b9ad6-6976-40bd-8a25-d4a182b97eee,Owner 363,+91XXXXXXXXXX,,London,IN,Seller,Generated
2c89265c-8a92-4b95-b479-ed3d39cb25c2,Owner 8261,+91XXXXXXXXXX,,London,IN,Seller,Generated
4527ca42-d001-4d1f-8349-843b53c94ec0,Owner 2725,+91XXXXXXXXXX,,London,IN,Seller,Generated
d33114d1-584a-4367-915a-f43d5ae609a9,Owner 4239,+91XXXXXXXXXX,,Delhi,IN,Seller,Generated
6e46352e-f726-4275-a3e9-0ef4807b0cc1,Owner 528,+91XXXXXXXXXX,,New York,IN,Seller,Generated
f2e86054-203d-4a6f-8114-5b4a0dd98a58,Owner 1990,+91XXXXXXXXXX,,London,IN,Seller,Generated
435be6fe-61ef-4398-86a5-161b854dd1e6,Owner 9024,+91XXXXXXXXXX,,New York,IN,Seller,Generated
a32a6a85-7a5f-46f8-9cfe-6efbba25d22a,Owner 4370,+91XXXXXXXXXX,,Delhi,IN,Seller,Generated
160d7aa1-028e-404c-844b-a5c7df8c0469,Owner 2338,+91XXXXXXXXXX,,New York,IN,Seller,Generated
1a14ba7a-7f2c-4f72-b990-fa2a220b4fd4,Owner 5594,+91XXXXXXXXXX,,Mumbai,IN,Seller,Generated
adb9ac57-fbef-4405-b737-b52346fb8932,Owner 5336,+91XXXXXXXXXX,,London,IN,Seller,Generated
e94ed715-0b20-4f66-ac8f-b060af606130,Owner 6483,+91XXXXXXXXXX,,Mumbai,IN,Seller,Generated
de1506fb-60fa-4b11-9034-e2a532a27369,Owner 8218,+91XXXXXXXXXX,,Mumbai,IN,Seller,Generated
e1c3e5b0-3fa6-4550-af2b-14d9a5de8ede,Owner 2326,+91XXXXXXXXXX,,New York,IN,Seller,Generated
bf41539d-03a3-4791-8758-edbda16a250f,Owner 2180,+91XXXXXXXXXX,,Mumbai,IN,Seller,Generated
77d7015f-c048-4389-a1c9-401c20fa7c77,Owner 7344,+91XXXXXXXXXX,,New York,IN,Seller,Generated
f0cffdfd-d66c-41f4-a024-d880d7afce83,Owner 5609,+91XXXXXXXXXX,,London,IN,Seller,Generated
79d91c78-5ec7-434a-8ced-1ff4f806cafa,Owner 3052,+91XXXXXXXXXX,,New York,IN,Seller,Generated
844e068e-d2a3-47c8-9a13-a6a4c64d8bbf,Owner 8231,+91XXXXXXXXXX,,Delhi,IN,Seller,Generated
9544ed89-5813-4e31-bfcd-dcdc9d3a9281,Owner 6163,+91XXXXXXXXXX,,Mumbai,IN,Seller,Generated
19b77fb4-531f-4db5-a436-0d328c47dc0a,Owner 135,+91XXXXXXXXXX,,New York,IN,Seller,Generated
d4b0a882-c7b5-4249-bb04-6c367c012e12,Owner 2781,+91XXXXXXXXXX,,Delhi,IN,Seller,Generated
ef33fdc0-b7b5-43a1-b361-0fda16f1717b,Owner 409,+91XXXXXXXXXX,,New York,IN,Seller,Generated
f0acaa64-c6aa-4f1b-9e97-5f8fcde36fb5,Owner 2692,+91XXXXXXXXXX,,London,IN,Seller,Generated
3ddca34c-7aaa-4045-92aa-5711a00fffcb,Owner 5492,+91XXXXXXXXXX,,Mumbai,IN,Seller,Generated
7a33cdee-008c-4558-9a58-eb5b2df86da7,Owner 9278,+91XXXXXXXXXX,,Mumbai,IN,Seller,Generated
0116381b-d2b8-4d0c-9586-477ead508213,Owner 5981,+91XXXXXXXXXX,,Mumbai,IN,Seller,Generated
b9333737-c042-46d2-81f2-1c2236920fae,Owner 6260,+91XXXXXXXXXX,,Mumbai,IN,Seller,Generated
bea19b9e-c82c-46df-9632-eb7eacbbcc9f,Owner 5798,+91XXXXXXXXXX,,New York,IN,Seller,Generated
fa5a9a70-2894-4b47-8744-7d3dc59c8d64,Owner 8486,+91XXXXXXXXXX,,London,IN,Seller,Generated
97732600-2517-43d5-8e3a-ed35b196dedd,Owner 103,+91XXXXXXXXXX,,New York,IN,Seller,Generated
49f92df3-ca0e-4673-a036-cfffbef47809,Owner 611,+91XXXXXXXXXX,,Delhi,IN,Seller,Generated
3f02bbf9-3ff5-483f-a971-03e0406014d0,Owner 5115,+91XXXXXXXXXX,,Delhi,IN,Seller,Generated
c45b1e4f-c353-4ac8-b495-4662e975af7d,Owner 3426,+91XXXXXXXXXX,,Delhi,IN,Seller,Generated
7a99efb0-3c94-4872-9986-ee237d7fa437,Owner 6262,+91XXXXXXXXXX,,Mumbai,IN,Seller,Generated
3bc47e41-f642-4212-a72d-6a5005503a5c,Owner 8204,+91XXXXXXXXXX,,Delhi,IN,Seller,Generated
02e5ddab-8330-4abd-9a2e-da043af51ac9,Owner 6073,+91XXXXXXXXXX,,Delhi,IN,Seller,Generated
511585b0-3d7e-4e1d-9613-46cb92ab7f27,Owner 4158,+91XXXXXXXXXX,,New York,IN,Seller,Generated
5fd1e015-6e01-4c4f-91d3-81057434abed,Owner 2323,+91XXXXXXXXXX,,Mumbai,IN,Seller,Generated
bac39486-fda9-4a47-ab07-6e9cf530d7a6,Owner 6901,+91XXXXXXXXXX,,London,IN,Seller,Generated
770ff01c-7122-41f1-ae81-2c1731ce8d9f,Owner 9782,+91XXXXXXXXXX,,New York,IN,Seller,Generated
26253e3d-96ee-489f-a6ba-cce689d24c38,Owner 6038,+91XXXXXXXXXX,,Delhi,IN,Seller,Generated
874801ec-219a-4710-b980-653d511b5fee,Owner 7669,+91XXXXXXXXXX,,London,IN,Seller,Generated
bfd9b408-0a70-4935-9ebd-d1a2de67c19b,Owner 2680,+91XXXXXXXXXX,,New York,IN,Seller,Generated
fa8c6a8d-a618-4c72-b40c-dcb230679e43,Owner 5778,+91XXXXXXXXXX,,Mumbai,IN,Seller,Generated
bfeb945f-a55a-48dd-bbd8-7db933288b4c,Owner 3713,+91XXXXXXXXXX,,Mumbai,IN,Seller,Generated
f9718c8e-c0ec-4a3d-ad81-ae38e4cc80fc,Owner 8744,+91XXXXXXXXXX,,Delhi,IN,Seller,Generated
48c2f07d-48ed-4510-83b4-328d0459deb8,Owner 8378,+91XXXXXXXXXX,,Mumbai,IN,Seller,Generated
047bd1d7-1aa1-441e-b79b-e90f1673d982,Owner 4633,+91XXXXXXXXXX,,New York,IN,Seller,Generated
25f3bcf4-b1fb-4c96-83b8-f020301dbfef,Owner 8989,+91XXXXXXXXXX,,Mumbai,IN,Seller,Generated
bae7a913-154a-44bf-b62e-926cf9be0c7e,Owner 6668,+91XXXXXXXXXX,,New York,IN,Seller,Generated
262434ed-ad8a-4048-9f02-9a6fa42b2444,Owner 6094,+91XXXXXXXXXX,,Mumbai,IN,Seller,Generated
3ff7ee47-2df3-4b54-bf7a-7110f0890728,Owner 2054,+91XXXXXXXXXX,,London,IN,Seller,Generated
b5af27bf-4867-4a8b-bd32-86546715ba7b,Owner 17,+91XXXXXXXXXX,,London,IN,Seller,Generated
0fe2f022-2692-4850-8375-5d69e8fafb87,Owner 2,+91XXXXXXXXXX,,New York,IN,Seller,Generated
f1028a63-b03c-4e94-9184-3528a032f113,Owner 3480,+91XXXXXXXXXX,,London,IN,Seller,Generated
9c2c8ce1-5f1a-43e2-b7d0-4c6e15f7cb8d,Owner 1584,+91XXXXXXXXXX,,Delhi,IN,Seller,Generated
1e851a00-800d-432b-baf7-e00ef285d2a3,Owner 2316,+91XXXXXXXXXX,,New York,IN,Seller,Generated
5b97f9de-76c2-47f7-b567-340fdb07df37,Owner 6431,+91XXXXXXXXXX,,New York,IN,Seller,Generated
1b389eff-b7ef-4aa9-9553-dafc73cc7675,Owner 2922,+91XXXXXXXXXX,,Mumbai,IN,Seller,Generated
9ff14baf-a5fb-4cd2-83ad-41ba789195b7,Owner 5758,+91XXXXXXXXXX,,New York,IN,Seller,Generated
b864f2d3-e259-4869-a1e8-959ee555503f,Owner 8253,+91XXXXXXXXXX,,Mumbai,IN,Seller,Generated
c2afeeac-5273-443c-a565-37af4498877e,Owner 1984,+91XXXXXXXXXX,,Delhi,IN,Seller,Generated
51a0d781-fcbd-4eca-9ebe-68cb3cac6d3a,Owner 6126,+91XXXXXXXXXX,,Delhi,IN,Seller,Generated
2d7907a3-b720-40ca-b7c6-49a55d239a38,Owner 1417,+91XXXXXXXXXX,,London,IN,Seller,Generated
6edc6807-479e-489d-9769-0b644cba5cad,Owner 9141,+91XXXXXXXXXX,,New York,IN,Seller,Generated
1e05f9f2-36d5-41a9-a011-8890527c625a,Owner 6281,+91XXXXXXXXXX,,Delhi,IN,Seller,Generated
d3c2b468-9562-428a-bc25-2f8bff2eebe1,Owner 1336,+91XXXXXXXXXX,,New York,IN,Seller,Generated
5fa97ca2-53dc-4018-bcb4-d44bb9bd3103,Owner 2013,+91XXXXXXXXXX,,Delhi,IN,Seller,Generated
c98ff6e8-b2ea-4197-a6d0-9e1e0fdabec0,Owner 5450,+91XXXXXXXXXX,,New York,IN,Seller,Generated
db440ca5-1d7e-4722-bfd9-dd8d3fd03089,Owner 3396,+91XXXXXXXXXX,,Delhi,IN,Seller,Generated
bd7d315d-6aaf-465e-9853-3c9ff46e8e58,Owner 1722,+91XXXXXXXXXX,,Delhi,IN,Seller,Generated
9d1ed673-a8ce-44a4-b462-1b9199224579,Owner 5182,+91XXXXXXXXXX,,Delhi,IN,Seller,Generated
237e062f-64f5-46c4-bc37-0694b0b79a1b,Owner 9926,+91XXXXXXXXXX,,London,IN,Seller,Generated
8cd97e0e-cee0-4429-8ab7-f9130178bc1a,Owner 7807,+91XXXXXXXXXX,,New York,IN,Seller,Generated
bb7ce414-a8ce-4536-b1cb-15475c5ddb58,Owner 2684,+91XXXXXXXXXX,,Delhi,IN,Seller,Generated
29ebafb5-73ac-4cea-afe9-fd7b2e8ac413,Owner 2008,+91XXXXXXXXXX,,Mumbai,IN,Seller,Generated
7eeb2d3c-5ae8-4fac-b0d0-8491f04c88b3,Owner 6228,+91XXXXXXXXXX,,New York,IN,Seller,Generated
62042e1d-d321-4dcc-9e7b-55f7e8e64a93,Owner 1897,+91XXXXXXXXXX,,London,IN,Seller,Generated
9379b2ee-a4ca-409d-92a3-909280508403,Owner 6647,+91XXXXXXXXXX,,Delhi,IN,Seller,Generated
efb676bb-efeb-48c3-9b0c-21c1e25d32b8,Owner 1568,+91XXXXXXXXXX,,London,IN,Seller,Generated
8bfb3a79-c856-485c-bb20-20be2756b2d4,Owner 7480,+91XXXXXXXXXX,,London,IN,Seller,Generated
8571713f-bd7f-428e-acf2-0f3f42e6f1db,Owner 9934,+91XXXXXXXXXX,,Delhi,IN,Seller,Generated
73d7a369-90ef-4523-9174-267e64576bcf,Owner 2937,+91XXXXXXXXXX,,Delhi,IN,Seller,Generated
33b0ade1-8a14-423a-8deb-f9342ed8acc0,Owner 9364,+91XXXXXXXXXX,,Mumbai,IN,Seller,Generated
a9fe2497-edd1-403b-88f7-a14bbcea7e9d,Owner 8140,+91XXXXXXXXXX,,Delhi,IN,Seller,Generated
db78065b-9f61-4760-aa25-c865d44b4424,Owner 86,+91XXXXXXXXXX,,New York,IN,Seller,Generated
4b8bf24c-6a49-4221-9321-a6bfa87afd02,Owner 2804,+91XXXXXXXXXX,,New York,IN,Seller,Generated
228adc7c-2fee-4a38-a6ec-3829c58e6f48,Owner 5873,+91XXXXXXXXXX,,New York,IN,Seller,Generated
7abda139-761e-4ac9-8285-ff4956187d79,Owner 4014,+91XXXXXXXXXX,,London,IN,Seller,Generated
3cba7e5f-7372-4767-a64e-78f7a196a844,Owner 3850,+91XXXXXXXXXX,,Mumbai,IN,Seller,Generated
257734bc-40cb-4a7c-8fc9-4e979fd6fcb5,Owner 8215,+91XXXXXXXXXX,,Mumbai,IN,Seller,Generated
aae6a3af-21cd-4a76-833f-bf985a9ee484,Owner 4230,+91XXXXXXXXXX,,Mumbai,IN,Seller,Generated
3f994836-30f3-4af8-8256-4fee676a67b0,Owner 5883,+91XXXXXXXXXX,,New York,IN,Seller,Generated
81408a0a-a5bf-46fa-a9b4-635903998ee2,Owner 6817,+91XXXXXXXXXX,,New York,IN,Seller,Generated
4a7cca07-b9fe-4fa7-aec3-c4e871dbdd20,Owner 7072,+91XXXXXXXXXX,,Mumbai,IN,Seller,Generated
1372db68-d5f9-434a-9b24-70c802a37e34,Owner 6839,+91XXXXXXXXXX,,Delhi,IN,Seller,Generated
369e644a-40f1-4127-ac09-b5ef1e23a219,Owner 8127,+91XXXXXXXXXX,,Delhi,IN,Seller,Generated
90eec72a-85ad-4d27-9612-7e13e8c7d7f7,Owner 4648,+91XXXXXXXXXX,,New York,IN,Seller,Generated
9f802f0d-7465-4409-90bb-d6073557519f,Owner 247,+91XXXXXXXXXX,,London,IN,Seller,Generated
9eb6d961-8a16-4761-82d3-d6c83e477cf8,Owner 2396,+91XXXXXXXXXX,,London,IN,Seller,Generated
0ba19694-392d-4bd8-b0bb-05711a6bd00d,Owner 7926,+91XXXXXXXXXX,,Mumbai,IN,Seller,Generated
50262e00-5098-432d-b602-03a99ff1fb71,Owner 537,+91XXXXXXXXXX,,Delhi,IN,Seller,Generated
0cf75101-3903-472b-bd45-66a1fc19656d,Owner 2046,+91XXXXXXXXXX,,Delhi,IN,Seller,Generated
48d091a2-036d-4870-9a5e-e1a3a81f91bf,Owner 7912,+91XXXXXXXXXX,,London,IN,Seller,Generated
4be71f05-70bd-49b0-915c-1ecf7f04cb29,Owner 8139,+91XXXXXXXXXX,,New York,IN,Seller,Generated
f59bd8e4-42eb-44dd-96fb-453ea635b57d,Owner 8111,+91XXXXXXXXXX,,London,IN,Seller,Generated
ab8a2d1b-8875-452a-bc18-ff615c134952,Owner 2122,+91XXXXXXXXXX,,New York,IN,Seller,Generated
ba5bcced-3006-4a98-bf48-d641075d8e22,Owner 7162,+91XXXXXXXXXX,,London,IN,Seller,Generated
f882af1e-73f6-426f-85ec-345af060011b,Owner 3782,+91XXXXXXXXXX,,New York,IN,Seller,Generated
0d541065-35b1-4037-b73c-d5d85bd5f599,Owner 4271,+91XXXXXXXXXX,,New York,IN,Seller,Generated
b4153adc-318d-46ef-87e4-9f6d6ccea32f,Owner 1653,+91XXXXXXXXXX,,Delhi,IN,Seller,Generated
353efb66-e7b8-4447-a5fb-85d78f1716cf,Owner 1481,+91XXXXXXXXXX,,Mumbai,IN,Seller,Generated
275ba079-8352-4867-a81d-47bbdcb36c64,Owner 1189,+91XXXXXXXXXX,,New York,IN,Seller,Generated
dcd439ae-6f3e-4be8-8e70-212cae12af3f,Owner 8132,+91XXXXXXXXXX,,Delhi,IN,Seller,Generated
6fd64f29-98e7-4a84-8e1b-1f215fb40465,Owner 919,+91XXXXXXXXXX,,Mumbai,IN,Seller,Generated
da879c0a-3032-418e-aa92-71b39c265793,Owner 1647,+91XXXXXXXXXX,,New York,IN,Seller,Generated
e1b4bac9-5582-4db8-aa44-9b03230cc38c,Owner 6621,+91XXXXXXXXXX,,New York,IN,Seller,Generated
5aa36bae-bdec-4e29-a3ea-695147b55652,Owner 1937,+91XXXXXXXXXX,,London,IN,Seller,Generated
8a6ee0dd-62c7-4396-a3dd-4e35cb6cf25d,Owner 4724,+91XXXXXXXXXX,,New York,IN,Seller,Generated
9f6bea97-3d3d-4a5c-9f91-1064b60460c7,Owner 769,+91XXXXXXXXXX,,Mumbai,IN,Seller,Generated
93678a49-87bd-4fed-a378-a26455258804,Owner 2857,+91XXXXXXXXXX,,Delhi,IN,Seller,Generated
58422b8d-b720-4b6f-8fce-6fe3abaf8d34,Owner 5095,+91XXXXXXXXXX,,London,IN,Seller,Generated
c00a234d-de4c-4d60-a33a-dc0a55f70e8b,Owner 1185,+91XXXXXXXXXX,,London,IN,Seller,Generated
8f087827-9ea8-45c6-927b-7db6cb2d89cd,Owner 4758,+91XXXXXXXXXX,,New York,IN,Seller,Generated
b59fd1fa-7787-4211-94b0-280a45d7c78d,Owner 1590,+91XXXXXXXXXX,,Mumbai,IN,Seller,Generated
fe2597fd-2985-455a-9ec7-27720a01b917,Owner 9745,+91XXXXXXXXXX,,Mumbai,IN,Seller,Generated
1b786579-ae9b-423f-ada4-e74666e2d42f,Owner 3840,+91XXXXXXXXXX,,London,IN,Seller,Generated
f098e897-9790-43aa-af63-e1d8153e8835,Owner 8149,+91XXXXXXXXXX,,Delhi,IN,Seller,Generated
b4fa5d7a-baab-4b27-be31-b3701bfe9cf9,Owner 6013,+91XXXXXXXXXX,,Mumbai,IN,Seller,Generated
ddb1c47a-6e37-4f71-a9e5-a7f0cebebd0d,Owner 7645,+91XXXXXXXXXX,,Delhi,IN,Seller,Generated
98aae09d-c0a1-4d27-8a3f-32a9390ad16c,Owner 6556,+91XXXXXXXXXX,,Mumbai,IN,Seller,Generated
9df73ffe-c396-42d1-af3a-12f4408e0638,Owner 9870,+91XXXXXXXXXX,,London,IN,Seller,Generated
34d164a5-e0b1-4e86-9e90-1ffb165eb05e,Owner 3773,+91XXXXXXXXXX,,London,IN,Seller,Generated
eb09b98e-d79a-4a53-802d-fc936abdb1be,Owner 6703,+91XXXXXXXXXX,,Mumbai,IN,Seller,Generated
6a68fe30-5771-43b8-950f-4b09b79ed1a0,Owner 517,+91XXXXXXXXXX,,Mumbai,IN,Seller,Generated
7fc62981-818b-441c-87fc-ccf0c9e51ac5,Owner 1145,+91XXXXXXXXXX,,Mumbai,IN,Seller,Generated
fffe6d13-6695-43aa-82c1-e1c566186be2,Owner 7273,+91XXXXXXXXXX,,Delhi,IN,Seller,Generated
96f625fd-7ccd-4563-b710-a8567e560266,Owner 6583,+91XXXXXXXXXX,,New York,IN,Seller,Generated
2c7d9eb1-cce2-4414-9f5a-093c07f4eede,Owner 2391,+91XXXXXXXXXX,,Mumbai,IN,Seller,Generated
3548d335-b451-4282-be28-622202224c04,Owner 636,+91XXXXXXXXXX,,London,IN,Seller,Generated
6be05bcf-4ae1-4c6b-9e89-f1dcaf89282d,Owner 7892,+91XXXXXXXXXX,,Mumbai,IN,Seller,Generated
67ec7e1a-31c9-485e-accc-c6add32ee6a8,Owner 9509,+91XXXXXXXXXX,,London,IN,Seller,Generated
7d1737ed-c257-45cb-bc07-df3923408622,Owner 8058,+91XXXXXXXXXX,,London,IN,Seller,Generated
56fbb7f9-aff0-4ee4-9b92-479f476aafc0,Owner 5559,+91XXXXXXXXXX,,Mumbai,IN,Seller,Generated
ad816b1c-bf78-4022-b1a8-2ceb572908a9,Owner 8965,+91XXXXXXXXXX,,New York,IN,Seller,Generated
c035c6d6-5070-47f3-bc1e-059ca0f01611,Owner 9958,+91XXXXXXXXXX,,London,IN,Seller,Generated
1e2695c5-3142-4084-b55e-8377aabcc5b3,Owner 6769,+91XXXXXXXXXX,,Delhi,IN,Seller,Generated
c9e245de-0bc2-4fc8-812d-76c3c205d0f6,Owner 4614,+91XXXXXXXXXX,,New York,IN,Seller,Generated
15c8f77b-65b0-480f-a54e-6452d9baf60e,Owner 1900,+91XXXXXXXXXX,,New York,IN,Seller,Generated
dff53841-dddd-4f77-a1d9-d46bafe24507,Owner 2113,+91XXXXXXXXXX,,London,IN,Seller,Generated
fc7c6534-9211-4476-aacb-41b35cf5cfed,Owner 7689,+91XXXXXXXXXX,,London,IN,Seller,Generated
4f5db03c-7605-487e-bf49-4819138edc44,Owner 4763,+91XXXXXXXXXX,,London,IN,Seller,Generated
38686cb9-9849-4d0a-94d3-1c96001e92d5,Owner 5411,+91XXXXXXXXXX,,Mumbai,IN,Seller,Generated
a4091992-79fb-4571-804e-e5bd324e0beb,Owner 522,+91XXXXXXXXXX,,New York,IN,Seller,Generated
d9fdcff0-b575-4e55-94f7-827605703f43,Owner 3956,+91XXXXXXXXXX,,New York,IN,Seller,Generated
3aa528d4-db56-4c30-9c1e-d62d806b8aae,Owner 2940,+91XXXXXXXXXX,,Delhi,IN,Seller,Generated
78b0553f-48ec-4b2e-8546-7323844ca222,Owner 7788,+91XXXXXXXXXX,,Delhi,IN,Seller,Generated
8029b763-ea1e-4e10-ab7a-1a31db8ee8e9,Owner 2985,+91XXXXXXXXXX,,New York,IN,Seller,Generated
cba26627-4cb1-4d23-9743-86835541cbe5,Owner 7851,+91XXXXXXXXXX,,Delhi,IN,Seller,Generated
aef1050b-46f6-448e-85e8-a7ddc93e5e95,Owner 5044,+91XXXXXXXXXX,,New York,IN,Seller,Generated
85a5014e-ffcf-444e-92ec-db792d0b3e5a,Owner 5628,+91XXXXXXXXXX,,Mumbai,IN,Seller,Generated
f74eb9dd-4c9f-499f-83d7-905d999f1d5d,Owner 5483,+91XXXXXXXXXX,,London,IN,Seller,Generated
f9dc7e72-8013-43f1-929f-db53ce711e22,Owner 8974,+91XXXXXXXXXX,,New York,IN,Seller,Generated
355add43-9221-425e-920a-f0a6089a7dfa,Owner 6825,+91XXXXXXXXXX,,Mumbai,IN,Seller,Generated
e7d97ff8-012e-4665-a015-7e3adb87116e,Owner 7991,+91XXXXXXXXXX,,Mumbai,IN,Seller,Generated
e03a9503-2c5c-481c-9ef2-2ad67de522d5,Owner 383,+91XXXXXXXXXX,,Mumbai,IN,Seller,Generated
9be3ae69-0727-435a-871f-a65f0352fd33,Owner 9995,+91XXXXXXXXXX,,Delhi,IN,Seller,Generated
53b235da-455d-45b0-a3cd-a928e9271a5a,Owner 2349,+91XXXXXXXXXX,,Delhi,IN,Seller,Generated
f60ec84e-7078-4f70-845a-77549397a39a,Owner 7336,+91XXXXXXXXXX,,Mumbai,IN,Seller,Generated
83d75dd8-b6c7-46fa-a396-b38c5cb6480f,Owner 6164,+91XXXXXXXXXX,,Mumbai,IN,Seller,Generated
b9dfbcc8-1779-4455-94e1-a94b19b02c56,Owner 5989,+91XXXXXXXXXX,,Delhi,IN,Seller,Generated
4f6de808-e1f1-4212-a8c0-dd556ecfc859,Owner 5633,+91XXXXXXXXXX,,Delhi,IN,Seller,Generated
7f6cb31b-9d6d-42fc-9efb-a35057d93d3a,Owner 9061,+91XXXXXXXXXX,,Mumbai,IN,Seller,Generated
cbbe4675-2f0e-4552-bd72-772151b648ea,Owner 8738,+91XXXXXXXXXX,,Mumbai,IN,Seller,Generated
3d4ba5f8-86d6-4723-8cbf-811b530cfda4,Owner 9641,+91XXXXXXXXXX,,Mumbai,IN,Seller,Generated
7fe82b9d-26be-4b84-8c15-80ebae68a4cf,Owner 1740,+91XXXXXXXXXX,,Mumbai,IN,Seller,Generated
972a1161-382a-4724-ae33-bf7c771530ce,Owner 7580,+91XXXXXXXXXX,,Mumbai,IN,Seller,Generated
4d5361a0-8ae0-42e6-b42d-5dac784a8bb8,Owner 8504,+91XXXXXXXXXX,,Mumbai,IN,Seller,Generated
a240f0d4-3d74-4755-a3b0-33aa187be70e,Owner 1235,+91XXXXXXXXXX,,Delhi,IN,Seller,Generated
e1a27453-40b7-441e-b605-329a6e6762cb,Owner 2974,+91XXXXXXXXXX,,Mumbai,IN,Seller,Generated
d829d61f-3b0c-4070-aa9f-211e0ce65684,Owner 4577,+91XXXXXXXXXX,,New York,IN,Seller,Generated
ee80c336-f60a-4277-8be2-815fa103a83e,Owner 2042,+91XXXXXXXXXX,,Delhi,IN,Seller,Generated
f94eb2d4-3a81-4b18-8aa6-8ad181dda382,Owner 624,+91XXXXXXXXXX,,London,IN,Seller,Generated
7de40967-0811-425c-8e74-01a5d6a188d1,Owner 5090,+91XXXXXXXXXX,,Delhi,IN,Seller,Generated
2a136520-9b65-434a-8ff7-75d02a0a5c04,Owner 4261,+91XXXXXXXXXX,,Mumbai,IN,Seller,Generated
fef97f6b-d12b-4dc1-9d59-c116c6c31393,Owner 5451,+91XXXXXXXXXX,,New York,IN,Seller,Generated
3cb1e18d-ca0b-46eb-9f55-febdca081720,Owner 7097,+91XXXXXXXXXX,,London,IN,Seller,Generated
52f1fb69-6e2a-44c2-ad1f-322dff58143d,Owner 4207,+91XXXXXXXXXX,,Delhi,IN,Seller,Generated
dac48bf8-c33f-4c22-bbfe-99ae1b747f24,Owner 1682,+91XXXXXXXXXX,,Delhi,IN,Seller,Generated
76e5c32a-f05c-4411-bfa8-990ae896e5e6,Owner 3459,+91XXXXXXXXXX,,New York,IN,Seller,Generated
aa137ce0-93ac-4690-a91a-ccdb28dadfe7,Owner 8559,+91XXXXXXXXXX,,New York,IN,Seller,Generated
40a05a0b-a761-42aa-9ebb-a125489cf7d9,Owner 4610,+91XXXXXXXXXX,,Mumbai,IN,Seller,Generated
dc92d0c7-32bc-4d55-b4d8-769bd751aeac,Owner 9342,+91XXXXXXXXXX,,Mumbai,IN,Seller,Generated
97e199ad-1b38-484f-909f-949c97a17fe9,Owner 2448,+91XXXXXXXXXX,,Mumbai,IN,Seller,Generated
4d0ddfd3-46d8-4f6e-afc1-059f06954952,Owner 4845,+91XXXXXXXXXX,,New York,IN,Seller,Generated
0ffc1a63-6b63-47db-ba4d-7f437efdc883,Owner 7378,+91XXXXXXXXXX,,London,IN,Seller,Generated
425f1812-2237-4461-b555-3b498f0de90d,Owner 8135,+91XXXXXXXXXX,,London,IN,Seller,Generated
2ced5a96-f9c6-4c44-8f7e-89312e6d1106,Owner 6042,+91XXXXXXXXXX,,London,IN,Seller,Generated
8d42e08d-7c35-4eca-b2b1-f5e432c5d1a7,Owner 4947,+91XXXXXXXXXX,,London,IN,Seller,Generated
bf17de62-b3d5-4d7d-9da3-395ad31d3aec,Owner 8836,+91XXXXXXXXXX,,London,IN,Seller,Generated
2a0e07c2-b896-4fd9-af5b-f7c4c562b032,Owner 6922,+91XXXXXXXXXX,,Mumbai,IN,Seller,Generated
810da2ca-8f84-4cbe-8d82-e5f241e7e968,Owner 3386,+91XXXXXXXXXX,,New York,IN,Seller,Generated
0acc08fb-7288-4e8d-a62d-d95ad06110ce,Owner 4612,+91XXXXXXXXXX,,Mumbai,IN,Seller,Generated
43c7dcce-17fd-4db4-afe8-eb4f24a40ad3,Owner 8724,+91XXXXXXXXXX,,Mumbai,IN,Seller,Generated
7cb407c3-ede7-47cf-8702-6f1f56832bae,Owner 7838,+91XXXXXXXXXX,,Mumbai,IN,Seller,Generated
dba6e0fa-6b86-49b8-b88b-e9c3cfd1ba32,Owner 3694,+91XXXXXXXXXX,,Mumbai,IN,Seller,Generated
74945ba9-eed5-4585-bb98-8800dabe292f,Owner 6981,+91XXXXXXXXXX,,Delhi,IN,Seller,Generated
a51d5d5d-9b77-47fb-9e76-87daa12f2109,Owner 5663,+91XXXXXXXXXX,,Delhi,IN,Seller,Generated
69aa2d18-93f2-450c-89d4-847b0d4a704d,Owner 4745,+91XXXXXXXXXX,,Delhi,IN,Seller,Generated
2aff29cc-b357-4440-8ce5-7514acb7faa6,Owner 8579,+91XXXXXXXXXX,,Delhi,IN,Seller,Generated
502536dc-471d-47b5-ba92-5ec033a380ed,Owner 842,+91XXXXXXXXXX,,London,IN,Seller,Generated
f75df3fd-7478-4bdd-93c7-57efef563cc1,Owner 4486,+91XXXXXXXXXX,,New York,IN,Seller,Generated
1dcd2dbb-6bd3-429e-ad24-a132b7941eb4,Owner 7647,+91XXXXXXXXXX,,Mumbai,IN,Seller,Generated
a9066772-52be-4316-8976-8b98f3812656,Owner 7391,+91XXXXXXXXXX,,London,IN,Seller,Generated
7fdf3541-68bb-44f0-8b73-d100350e32b5,Owner 1055,+91XXXXXXXXXX,,New York,IN,Seller,Generated
41aea5c8-258d-4603-9c22-12d176d968c5,Owner 4537,+91XXXXXXXXXX,,London,IN,Seller,Generated
d765aae7-ee1f-4a7f-8eb7-189579af075d,Owner 873,+91XXXXXXXXXX,,Delhi,IN,Seller,Generated
f7867e01-0e3e-43ba-b004-de45f36c1e68,Owner 7145,+91XXXXXXXXXX,,London,IN,Seller,Generated
668f1eae-55d2-4501-b555-62389b4989d6,Owner 8175,+91XXXXXXXXXX,,Delhi,IN,Seller,Generated
d7bca7e5-9023-49a0-9704-a9956581f5f7,Owner 8759,+91XXXXXXXXXX,,New York,IN,Seller,Generated
ef001532-3eb8-47ec-ba19-265e9c890b50,Owner 7450,+91XXXXXXXXXX,,New York,IN,Seller,Generated
679e965a-dd9b-4f20-826b-492ba71d279f,Owner 9799,+91XXXXXXXXXX,,Delhi,IN,Seller,Generated
bc5e9778-264f-4b87-8fe9-8259e579f57d,Owner 35,+91XXXXXXXXXX,,London,IN,Seller,Generated
cb889148-4988-4274-9e85-26de9406f6e1,Owner 5662,+91XXXXXXXXXX,,Delhi,IN,Seller,Generated
a019d1cd-2abf-468f-93a6-aa7c2ea18791,Owner 481,+91XXXXXXXXXX,,London,IN,Seller,Generated
9df35456-ab2c-41b9-a7ea-b4721f2f11af,Owner 6341,+91XXXXXXXXXX,,London,IN,Seller,Generated
b63b27a2-2c5a-4bcf-b23c-025a8b809fd1,Owner 548,+91XXXXXXXXXX,,New York,IN,Seller,Generated
a491ce51-668e-4ac3-bd20-2584c68fce2c,Owner 1795,+91XXXXXXXXXX,,London,IN,Seller,Generated
b20d63fc-ac3b-48a3-81d6-b025871ec5b2,Owner 9934,+91XXXXXXXXXX,,Mumbai,IN,Seller,Generated
8d90554a-5723-4705-aacb-7e9c03a49f36,Owner 9274,+91XXXXXXXXXX,,Delhi,IN,Seller,Generated
939b4bf2-400d-4869-9d35-b0d2aeb10a4f,Owner 5226,+91XXXXXXXXXX,,New York,IN,Seller,Generated
2fc9da67-fc71-43af-b9c6-e13fe97c07e0,Owner 2159,+91XXXXXXXXXX,,New York,IN,Seller,Generated
31bd9c3f-a3b4-406f-8819-8e5d740e360d,Owner 9629,+91XXXXXXXXXX,,Mumbai,IN,Seller,Generated
615355bc-10d8-403d-a9ec-ee5f0ba273d6,Owner 3904,+91XXXXXXXXXX,,London,IN,Seller,Generated
f2ec4766-f412-4df6-9c19-e6718169dd2a,Owner 6236,+91XXXXXXXXXX,,Delhi,IN,Seller,Generated
345bcbbb-1093-417d-9bca-69534c4ca4a6,Owner 9626,+91XXXXXXXXXX,,Delhi,IN,Seller,Generated
8afff783-c87e-439a-b58e-d13368e23d48,Owner 325,+91XXXXXXXXXX,,London,IN,Seller,Generated
347acc7a-59b1-4bf7-b945-d5fbe5eaef30,Owner 4556,+91XXXXXXXXXX,,London,IN,Seller,Generated
94db97db-4c9e-4e30-8e63-fc6cd68a0c9a,Owner 8980,+91XXXXXXXXXX,,Delhi,IN,Seller,Generated
7ccfb18f-de2f-45f5-84fc-7ff0d0226e7b,Owner 9779,+91XXXXXXXXXX,,Delhi,IN,Seller,Generated
42a036c8-6ccf-4541-9438-77c02791973e,Owner 6233,+91XXXXXXXXXX,,New York,IN,Seller,Generated
60b6ae4d-089b-4acc-b731-11a166656c3a,Owner 9713,+91XXXXXXXXXX,,New York,IN,Seller,Generated
4455cf05-489c-4588-b2cd-807286fc9024,Owner 1417,+91XXXXXXXXXX,,London,IN,Seller,Generated
0791cfba-6edf-4c29-8fdf-59874379754a,Owner 1397,+91XXXXXXXXXX,,London,IN,Seller,Generated
6b7d7f5d-3a3c-4bae-b9c9-8bbdbdaf2651,Owner 6858,+91XXXXXXXXXX,,London,IN,Seller,Generated
fab464cc-5f05-4f5e-8072-123ecdd7e916,Owner 246,+91XXXXXXXXXX,,New York,IN,Seller,Generated
8eaa2bc6-4ee1-470f-8008-aa8238468271,Owner 5884,+91XXXXXXXXXX,,Mumbai,IN,Seller,Generated
db9fc259-77de-45d6-9c03-f5aa42d80fad,Owner 8767,+91XXXXXXXXXX,,New York,IN,Seller,Generated
dcc72b7d-5a2b-49a2-b440-3b95a610a58e,Owner 2579,+91XXXXXXXXXX,,London,IN,Seller,Generated
31115b12-04c7-42ea-bc5f-02f01f508820,Owner 9970,+91XXXXXXXXXX,,London,IN,Seller,Generated
0393d35a-15c4-48ae-985f-ff7f1b7e00e6,Owner 2768,+91XXXXXXXXXX,,New York,IN,Seller,Generated
22e8dcdd-b994-49e4-b7f8-8d5f60a4ff3e,Owner 3776,+91XXXXXXXXXX,,Mumbai,IN,Seller,Generated
95831089-ecd6-41e5-8d17-ea883aa82c67,Owner 6504,+91XXXXXXXXXX,,Delhi,IN,Seller,Generated
1255e1e9-d637-49c2-ad38-8527c05905cf,Owner 8972,+91XXXXXXXXXX,,London,IN,Seller,Generated
e7661b22-0d97-472e-a4ee-d7ab205e3f53,Owner 7804,+91XXXXXXXXXX,,New York,IN,Seller,Generated
f21c82bf-e28e-406e-aa10-98b837965d8a,Owner 158,+91XXXXXXXXXX,,Delhi,IN,Seller,Generated
81ca785a-22b7-4762-aed7-2fe6ce57bd32,Owner 2194,+91XXXXXXXXXX,,Mumbai,IN,Seller,Generated
8473fbf4-ea15-4b9c-b49a-0234e3b20c53,Owner 3316,+91XXXXXXXXXX,,Mumbai,IN,Seller,Generated
c9aa6927-fc53-472c-9beb-4e7c2794c73e,Owner 8906,+91XXXXXXXXXX,,Mumbai,IN,Seller,Generated
ddf3d3b8-17ee-497a-9f32-116d79b048f1,Owner 9102,+91XXXXXXXXXX,,Mumbai,IN,Seller,Generated
5915b8fc-e00b-4937-a08b-883da3dd079f,Owner 8012,+91XXXXXXXXXX,,New York,IN,Seller,Generated
56f63dac-897d-493f-8372-5c987badc7e1,Owner 9237,+91XXXXXXXXXX,,Mumbai,IN,Seller,Generated
94c1c5c7-baa2-4de8-a659-cb580f6302ef,Owner 7578,+91XXXXXXXXXX,,London,IN,Seller,Generated
a66bdbec-6cb7-4013-aa3d-c6bbda1ff861,Owner 3676,+91XXXXXXXXXX,,London,IN,Seller,Generated
2f69edec-b99c-4e15-be0b-c857a1843408,Owner 8843,+91XXXXXXXXXX,,New York,IN,Seller,Generated
cf2f0c26-1c6c-41ba-925c-e5da979c83e1,Owner 2153,+91XXXXXXXXXX,,Mumbai,IN,Seller,Generated
b9208678-f299-438b-a4bb-f003f1b58308,Owner 1243,+91XXXXXXXXXX,,Mumbai,IN,Seller,Generated
d1f75a3a-f6ca-43ab-947c-9abad101253b,Owner 383,+91XXXXXXXXXX,,New York,IN,Seller,Generated
57dca2c9-cb20-447a-8e54-39336588ca3d,Owner 3146,+91XXXXXXXXXX,,Delhi,IN,Seller,Generated
8af31d17-836c-4644-aae0-91f01c376106,Owner 3385,+91XXXXXXXXXX,,London,IN,Seller,Generated
46119db8-33a7-46ba-9740-7848b76454fd,Owner 3578,+91XXXXXXXXXX,,New York,IN,Seller,Generated
cb7a691a-1ace-41e8-84dc-5df1cce16904,Owner 7368,+91XXXXXXXXXX,,Delhi,IN,Seller,Generated
52962455-9614-4c10-b106-fd95e2900790,Owner 1521,+91XXXXXXXXXX,,Delhi,IN,Seller,Generated
096bdb4f-aab2-4645-a75f-c424fc0e7cc8,Owner 7523,+91XXXXXXXXXX,,Delhi,IN,Seller,Generated
505ea977-5853-4ba7-abd2-b899a1dfa9b7,Owner 6768,+91XXXXXXXXXX,,Delhi,IN,Seller,Generated
25c0fd85-a833-4b4a-9a11-abe23966cc41,Owner 7402,+91XXXXXXXXXX,,New York,IN,Seller,Generated
74645f72-e13d-45f8-972f-60ac5602da92,Owner 6767,+91XXXXXXXXXX,,Mumbai,IN,Seller,Generated
3290e536-edec-497f-9581-9e4ee60133cf,Owner 5238,+91XXXXXXXXXX,,Mumbai,IN,Seller,Generated
0da2e6d9-aee2-46b5-9b39-64cb60752f09,Owner 6591,+91XXXXXXXXXX,,New York,IN,Seller,Generated
6b9dca0e-dfef-4cfa-a59b-147b9a5066a9,Owner 6711,+91XXXXXXXXXX,,Mumbai,IN,Seller,Generated
942c1cfd-2f15-4275-acfd-d4ee8b48b55b,Owner 3280,+91XXXXXXXXXX,,Mumbai,IN,Seller,Generated
ee20e667-a93b-497b-89f1-b20cdd46ceaf,Owner 7183,+91XXXXXXXXXX,,London,IN,Seller,Generated
52952765-3d90-4c59-80e9-d90b8d01b8f5,Owner 4952,+91XXXXXXXXXX,,Mumbai,IN,Seller,Generated
a84729c1-22be-4702-bf44-9bf58fd88a08,Owner 2595,+91XXXXXXXXXX,,Mumbai,IN,Seller,Generated
3a63f6fa-993a-4b83-824e-7631962558f4,Owner 1676,+91XXXXXXXXXX,,New York,IN,Seller,Generated
e58e4ed6-9762-474a-b72e-15e47899db34,Owner 136,+91XXXXXXXXXX,,Mumbai,IN,Seller,Generated
a092b4f5-2b9e-4d90-8520-a443548701db,Owner 827,+91XXXXXXXXXX,,Delhi,IN,Seller,Generated
f3c16502-2eca-42f7-b94e-cbcf17dfa353,Owner 6610,+91XXXXXXXXXX,,New York,IN,Seller,Generated
0782c870-435b-4faa-864a-392a18319b9b,Owner 7317,+91XXXXXXXXXX,,New York,IN,Seller,Generated
4f87b444-6050-4899-8dbd-86d999e8ca37,Owner 864,+91XXXXXXXXXX,,Delhi,IN,Seller,Generated
7f6c585b-95d4-412f-8e3c-f37eb609de0a,Owner 7644,+91XXXXXXXXXX,,Delhi,IN,Seller,Generated
7d358490-07a0-4642-b2d7-acf72af784f8,Owner 9484,+91XXXXXXXXXX,,London,IN,Seller,Generated
1bfed38c-ed10-4cdc-af17-551c4f7ae28a,Owner 9804,+91XXXXXXXXXX,,London,IN,Seller,Generated
b7409388-c3eb-485f-bc3b-af9691c335ca,Owner 8982,+91XXXXXXXXXX,,Delhi,IN,Seller,Generated
3160186f-6714-4d2f-96eb-8c64c8da8cb0,Owner 1916,+91XXXXXXXXXX,,London,IN,Seller,Generated
ac41df37-b6d3-438a-a5af-a89a044f8739,Owner 6038,+91XXXXXXXXXX,,New York,IN,Seller,Generated
14e31c46-1327-40b3-a046-2902dcb36df9,Owner 8974,+91XXXXXXXXXX,,London,IN,Seller,Generated
72ca8a2c-7bc3-4f91-80e3-d606046d5ae6,Owner 9879,+91XXXXXXXXXX,,Delhi,IN,Seller,Generated
1c7bd88a-1a73-4c11-928e-5e335940029c,Owner 9759,+91XXXXXXXXXX,,Delhi,IN,Seller,Generated
25ffd2b9-ba8d-45f3-aec4-c377f6369dd8,Owner 5131,+91XXXXXXXXXX,,London,IN,Seller,Generated
9a884780-f659-4d2c-848b-0c3de6acdb9a,Owner 9968,+91XXXXXXXXXX,,New York,IN,Seller,Generated
98e5ec88-03c4-419f-be15-1de43b1504b7,Owner 3998,+91XXXXXXXXXX,,Mumbai,IN,Seller,Generated
a423106b-13e4-4a6e-821f-6b5339f52924,Owner 4102,+91XXXXXXXXXX,,London,IN,Seller,Generated
d42487da-4ea8-489b-bb2b-96d4bbd5410d,Owner 8130,+91XXXXXXXXXX,,Delhi,IN,Seller,Generated
53c2f4b2-573d-4ca0-a260-db2b7cd58bdf,Owner 446,+91XXXXXXXXXX,,Mumbai,IN,Seller,Generated
fd5c5ed1-be95-4a2c-b995-c2a394766d02,Owner 6237,+91XXXXXXXXXX,,New York,IN,Seller,Generated
f8971f76-e387-492c-9e83-8b887d27bc84,Owner 9327,+91XXXXXXXXXX,,Delhi,IN,Seller,Generated
6705f55a-7abc-4085-a241-e7d085e11102,Owner 7114,+91XXXXXXXXXX,,New York,IN,Seller,Generated
fca49db0-84e0-43c9-9618-6e28c46b061a,Owner 6896,+91XXXXXXXXXX,,Delhi,IN,Seller,Generated
0707e3d7-5c64-423f-9383-1dd1f2d61370,Owner 7637,+91XXXXXXXXXX,,Delhi,IN,Seller,Generated
71717659-f5f6-470e-9fca-48e5ce88de88,Owner 3536,+91XXXXXXXXXX,,New York,IN,Seller,Generated
61e9f577-9f22-4925-a0a8-771195ba52b6,Owner 9112,+91XXXXXXXXXX,,Mumbai,IN,Seller,Generated
d10b54dd-199d-4cc9-98b7-bd1e0ddc429b,Owner 1592,+91XXXXXXXXXX,,Delhi,IN,Seller,Generated
c7f470d8-bd36-43b3-a376-533c2c32d46e,Owner 5111,+91XXXXXXXXXX,,New York,IN,Seller,Generated
c1e7dfcb-f310-4c93-934a-968f3219197f,Owner 6868,+91XXXXXXXXXX,,London,IN,Seller,Generated
b8966858-f28c-4cea-a3a3-672f51cb94a9,Owner 4585,+91XXXXXXXXXX,,New York,IN,Seller,Generated
e66d3c32-b71b-478d-990b-1f5791feda7e,Owner 3895,+91XXXXXXXXXX,,London,IN,Seller,Generated
7cfcdd15-4915-46ed-82e0-042502a1e102,Owner 5715,+91XXXXXXXXXX,,Mumbai,IN,Seller,Generated
1cb25553-ae4b-4ea1-b8e4-d01defda00b8,Owner 3453,+91XXXXXXXXXX,,New York,IN,Seller,Generated
80fd3f34-a63c-4f2d-8f6d-d2ae4905cf21,Owner 264,+91XXXXXXXXXX,,London,IN,Seller,Generated
26bdaafc-81f6-4bf3-bd47-276f9d572cac,Owner 6757,+91XXXXXXXXXX,,New York,IN,Seller,Generated
f561612d-50f5-4dd0-92a1-43b7a0fcd7c6,Owner 6402,+91XXXXXXXXXX,,London,IN,Seller,Generated
fa9e7aa5-b06d-4bd3-8b66-96aeb0ec5946,Owner 491,+91XXXXXXXXXX,,New York,IN,Seller,Generated
71aff3be-a72b-451c-ad86-fb24426a2f85,Owner 7850,+91XXXXXXXXXX,,London,IN,Seller,Generated
db7da0ed-518e-459d-ae9d-251b7e975b0a,Owner 2144,+91XXXXXXXXXX,,Delhi,IN,Seller,Generated
e4063c1d-0d60-4fa7-a011-81d9b8aeb852,Owner 3938,+91XXXXXXXXXX,,Delhi,IN,Seller,Generated
cf82ba0c-abcb-4856-826a-271489766e67,Owner 7179,+91XXXXXXXXXX,,London,IN,Seller,Generated
7a94a6ee-8257-4d1c-8ea0-b945150d451d,Owner 589,+91XXXXXXXXXX,,Delhi,IN,Seller,Generated
17c2fd3e-f6a3-44b9-946e-afa1784db087,Owner 2841,+91XXXXXXXXXX,,London,IN,Seller,Generated
b89b89b8-b36f-4ec0-913b-237aaac7d8cf,Owner 2962,+91XXXXXXXXXX,,London,IN,Seller,Generated
09b4f2d2-f8c9-4e46-93e7-771e82e65f3a,Owner 7148,+91XXXXXXXXXX,,Delhi,IN,Seller,Generated
22973480-7763-4f72-a01a-967a0176f714,Owner 3012,+91XXXXXXXXXX,,Delhi,IN,Seller,Generated
9f148810-4304-4b3d-9d4a-26be2acc7abc,Owner 502,+91XXXXXXXXXX,,Delhi,IN,Seller,Generated
afcbb14c-b9c1-4af7-9340-1ee1a69830fa,Owner 1500,+91XXXXXXXXXX,,New York,IN,Seller,Generated
7bc798d4-a369-4912-ae2e-211bc4863458,Owner 4019,+91XXXXXXXXXX,,London,IN,Seller,Generated
7e84c13f-caa0-4241-887a-78137dc3559c,Owner 9149,+91XXXXXXXXXX,,London,IN,Seller,Generated
21eca7c2-9e16-43b9-8910-cafde2c723b1,Owner 9250,+91XXXXXXXXXX,,Delhi,IN,Seller,Generated
3c68ee23-8fde-4314-9984-71a53c16cafd,Owner 7259,+91XXXXXXXXXX,,New York,IN,Seller,Generated
bfb7e5c4-9f0e-45a6-b326-11dca2f584cc,Owner 698,+91XXXXXXXXXX,,Delhi,IN,Seller,Generated
cd16f00a-d1cd-4ec0-8e8c-13db2b73b5e0,Owner 9575,+91XXXXXXXXXX,,Mumbai,IN,Seller,Generated
239365e0-4cce-415c-b74b-025741eccc32,Owner 4652,+91XXXXXXXXXX,,Mumbai,IN,Seller,Generated
32b03cc0-6268-4de6-8069-f61a3b1245a4,Owner 5464,+91XXXXXXXXXX,,London,IN,Seller,Generated
6105a048-65c4-4d86-a9f9-f2b48f3ad535,Owner 7974,+91XXXXXXXXXX,,Mumbai,IN,Seller,Generated
89662cce-c713-4c4a-baaf-c2260a686a91,Owner 9829,+91XXXXXXXXXX,,Delhi,IN,Seller,Generated
42901518-e42e-41e9-9d23-8a9b58ab0282,Owner 2346,+91XXXXXXXXXX,,Delhi,IN,Seller,Generated
734eba82-0331-4e4d-bfbc-f7e8d19648f0,Owner 7683,+91XXXXXXXXXX,,Mumbai,IN,Seller,Generated
59f89d5e-731d-4063-b99c-ca14905d7277,Owner 5538,+91XXXXXXXXXX,,London,IN,Seller,Generated
b91a08f1-c5ae-40e5-9ff5-92c67f294697,Owner 300,+91XXXXXXXXXX,,London,IN,Seller,Generated
82021a04-0ecf-4fe6-bfd0-3989c14ba1d1,Owner 4919,+91XXXXXXXXXX,,Mumbai,IN,Seller,Generated
0e57985c-b9c1-4947-9239-e18a4a6d97eb,Owner 3470,+91XXXXXXXXXX,,London,IN,Seller,Generated
733fbc87-9005-4c62-bc4d-cb2dd4b48b81,Owner 1953,+91XXXXXXXXXX,,London,IN,Seller,Generated
c322e3cb-469d-4918-8397-01f53fafb6ca,Owner 4582,+91XXXXXXXXXX,,Mumbai,IN,Seller,Generated
1a7c4cf8-32bf-4eff-9f9c-568ebafe115f,Owner 6943,+91XXXXXXXXXX,,New York,IN,Seller,Generated
c99e8dc8-a0dd-4ec2-95ee-271454662b53,Owner 4499,+91XXXXXXXXXX,,Mumbai,IN,Seller,Generated
f9df2071-45e6-423b-a1dc-55efdb2ecc4d,Owner 1479,+91XXXXXXXXXX,,Mumbai,IN,Seller,Generated
6ca892c4-9c10-4720-a823-e777137d416b,Owner 5837,+91XXXXXXXXXX,,Mumbai,IN,Seller,Generated
201fac42-4abe-4576-b40e-1da2f0287124,Owner 8517,+91XXXXXXXXXX,,New York,IN,Seller,Generated
18d02697-b79d-4de5-8291-e585bfe158c7,Owner 355,+91XXXXXXXXXX,,New York,IN,Seller,Generated
88d7922f-bd1c-447d-9ffb-f7b25512ad14,Owner 4920,+91XXXXXXXXXX,,London,IN,Seller,Generated
e4b2cdc2-285f-48b4-9ed0-2e26608a73b8,Owner 1852,+91XXXXXXXXXX,,Delhi,IN,Seller,Generated
fca5bde2-cc03-426d-b295-362906e68fd8,Owner 3337,+91XXXXXXXXXX,,Delhi,IN,Seller,Generated
2da5ec2d-7ce8-45a9-9e85-5a0a563a7ab0,Owner 7493,+91XXXXXXXXXX,,Delhi,IN,Seller,Generated
c50b2abb-491f-4dce-8ecc-8b2d45c11ca9,Owner 6044,+91XXXXXXXXXX,,Mumbai,IN,Seller,Generated
d1fafc37-ffd7-4d27-a12b-836b40111b65,Owner 5753,+91XXXXXXXXXX,,London,IN,Seller,Generated
3f5712f3-e62f-4c68-ba96-d0a430f34bb5,Owner 1316,+91XXXXXXXXXX,,Delhi,IN,Seller,Generated
87d01ebe-6838-47e7-8f50-13c735a6250b,Owner 9548,+91XXXXXXXXXX,,London,IN,Seller,Generated
d9f3d58c-f93a-46ce-9a32-71e054359fdc,Owner 743,+91XXXXXXXXXX,,New York,IN,Seller,Generated
aaad0cbd-6be8-4d90-bf84-b22d2c8c4915,Owner 6356,+91XXXXXXXXXX,,London,IN,Seller,Generated
d34dffbe-1b73-40b1-a445-ddb80ed241b4,Owner 8406,+91XXXXXXXXXX,,New York,IN,Seller,Generated
a80d9e9c-fd60-4dfe-83fd-ebac8d793cc5,Owner 1082,+91XXXXXXXXXX,,London,IN,Seller,Generated
1af76f27-ef2e-4012-8af9-1e53db7524aa,Owner 1046,+91XXXXXXXXXX,,London,IN,Seller,Generated
a6b01427-01df-456d-867c-d89b6d1c7bb4,Owner 5484,+91XXXXXXXXXX,,London,IN,Seller,Generated
6a8e2801-cd21-432a-862e-181f47223d0e,Owner 9875,+91XXXXXXXXXX,,Delhi,IN,Seller,Generated
26fc01d4-255f-4dc4-affa-5a4a1e11bac5,Owner 6972,+91XXXXXXXXXX,,New York,IN,Seller,Generated
aaee85a4-0273-4512-b991-fcdc51ca3f0c,Owner 8715,+91XXXXXXXXXX,,Delhi,IN,Seller,Generated
6ce3dfef-9f13-47d0-a14b-a2a8cf682424,Owner 115,+91XXXXXXXXXX,,Delhi,IN,Seller,Generated
f5b2e751-b0f5-4262-a387-d9361d4be1a1,Owner 4529,+91XXXXXXXXXX,,Delhi,IN,Seller,Generated
6e317254-ed44-4e11-8c3a-a772ddc3beb4,Owner 9985,+91XXXXXXXXXX,,London,IN,Seller,Generated
528279c9-6b50-4c0e-bcbe-9ef090089c8d,Owner 5485,+91XXXXXXXXXX,,London,IN,Seller,Generated
cad1cb9b-7ca6-4e96-8fd6-4f9e0f23937d,Owner 7986,+91XXXXXXXXXX,,London,IN,Seller,Generated
b7397223-5efb-4652-897c-22da1e0505b1,Owner 2059,+91XXXXXXXXXX,,London,IN,Seller,Generated
470a987c-83f5-41c0-817e-daefcb5abf45,Owner 7301,+91XXXXXXXXXX,,London,IN,Seller,Generated
0d717a81-1798-4f91-9120-170aaf8b31b5,Owner 6682,+91XXXXXXXXXX,,New York,IN,Seller,Generated
dccfb261-5e89-40b7-8eff-a702dd5f8d49,Owner 9728,+91XXXXXXXXXX,,London,IN,Seller,Generated
484730dd-2a19-465f-8f76-adc7cb941521,Owner 2681,+91XXXXXXXXXX,,Delhi,IN,Seller,Generated
e894a4df-4968-43a8-bfaf-97a8c535a558,Owner 5109,+91XXXXXXXXXX,,New York,IN,Seller,Generated
744998cf-3fb8-4635-9410-1628b90d73d0,Owner 7469,+91XXXXXXXXXX,,New York,IN,Seller,Generated
af0e7054-62ad-48f3-9cfe-badb117a3f13,Owner 8988,+91XXXXXXXXXX,,London,IN,Seller,Generated
59bc01fd-cc23-4a3e-b5b5-4d5e5b9059a6,Owner 4468,+91XXXXXXXXXX,,London,IN,Seller,Generated
8b049587-8bd6-47f0-9318-30e29ed4ec77,Owner 1317,+91XXXXXXXXXX,,Delhi,IN,Seller,Generated
3924443c-5007-491b-b062-1a9eceabedf5,Owner 424,+91XXXXXXXXXX,,Mumbai,IN,Seller,Generated
480c3cbf-d43a-431a-84d9-114d333891d9,Owner 2664,+91XXXXXXXXXX,,Delhi,IN,Seller,Generated
442ed949-da54-462d-9454-25f485e89f12,Owner 3968,+91XXXXXXXXXX,,Mumbai,IN,Seller,Generated
0ec114a8-f258-455f-a269-2305ba89284d,Owner 7464,+91XXXXXXXXXX,,Mumbai,IN,Seller,Generated
e7121e99-30cb-4604-8e97-a1a81ed9693f,Owner 5726,+91XXXXXXXXXX,,London,IN,Seller,Generated
2d30d792-381c-4d48-846d-aa4bc0ea8a59,Owner 6783,+91XXXXXXXXXX,,London,IN,Seller,Generated
a65b3553-229c-402b-a812-ab11bf71732b,Owner 2725,+91XXXXXXXXXX,,Mumbai,IN,Seller,Generated
2edd90f3-931a-4332-9f80-2863974624aa,Owner 1786,+91XXXXXXXXXX,,London,IN,Seller,Generated
706cec73-b6e8-4873-ae5d-a0142b71fff8,Owner 4855,+91XXXXXXXXXX,,London,IN,Seller,Generated
b022bc1b-f299-481a-895a-9350a2267627,Owner 3955,+91XXXXXXXXXX,,Delhi,IN,Seller,Generated
7198ea6d-4361-4813-bc74-e93497c74049,Owner 2721,+91XXXXXXXXXX,,London,IN,Seller,Generated
5744606c-278d-4b9c-a0db-815ff9c7249a,Owner 6579,+91XXXXXXXXXX,,Delhi,IN,Seller,Generated
76cbd8c9-0de7-4c48-8133-363a9789d9f9,Owner 8527,+91XXXXXXXXXX,,New York,IN,Seller,Generated
d369dd4a-e500-4765-a3af-9c068332e855,Owner 4581,+91XXXXXXXXXX,,London,IN,Seller,Generated
a0372544-3a8b-44de-af17-270962c72998,Owner 3168,+91XXXXXXXXXX,,Mumbai,IN,Seller,Generated
8b3a56d3-bec6-4cb4-be67-8b2a85724da7,Owner 4749,+91XXXXXXXXXX,,Delhi,IN,Seller,Generated
df235be2-5f18-4098-ac7d-0b01ff632716,Owner 2698,+91XXXXXXXXXX,,Delhi,IN,Seller,Generated
948e06ba-1836-4838-84e1-34c3239383ad,Owner 2005,+91XXXXXXXXXX,,New York,IN,Seller,Generated
4f4004b0-d1fb-4cd8-a684-fecd33d03310,Owner 6930,+91XXXXXXXXXX,,Delhi,IN,Seller,Generated
13e4b143-9178-4fb8-8241-cc4d974c7234,Owner 8670,+91XXXXXXXXXX,,New York,IN,Seller,Generated
c037c119-20ac-4d7a-9b32-46c353667de6,Owner 9619,+91XXXXXXXXXX,,Mumbai,IN,Seller,Generated
044e9656-fa76-4d6e-9955-737602c6fbaa,Owner 7291,+91XXXXXXXXXX,,Mumbai,IN,Seller,Generated
b4b3b556-605a-4700-bbf4-52ef4926e156,Owner 5540,+91XXXXXXXXXX,,Delhi,IN,Seller,Generated
a67d1c94-d935-4b10-b161-d5700c4a0eb3,Owner 8259,+91XXXXXXXXXX,,New York,IN,Seller,Generated
2887faa5-757c-40f3-af8a-ac650dc2d603,Owner 7301,+91XXXXXXXXXX,,Delhi,IN,Seller,Generated
b9aaf6b8-5bd2-4da6-bc46-49375aa8fd4c,Owner 7569,+91XXXXXXXXXX,,New York,IN,Seller,Generated
2c6d8820-d405-4e4d-83cf-ffca48cfcc61,Owner 1765,+91XXXXXXXXXX,,Mumbai,IN,Seller,Generated
ecbe6c04-6941-4a1b-b3e6-09a495cf379e,Owner 9267,+91XXXXXXXXXX,,London,IN,Seller,Generated
2ea2cd82-a968-4ecc-a9d8-92dfe494f4b3,Owner 649,+91XXXXXXXXXX,,Delhi,IN,Seller,Generated
f22e4d6d-6e1a-40b4-b156-132e7e53a7a8,Owner 5138,+91XXXXXXXXXX,,Delhi,IN,Seller,Generated
881428c8-583f-4df9-ab13-b75abe59f6d7,Owner 1181,+91XXXXXXXXXX,,London,IN,Seller,Generated
e398274a-114d-4ac2-a457-4802f99455e8,Owner 2126,+91XXXXXXXXXX,,New York,IN,Seller,Generated
1e4af848-594d-417d-a520-8702b7bea983,Owner 3184,+91XXXXXXXXXX,,Delhi,IN,Seller,Generated
061a2603-63e9-42e2-b7eb-272fef547c6c,Owner 684,+91XXXXXXXXXX,,New York,IN,Seller,Generated
6e235d81-fffe-4f7e-bcbb-fefde67c0882,Owner 5464,+91XXXXXXXXXX,,London,IN,Seller,Generated
58763617-d1d5-4670-97fe-8a02f35c100b,Owner 2242,+91XXXXXXXXXX,,London,IN,Seller,Generated
544008a2-5f1c-4dea-9aee-9e6778b0278b,Owner 9791,+91XXXXXXXXXX,,Mumbai,IN,Seller,Generated
865c934f-02ef-42cf-8c6c-f0cf24c13ff9,Owner 2832,+91XXXXXXXXXX,,Delhi,IN,Seller,Generated
e94c039a-91b3-4840-ab95-e86d6857d147,Owner 9950,+91XXXXXXXXXX,,London,IN,Seller,Generated
