lead_id,name,phone,email,city,country,type,notes
e2fb079b-2f5e-4b90-be6f-f5e835976dcf,Owner 1155,+91XXXXXXXXXX,,Mumbai,IN,Seller,Generated
eef7b0a5-81aa-4d12-87dc-181f15fde42d,Owner 2543,+91XXXXXXXXXX,,New York,IN,Seller,Generated
7431236d-a1f3-4785-a2df-bc02521f964a,Owner 5198,+91XXXXXXXXXX,,Delhi,IN,Seller,Generated
46047f48-a690-499a-bf30-164909f3a497,Owner 6216,+91XXXXXXXXXX,,Mumbai,IN,Seller,Generated
b9f6f60d-66c9-46fb-beaa-bfa59923851d,Owner 1952,+91XXXXXXXXXX,,Delhi,IN,Seller,Generated
0b3f3833-15f0-49d2-bcdb-c54929c5496a,Owner 127,+91XXXXXXXXXX,,Mumbai,IN,Seller,Generated
d0c09c91-2477-40b4-8683-34a50323f24f,Owner 9615,+91XXXXXXXXXX,,London,IN,Seller,Generated
40388238-419b-482e-a059-da382d515a8a,Owner 7681,+91XXXXXXXXXX,,New York,IN,Seller,Generated
da6cbceb-2809-497d-a39f-bedde57554f3,Owner 5327,+91XXXXXXXXXX,,Mumbai,IN,Seller,Generated
338824ed-5077-4db2-a5c3-21254b79da21,Owner 809,+91XXXXXXXXXX,,Mumbai,IN,Seller,Generated
23777cea-7dd4-4cef-8aa9-97fd68510b5b,Owner 8492,+91XXXXXXXXXX,,Mumbai,IN,Seller,Generated
0d8bff48-c20c-4e7a-a66d-47ba788f68c6,Owner 2781,+91XXXXXXXXXX,,New York,IN,Seller,Generated
e6f9d044-1436-43f7-8ea6-face22f193e1,Owner 1044,+91XXXXXXXXXX,,London,IN,Seller,Generated
3853f95f-6007-404f-a222-d484e26f4e0a,Owner 1465,+91XXXXXXXXXX,,Mumbai,IN,Seller,Generated
91d01daa-750e-4f07-8da0-864e0f970110,Owner 9079,+91XXXXXXXXXX,,New York,IN,Seller,Generated
1af238ac-4163-4151-94a1-35797e479f61,Owner 3556,+91XXXXXXXXXX,,Mumbai,IN,Seller,Generated
d9eac41f-8c86-42fe-a9cb-3c14edfc11f9,Owner 3193,+91XXXXXXXXXX,,Delhi,IN,Seller,Generated
000fec41-e086-4fef-adc2-2160c9e8f997,Owner 5816,+91XXXXXXXXXX,,Delhi,IN,Seller,Generated
7d468a53-22a1-44bc-8d5e-236709d72454,Owner 8224,+91XXXXXXXXXX,,Delhi,IN,Seller,Generated
fcb40899-b6d2-46b3-b052-8829585860c9,Owner 3497,+91XXXXXXXXXX,,Delhi,IN,Seller,Generated
3ac11f73-4783-4841-a781-982491f80b85,Owner 667,+91XXXXXXXXXX,,Delhi,IN,Seller,Generated
7b79cba4-03c9-4f8c-bd89-ef043f200eb5,Owner 9658,+91XXXXXXXXXX,,New York,IN,Seller,Generated
3f9e5aff-56d5-4045-9be0-e3ea7563e1e3,Owner 8657,+91XXXXXXXXXX,,Delhi,IN,Seller,Generated
3ac6ecb0-e12b-4e97-a2bc-1d4c0431384c,Owner 3786,+91XXXXXXXXXX,,Mumbai,IN,Seller,Generated
472a4754-b031-4150-90a5-075c0a158a73,Owner 8519,+91XXXXXXXXXX,,London,IN,Seller,Generated
fd14dcfd-f7cf-48a8-b2f8-7f1176c705bc,Owner 7373,+91XXXXXXXXXX,,New York,IN,Seller,Generated
5b76dccd-c965-4a67-a276-0e33f2d03e4a,Owner 9888,+91XXXXXXXXXX,,London,IN,Seller,Generated
2b105c7b-5b9a-4c97-a53c-385ede047835,Owner 5707,+91XXXXXXXXXX,,London,IN,Seller,Generated
c7dde14d-99da-4a26-ace6-7406032141cb,Owner 3114,+91XXXXXXXXXX,,Mumbai,IN,Seller,Generated
87d0474a-2da5-4af9-86a1-c91cb5fd42a1,Owner 4317,+91XXXXXXXXXX,,London,IN,Seller,Generated
4642f723-0ec1-462c-b419-4f2760ada0b9,Owner 9803,+91XXXXXXXXXX,,Delhi,IN,Seller,Generated
b412c6d7-4375-4aae-936a-f341444fa6da,Owner 5322,+91XXXXXXXXXX,,Mumbai,IN,Seller,Generated
68999735-c652-4fbb-a40a-1536dbae2a68,Owner 75,+91XXXXXXXXXX,,Mumbai,IN,Seller,Generated
c84beb71-690f-49b9-8a24-825ce6331cbe,Owner 6999,+91XXXXXXXXXX,,Delhi,IN,Seller,Generated
e37813e3-3727-4768-92b7-bc5aae9dcf79,Owner 2231,+91XXXXXXXXXX,,London,IN,Seller,Generated
9093c9ff-e40c-49b3-b24f-d8ec2ff2b76a,Owner 2734,+91XXXXXXXXXX,,Delhi,IN,Seller,Generated
800476bb-7678-4d13-bd71-aa7171cadb2b,Owner 290,+91XXXXXXXXXX,,London,IN,Seller,Generated
8c867cce-ce12-446f-9b58-173d5ea1594b,Owner 4961,+91XXXXXXXXXX,,New York,IN,Seller,Generated
d7fb4961-a3c9-437d-b936-f28a58d3e0f8,Owner 4656,+91XXXXXXXXXX,,Mumbai,IN,Seller,Generated
9cc024cd-e9e7-4024-8849-1150c8421745,Owner 3639,+91XXXXXXXXXX,,Mumbai,IN,Seller,Generated
755a162e-3cac-44c6-af69-d59cfcf0908d,Owner 9124,+91XXXXXXXXXX,,New York,IN,Seller,Generated
975368c4-e2f5-41cc-bfe8-f3e597054521,Owner 374,+91XXXXXXXXXX,,Mumbai,IN,Seller,Generated
7734366e-8224-4e34-8c4f-8280101e9e34,Owner 9221,+91XXXXXXXXXX,,Mumbai,IN,Seller,Generated
c9b34f56-898c-461f-9a5b-03768e190230,Owner 5207,+91XXXXXXXXXX,,Mumbai,IN,Seller,Generated
6f40853d-7a63-4ffe-aa6d-4b409304063d,Owner 7272,+91XXXXXXXXXX,,London,IN,Seller,Generated
1a6af356-5ebe-425f-8b27-ea626527e12f,Owner 9225,+91XXXXXXXXXX,,London,IN,Seller,Generated
26202978-ae6d-4516-942f-301b278fefc7,Owner 8829,+91XXXXXXXXXX,,Delhi,IN,Seller,Generated
5a569d5d-536a-41c7-a1ec-2c4c4d049581,Owner 4732,+91XXXXXXXXXX,,Delhi,IN,Seller,Generated
1ff0f2e1-fc6b-4655-b120-d7fe2ad88196,Owner 7617,+91XXXXXXXXXX,,London,IN,Seller,Generated
768a8108-8213-4477-9413-28c5a717d59c,Owner 3728,+91XXXXXXXXXX,,London,IN,Seller,Generated
fa6a56b3-48ac-4c4f-ad6d-9dbe7bef3b53,Owner 8675,+91XXXXXXXXXX,,Delhi,IN,Seller,Generated
a3e7958e-9259-40e1-b35a-c79a584adcca,Owner 9604,+91XXXXXXXXXX,,Delhi,IN,Seller,Generated
5272ff7c-91aa-4d56-b97f-fd06d3437bef,Owner 1185,+91XXXXXXXXXX,,New York,IN,Seller,Generated
24ddfbef-da2f-44ce-a965-82ba69bc2547,Owner 6350,+91XXXXXXXXXX,,New York,IN,Seller,Generated
43f8ef70-cc5c-4a9e-84df-452ad862a5c2,Owner 9145,+91XXXXXXXXXX,,New York,IN,Seller,Generated
6b22d505-5baf-4ba3-a258-bc9f7d3f09ee,Owner 7253,+91XXXXXXXXXX,,London,IN,Seller,Generated
d56ae993-2b61-4308-9734-2ca897908e57,Owner 4726,+91XXXXXXXXXX,,New York,IN,Seller,Generated
8bfba1fc-d6a4-4681-98aa-b88cc878a4bd,Owner 5358,+91XXXXXXXXXX,,Mumbai,IN,Seller,Generated
3891cfe7-bc67-470d-bf69-1a350517dac3,Owner 1622,+91XXXXXXXXXX,,London,IN,Seller,Generated
23a7778b-4d4b-43a9-95d6-d7cb1e8782ac,Owner 4300,+91XXXXXXXXXX,,Mumbai,IN,Seller,Generated
4f1267cb-250e-4eec-9e79-9c95e469c042,Owner 4185,+91XXXXXXXXXX,,New York,IN,Seller,Generated
f3cf43e5-c4a4-4c4c-ad38-722bf7d454ad,Owner 8258,+91XXXXXXXXXX,,Delhi,IN,Seller,Generated
df83ec97-b596-43e8-9968-cd95dff4b849,Owner 9295,+91XXXXXXXXXX,,New York,IN,Seller,Generated
90728915-6c30-4d4b-aa3a-743e530c9639,Owner 5295,+91XXXXXXXXXX,,New York,IN,Seller,Generated
e4df7db7-dfd0-474d-8f49-ce6d5a1e82b0,Owner 1903,+91XXXXXXXXXX,,Delhi,IN,Seller,Generated
fa2b12c6-3503-47de-a58a-c70c2f4ecec4,Owner 4356,+91XXXXXXXXXX,,London,IN,Seller,Generated
0a5b6f16-8575-4462-b274-ef9787c2d358,Owner 8551,+91XXXXXXXXXX,,Mumbai,IN,Seller,Generated
fd07ef7e-7f46-42ef-a159-4355fd9e6878,Owner 6644,+91XXXXXXXXXX,,Delhi,IN,Seller,Generated
31e026a8-7c9b-4f21-9338-85b44e752caf,Owner 6980,+91XXXXXXXXXX,,London,IN,Seller,Generated
aa596dc3-7f63-4fe4-b9d3-c75a0bfede7e,Owner 548,+91XXXXXXXXXX,,London,IN,Seller,Generated
a55ae813-65e9-4527-9a57-51b135e6a95d,Owner 8741,+91XXXXXXXXXX,,New York,IN,Seller,Generated
45342cd6-c837-4db8-bf14-e44a0ead71fc,Owner 4511,+91XXXXXXXXXX,,Mumbai,IN,Seller,Generated
30ba28b8-7725-451e-a734-2c9c09c1ce2a,Owner 3909,+91XXXXXXXXXX,,Mumbai,IN,Seller,Generated
0c2603c2-361b-432e-a8fa-743da90448a7,Owner 2529,+91XXXXXXXXXX,,Mumbai,IN,Seller,Generated
4c3434ea-50e9-4b50-b634-2aa8cbb4f6a4,Owner 6686,+91XXXXXXXXXX,,Mumbai,IN,Seller,Generated
52e2c693-0df1-41a1-86f3-11f8dafe08fe,Owner 5178,+91XXXXXXXXXX,,London,IN,Seller,Generated
677b8e21-7aff-4a8b-8514-687901ec9326,Owner 6645,+91XXXXXXXXXX,,Delhi,IN,Seller,Generated
e5e4d5c0-edb1-4f1f-a16c-19bf97e5fc07,Owner 636,+91XXXXXXXXXX,,New York,IN,Seller,Generated
72e7d9dc-0326-4d3f-89f5-a59eb057cc5d,Owner 790,+91XXXXXXXXXX,,Mumbai,IN,Seller,Generated
cb19e692-2849-4eea-b9ef-e858e9a2e16c,Owner 1339,+91XXXXXXXXXX,,Mumbai,IN,Seller,Generated
0850f3ed-a974-4c75-b6ef-3c12911dcb1e,Owner 7612,+91XXXXXXXXXX,,London,IN,Seller,Generated
d1397bf7-2f94-46fa-bfed-1301f5c8fd38,Owner 436,+91XXXXXXXXXX,,New York,IN,Seller,Generated
3c6aa647-dd1a-4c15-923c-1e00cb631785,Owner 1464,+91XXXXXXXXXX,,Mumbai,IN,Seller,Generated
ad9f6fdd-c771-41c4-81a1-064f8dd3fa85,Owner 9844,+91XXXXXXXXXX,,Delhi,IN,Seller,Generated
31369268-c2f1-46de-bd40-dfe336cb41b6,Owner 1654,+91XXXXXXXXXX,,New York,IN,Seller,Generated
29ad2359-3ee9-49fa-ab15-829bc41ce6f6,Owner 8228,+91XXXXXXXXXX,,Mumbai,IN,Seller,Generated
4062c391-2420-4e07-82dc-8d58fb0d2f7a,Owner 4630,+91XXXXXXXXXX,,Delhi,IN,Seller,Generated
fcd89151-946e-4fb3-b61d-e92b04030415,Owner 5808,+91XXXXXXXXXX,,Mumbai,IN,Seller,Generated
ca65694c-e6ce-4497-8e32-1ffce34f72c2,Owner 1520,+91XXXXXXXXXX,,Delhi,IN,Seller,Generated
35b34d79-0a0b-410b-bbbf-3d9eb2a7d5c1,Owner 623,+91XXXXXXXXXX,,Mumbai,IN,Seller,Generated
207a329c-3bcd-4011-86fa-22fb8bd52bdd,Owner 6203,+91XXXXXXXXXX,,New York,IN,Seller,Generated
4ffad1f1-ae08-4e75-8d22-4d45b4c36968,Owner 8011,+91XXXXXXXXXX,,Delhi,IN,Seller,Generated
cc737d14-0ddd-4798-bc21-d0a7044375ff,Owner 8302,+91XXXXXXXXXX,,New York,IN,Seller,Generated
47af0e56-f3b2-4579-8a84-2bf78bbe1e2f,Owner 944,+91XXXXXXXXXX,,Delhi,IN,Seller,Generated
ee81271a-0bfb-452e-b4e5-1de6446ca529,Owner 529,+91XXXXXXXXXX,,Delhi,IN,Seller,Generated
a693ec9d-18f6-4798-a605-c87a919d9fd5,Owner 2841,+91XXXXXXXXXX,,New York,IN,Seller,Generated
5b623b2f-5a8c-4ede-89b0-d2bf58a2c75d,Owner 9056,+91XXXXXXXXXX,,Mumbai,IN,Seller,Generated
2fd33266-d8d8-4f85-971c-fc22ed977eac,Owner 9622,+91XXXXXXXXXX,,London,IN,Seller,Generated
dab9989b-34dc-4aa4-b41f-4b029cfce486,Owner 2836,+91XXXXXXXXXX,,London,IN,Seller,Generated
82ef5ef3-53dc-43d5-8506-9f5a87e5e0c3,Owner 774,+91XXXXXXXXXX,,Delhi,IN,Seller,Generated
7bdc4ffd-3adb-4365-93b6-59c9ad889247,Owner 7138,+91XXXXXXXXXX,,New York,IN,Seller,Generated
4d70ed5e-af02-4f8b-984a-59dcd790a4b7,Owner 2263,+91XXXXXXXXXX,,Delhi,IN,Seller,Generated
aee3d323-7843-45ca-ae63-050671d9dc54,Owner 8359,+91XXXXXXXXXX,,New York,IN,Seller,Generated
d2d9683b-93b3-40ff-9103-d6dd9e0a9a9d,Owner 8169,+91XXXXXXXXXX,,London,IN,Seller,Generated
718662cc-9978-4c8f-a4e1-f1e49424d5a8,Owner 5165,+91XXXXXXXXXX,,London,IN,Seller,Generated
53aa4302-b507-4832-95c9-6c525f04d416,Owner 7840,+91XXXXXXXXXX,,Delhi,IN,Seller,Generated
33fef166-f137-4a62-bf12-e96b7a1e5336,Owner 857,+91XXXXXXXXXX,,New York,IN,Seller,Generated
21a37b2c-a3f6-4112-b972-85a7d1b4434e,Owner 9429,+91XXXXXXXXXX,,London,IN,Seller,Generated
3cde1e5a-409b-4056-99b1-3353a2259637,Owner 3461,+91XXXXXXXXXX,,Mumbai,IN,Seller,Generated
7dbbe5f8-8f73-4dde-bee2-27a710accccc,Owner 4271,+91XXXXXXXXXX,,Delhi,IN,Seller,Generated
6dc70dfa-5ea1-4a4a-9577-fad08075820a,Owner 8530,+91XXXXXXXXXX,,New York,IN,Seller,Generated
070b29a6-dd66-47e4-b7a1-180290f4461e,Owner 3232,+91XXXXXXXXXX,,New York,IN,Seller,Generated
1a9b7294-6ff0-452f-b183-a549e30dd2d2,Owner 5166,+91XXXXXXXXXX,,Mumbai,IN,Seller,Generated
e465ac5c-4602-4e67-abf1-bc1d869de61b,Owner 7972,+91XXXXXXXXXX,,New York,IN,Seller,Generated
c8ac89e9-8a04-47c3-93c1-c0bf28b72bfa,Owner 8766,+91XXXXXXXXXX,,New York,IN,Seller,Generated
e4435617-4505-42d9-a199-83467efaf061,Owner 2944,+91XXXXXXXXXX,,Delhi,IN,Seller,Generated
9b429f02-6c26-467b-9e10-d1006674a608,Owner 1325,+91XXXXXXXXXX,,Mumbai,IN,Seller,Generated
99f1f19b-fcc5-4288-9278-7224517d2941,Owner 3762,+91XXXXXXXXXX,,Mumbai,IN,Seller,Generated
0e4937b7-8cba-419d-9558-ae6e4ca41bde,Owner 459,+91XXXXXXXXXX,,Delhi,IN,Seller,Generated
23d15817-73a5-4577-a8f4-4964cfc7da6e,Owner 9725,+91XXXXXXXXXX,,Mumbai,IN,Seller,Generated
1d619f80-903f-4312-aace-feda23e1bcb9,Owner 1347,+91XXXXXXXXXX,,Delhi,IN,Seller,Generated
9491f02b-e8f1-408b-bfce-32d1cd59bb0b,Owner 4982,+91XXXXXXXXXX,,Mumbai,IN,Seller,Generated
1395ed00-dd41-4465-988e-d7c7306e3a49,Owner 1813,+91XXXXXXXXXX,,New York,IN,Seller,Generated
73349ec3-14d0-4766-8a3c-4e3f003e6837,Owner 1897,+91XXXXXXXXXX,,Delhi,IN,Seller,Generated
108ab9e8-1c47-466e-9680-91fa6f790cc3,Owner 9692,+91XXXXXXXXXX,,London,IN,Seller,Generated
406bfa97-0495-40a2-8e7b-9a560380746b,Owner 3092,+91XXXXXXXXXX,,Mumbai,IN,Seller,Generated
eb32bfec-8f75-46d7-9379-0e1e617420a3,Owner 9301,+91XXXXXXXXXX,,Mumbai,IN,Seller,Generated
d5d9501a-9fd1-4e59-ac5d-d3e7a7c9bf41,Owner 7564,+91XXXXXXXXXX,,Delhi,IN,Seller,Generated
b4a31e07-f30f-482f-a5b9-44d9c5056330,Owner 7145,+91XXXXXXXXXX,,Delhi,IN,Seller,Generated
95b51c4d-3bcb-4e9c-9eb8-ae64ca159a67,Owner 2044,+91XXXXXXXXXX,,New York,IN,Seller,Generated
30ae92d1-57d7-4870-a482-a096375f0009,Owner 2420,+91XXXXXXXXXX,,New York,IN,Seller,Generated
08b29c5e-0014-499a-affb-949540810468,Owner 3587,+91XXXXXXXXXX,,Mumbai,IN,Seller,Generated
a37e4d77-ccce-4b8c-9136-f15e162e601b,Owner 7900,+91XXXXXXXXXX,,London,IN,Seller,Generated
f8f9267e-0414-4913-bf4b-87fcaaac0a3e,Owner 8652,+91XXXXXXXXXX,,London,IN,Seller,Generated
b117b1b3-a25d-412a-a390-53c2eeac66c4,Owner 510,+91XXXXXXXXXX,,New York,IN,Seller,Generated
01c715bc-062a-4db5-a83a-afb39f08c26c,Owner 8315,+91XXXXXXXXXX,,Delhi,IN,Seller,Generated
316be129-0cfb-4da5-8a51-166ffa505a54,Owner 2436,+91XXXXXXXXXX,,Mumbai,IN,Seller,Generated
4f61a043-98e3-4902-947c-1986f79d8552,Owner 7236,+91XXXXXXXXXX,,Mumbai,IN,Seller,Generated
db7ca068-dc99-4027-bf22-3aacca0cb6a7,Owner 663,+91XXXXXXXXXX,,New York,IN,Seller,Generated
52b4d706-afa0-4d64-a900-e55f3f273ced,Owner 3226,+91XXXXXXXXXX,,New York,IN,Seller,Generated
67f8458a-ade8-49e7-b2b6-4500f5c9fa30,Owner 5994,+91XXXXXXXXXX,,New York,IN,Seller,Generated
f02dcff7-27f8-4a17-b61f-843e7e7383b2,Owner 5060,+91XXXXXXXXXX,,Mumbai,IN,Seller,Generated
92e910b4-1bdf-4e9e-982f-840cfde4c016,Owner 8690,+91XXXXXXXXXX,,Mumbai,IN,Seller,Generated
c4a5c749-b061-4b3b-9425-25a3a629f599,Owner 6738,+91XXXXXXXXXX,,New York,IN,Seller,Generated
85ff4922-9f9f-442b-aa49-b8f10a85eb5f,Owner 7959,+91XXXXXXXXXX,,New York,IN,Seller,Generated
92ec550d-2fb2-4e9a-acc6-83ba8b5d84ae,Owner 8765,+91XXXXXXXXXX,,Delhi,IN,Seller,Generated
0d4d05c3-6ec5-4fd1-952f-35d2eb9282c5,Owner 1882,+91XXXXXXXXXX,,New York,IN,Seller,Generated
67f8bc48-0d4e-46ee-aea3-bcb34c983eef,Owner 2734,+91XXXXXXXXXX,,Delhi,IN,Seller,Generated
02fd1457-f6b6-4b02-941a-4f82259f3310,Owner 2091,+91XXXXXXXXXX,,London,IN,Seller,Generated
53108e90-28a0-42de-80cd-364eb62afffc,Owner 887,+91XXXXXXXXXX,,Delhi,IN,Seller,Generated
df7702e7-381e-49e4-8ad5-eb08a14a72db,Owner 9393,+91XXXXXXXXXX,,Mumbai,IN,Seller,Generated
0a784847-1847-4f7d-b043-37bd90a1553d,Owner 9970,+91XXXXXXXXXX,,Delhi,IN,Seller,Generated
fe535fe2-9763-4831-a2b0-348804e96d97,Owner 5352,+91XXXXXXXXXX,,New York,IN,Seller,Generated
f64ebe35-3b06-4528-8b06-3b58f0b1a2d9,Owner 5504,+91XXXXXXXXXX,,Delhi,IN,Seller,Generated
6850f13a-b39f-4110-bc0d-70eab26ea3fd,Owner 7589,+91XXXXXXXXXX,,Delhi,IN,Seller,Generated
3103ed5f-cc07-4ed2-8aab-35cc8dc5da24,Owner 2595,+91XXXXXXXXXX,,London,IN,Seller,Generated
40f28e15-1b90-4254-8b43-39cf735fb9bf,Owner 299,+91XXXXXXXXXX,,Delhi,IN,Seller,Generated
c85eb9bc-abc7-4f86-969e-db53689a3452,Owner 6820,+91XXXXXXXXXX,,New York,IN,Seller,Generated
04c1be9c-35b7-47a9-851d-306b271bb080,Owner 6485,+91XXXXXXXXXX,,Delhi,IN,Seller,Generated
cdae2a01-0e63-455d-ab12-e99ce9101cf1,Owner 8327,+91XXXXXXXXXX,,Mumbai,IN,Seller,Generated
43a6bbb4-639f-4855-a18e-c0808847eb7b,Owner 6135,+91XXXXXXXXXX,,London,IN,Seller,Generated
7ed4f465-5376-479d-ab9e-943a4d3588a5,Owner 5072,+91XXXXXXXXXX,,London,IN,Seller,Generated
b8a8a77e-91d0-45e6-ae25-96905055a242,Owner 7582,+91XXXXXXXXXX,,Mumbai,IN,Seller,Generated
3d672621-0738-432e-8207-5d6bb92eaa06,Owner 3773,+91XXXXXXXXXX,,Delhi,IN,Seller,Generated
b967c65e-7338-46de-b05c-4aa5f948c2af,Owner 1331,+91XXXXXXXXXX,,Delhi,IN,Seller,Generated
f8dfd238-ab01-43c1-a12a-a350d0d33b60,Owner 8684,+91XXXXXXXXXX,,Mumbai,IN,Seller,Generated
b5311807-2674-4715-a835-365c0240af2f,Owner 5739,+91XXXXXXXXXX,,Delhi,IN,Seller,Generated
bfa18535-3112-4b26-98b5-740c30861261,Owner 6386,+91XXXXXXXXXX,,London,IN,Seller,Generated
e4a97c09-326b-47d6-bcc9-ed2f78513c89,Owner 780,+91XXXXXXXXXX,,Delhi,IN,Seller,Generated
671fc3ed-d0e0-4237-9a61-9c06bbda245f,Owner 3438,+91XXXXXXXXXX,,Mumbai,IN,Seller,Generated
9138d049-531a-4552-83af-6b2e10201b5e,Owner 3711,+91XXXXXXXXXX,,London,IN,Seller,Generated
e576d1c4-9d4f-4324-8b2b-dd9512ca691d,Owner 749,+91XXXXXXXXXX,,Mumbai,IN,Seller,Generated
a8c264d9-8713-4e6e-a26d-eded0963b050,Owner 1770,+91XXXXXXXXXX,,Delhi,IN,Seller,Generated
19484ea8-1db5-4049-8413-72708f9b192c,Owner 8267,+91XXXXXXXXXX,,London,IN,Seller,Generated
d87f7a5f-09e3-4d10-9aac-d5282a7d39db,Owner 785,+91XXXXXXXXXX,,Mumbai,IN,Seller,Generated
b260d4f3-c7a5-4575-ad16-610c48f5933a,Owner 1965,+91XXXXXXXXXX,,Mumbai,IN,Seller,Generated
a905262c-59e9-49de-9113-b58bb8664189,Owner 1971,+91XXXXXXXXXX,,London,IN,Seller,Generated
ab161b8a-c635-4d65-81ab-97ed0cb5a14b,Owner 6139,+91XXXXXXXXXX,,London,IN,Seller,Generated
bd4d9e49-c131-497e-a4c1-69e52e225bc4,Owner 9506,+91XXXXXXXXXX,,Mumbai,IN,Seller,Generated
414afe40-7a91-484e-b639-ea0ea5caf134,Owner 2653,+91XXXXXXXXXX,,London,IN,Seller,Generated
9d711846-42c2-43d4-8c42-d3fe15d31e4f,Owner 2273,+91XXXXXXXXXX,,New York,IN,Seller,Generated
ff45d603-9b4f-4ff4-91a9-d6ec87152807,Owner 3650,+91XXXXXXXXXX,,Delhi,IN,Seller,Generated
9ae1c451-f7cc-4ecb-b7b8-4002348c0bdd,Owner 606,+91XXXXXXXXXX,,London,IN,Seller,Generated
42dc47a2-f138-4a5b-9f40-381b2ce57efb,Owner 4966,+91XXXXXXXXXX,,Delhi,IN,Seller,Generated
bb5728f3-0384-43b0-a778-3f3d94f8382f,Owner 2970,+91XXXXXXXXXX,,New York,IN,Seller,Generated
37881009-e31f-4915-b35b-3a4babc211b3,Owner 4790,+91XXXXXXXXXX,,Delhi,IN,Seller,Generated
178a424a-1acb-48a5-8e51-2c5216e52d17,Owner 5683,+91XXXXXXXXXX,,Delhi,IN,Seller,Generated
cd8449fa-0129-4c6c-b927-9fd015c8a4c5,Owner 5472,+91XXXXXXXXXX,,Delhi,IN,Seller,Generated
4a6d1b49-90c8-4811-9d5c-56545694d898,Owner 9372,+91XXXXXXXXXX,,New York,IN,Seller,Generated
7bb05f46-93a9-496f-9744-f3dda2f970ba,Owner 6853,+91XXXXXXXXXX,,Mumbai,IN,Seller,Generated
a11511cd-4d6b-4415-9fa8-90af23d25860,Owner 8124,+91XXXXXXXXXX,,London,IN,Seller,Generated
95e17b47-5537-41e9-93c3-876bbf288d34,Owner 4532,+91XXXXXXXXXX,,London,IN,Seller,Generated
64b17223-f897-4e29-9efe-fc52e2c02b85,Owner 1719,+91XXXXXXXXXX,,Delhi,IN,Seller,Generated
76a9b935-3e21-4da9-919a-69017d1ef259,Owner 8114,+91XXXXXXXXXX,,New York,IN,Seller,Generated
d5085754-ee39-49a4-b575-7c7432ead724,Owner 8559,+91XXXXXXXXXX,,New York,IN,Seller,Generated
0beb8087-452e-456d-b6cd-b8f0734f0b4d,Owner 4165,+91XXXXXXXXXX,,London,IN,Seller,Generated
efa1bd28-b542-4172-885b-4bf177fdd4c7,Owner 1785,+91XXXXXXXXXX,,New York,IN,Seller,Generated
a8714f3e-46ec-4101-ae6d-8fdb6284eae5,Owner 7361,+91XXXXXXXXXX,,London,IN,Seller,Generated
c3bae53f-37ab-4a27-8b73-0cd3ece8bae2,Owner 2487,+91XXXXXXXXXX,,London,IN,Seller,Generated
db8b1d78-3f63-4eca-bb0f-a8334afd459a,Owner 8911,+91XXXXXXXXXX,,Mumbai,IN,Seller,Generated
1ad4389e-0fac-4452-a8ee-38d3ab5799db,Owner 429,+91XXXXXXXXXX,,Mumbai,IN,Seller,Generated
1119be49-96f4-4595-979b-2e4717c46f42,Owner 5295,+91XXXXXXXXXX,,Mumbai,IN,Seller,Generated
d112a715-5e29-4b5b-be5c-2cdd8f186210,Owner 1810,+91XXXXXXXXXX,,London,IN,Seller,Generated
581de1d8-8fc5-4476-a3c0-59d3dd65945e,Owner 1577,+91XXXXXXXXXX,,New York,IN,Seller,Generated
3be456b6-fd11-435d-8a0e-9c03161e5991,Owner 8074,+91XXXXXXXXXX,,New York,IN,Seller,Generated
5da671d0-db76-47e4-8762-20e0fbcaaca8,Owner 2820,+91XXXXXXXXXX,,New York,IN,Seller,Generated
4696aff9-4f98-4954-b5e3-46aed69a6510,Owner 1765,+91XXXXXXXXXX,,London,IN,Seller,Generated
d69beafa-ce4a-4929-88a1-1d05d8a93716,Owner 5954,+91XXXXXXXXXX,,Delhi,IN,Seller,Generated
83fea350-45cb-44d6-8527-5160ba587c35,Owner 7274,+91XXXXXXXXXX,,Delhi,IN,Seller,Generated
91746f00-3f54-4a3c-9f10-31aa87384251,Owner 9453,+91XXXXXXXXXX,,Delhi,IN,Seller,Generated
6c3a4a65-fbe8-4db1-b60f-75944d652e19,Owner 4638,+91XXXXXXXXXX,,Mumbai,IN,Seller,Generated
2d9aac50-e7ac-44c3-b81e-e4ddf3415de1,Owner 4088,+91XXXXXXXXXX,,Mumbai,IN,Seller,Generated
87cbbd06-3ed6-4665-a947-4f1eeaa6ce1b,Owner 8716,+91XXXXXXXXXX,,London,IN,Seller,Generated
18066d1b-9626-4e8b-9693-04e6824a2beb,Owner 9929,+91XXXXXXXXXX,,Delhi,IN,Seller,Generated
f3dce43d-a583-4bac-83ee-4af5c2196068,Owner 8059,+91XXXXXXXXXX,,Mumbai,IN,Seller,Generated
56424c94-d92b-40b7-bd8c-b16ce0d7d06c,Owner 1238,+91XXXXXXXXXX,,Delhi,IN,Seller,Generated
f611af98-0836-4d16-91da-3b989be2e33a,Owner 3673,+91XXXXXXXXXX,,Delhi,IN,Seller,Generated
97480da1-dcfb-4542-839d-c7dee98839b2,Owner 9590,+91XXXXXXXXXX,,London,IN,Seller,Generated
0f925211-247f-416b-bccd-a233d20e76e6,Owner 9382,+91XXXXXXXXXX,,Delhi,IN,Seller,Generated
73e09418-f90b-40e8-8746-9f6354a4bc73,Owner 8014,+91XXXXXXXXXX,,Delhi,IN,Seller,Generated
6b84b3c7-afe7-4b37-b32f-814cf3d3940c,Owner 8193,+91XXXXXXXXXX,,London,IN,Seller,Generated
babaaec9-74d0-456b-a9f8-1dc34d0ee778,Owner 2410,+91XXXXXXXXXX,,Delhi,IN,Seller,Generated
0a0d5181-249f-446f-8bb0-7b84e363edd7,Owner 1111,+91XXXXXXXXXX,,London,IN,Seller,Generated
9250ad06-eaa8-4fe3-bdb3-2a935329fefe,Owner 295,+91XXXXXXXXXX,,New York,IN,Seller,Generated
6e6e38c6-fb6e-4da4-a05c-111d68a113ef,Owner 5819,+91XXXXXXXXXX,,Mumbai,IN,Seller,Generated
e7d9cd62-a64a-4514-9318-7c1084bfd044,Owner 7961,+91XXXXXXXXXX,,New York,IN,Seller,Generated
facfd1e5-e3ab-4aed-8afc-66fc60def4b8,Owner 8579,+91XXXXXXXXXX,,Mumbai,IN,Seller,Generated
adde4140-43ab-4dcb-9db3-ed44ed6a93ff,Owner 7093,+91XXXXXXXXXX,,Mumbai,IN,Seller,Generated
6b276260-9585-411c-9ea7-7a0422b7140d,Owner 9295,+91XXXXXXXXXX,,New York,IN,Seller,Generated
a1ff3b04-e601-4966-b0f9-a30dfceb67b9,Owner 9183,+91XXXXXXXXXX,,Mumbai,IN,Seller,Generated
ce40fb4d-66ca-4179-a31f-cc2d3614a236,Owner 5832,+91XXXXXXXXXX,,Mumbai,IN,Seller,Generated
7da2334d-2cf7-42ee-bdf8-7e59a732e6bd,Owner 4670,+91XXXXXXXXXX,,Mumbai,IN,Seller,Generated
c5b7de87-5947-4d18-b2ad-ce180b40f057,Owner 6275,+91XXXXXXXXXX,,Mumbai,IN,Seller,Generated
e795a602-54f5-4579-a60d-5b9ca5a052c4,Owner 2122,+91XXXXXXXXXX,,London,IN,Seller,Generated
a4b1667a-d89b-45c5-9dfe-802e1ed07c32,Owner 2530,+91XXXXXXXXXX,,London,IN,Seller,Generated
69031ae5-7abc-4276-9dc6-db5bb37e7c27,Owner 1341,+91XXXXXXXXXX,,London,IN,Seller,Generated
3ca70352-08b7-4e68-bdd0-843434fd6a3d,Owner 787,+91XXXXXXXXXX,,New York,IN,Seller,Generated
f85e118c-a080-4438-b8ca-bcaead0a89b1,Owner 8741,+91XXXXXXXXXX,,Delhi,IN,Seller,Generated
d070e8ed-0d2f-4968-b461-f09ec973de5c,Owner 5766,+91XXXXXXXXXX,,Delhi,IN,Seller,Generated
f6b7f0ac-ec81-4a8d-9ef5-6c88d13b3b0a,Owner 5601,+91XXXXXXXXXX,,New York,IN,Seller,Generated
f677206a-220f-414e-a45a-6bf361997ba7,Owner 1564,+91XXXXXXXXXX,,New York,IN,Seller,Generated
a57f997e-7b27-4ba7-9b39-0c932aa3d4b2,Owner 2342,+91XXXXXXXXXX,,New York,IN,Seller,Generated
a131db9f-da13-40dd-8f8e-ea2f282a3c93,Owner 9561,+91XXXXXXXXXX,,New York,IN,Seller,Generated
b8a01d65-2741-4088-9a46-bd4491aa1af9,Owner 3509,+91XXXXXXXXXX,,Mumbai,IN,Seller,Generated
72e22571-e82e-4fa9-93b7-6fbe7c52a3fe,Owner 9083,+91XXXXXXXXXX,,London,IN,Seller,Generated
479e6719-cf38-4c46-8990-3f6ee64975d3,Owner 3695,+91XXXXXXXXXX,,New York,IN,Seller,Generated
ba956237-5726-4cc4-aa2c-00867e71a1b7,Owner 5052,+91XXXXXXXXXX,,London,IN,Seller,Generated
94a1e818-f715-4979-9f04-9250ae9d86a8,Owner 7023,+91XXXXXXXXXX,,London,IN,Seller,Generated
104b0810-3008-4461-bf41-e80e39b50ed2,Owner 4744,+91XXXXXXXXXX,,New York,IN,Seller,Generated
fcc3284f-af2a-472c-b100-e95d34c2d514,Owner 9395,+91XXXXXXXXXX,,New York,IN,Seller,Generated
8e9999d8-8a72-4415-b4c3-3848e6b74008,Owner 1055,+91XXXXXXXXXX,,Mumbai,IN,Seller,Generated
2709e474-fc0f-4994-acc4-fcd3b2b3cf4f,Owner 9864,+91XXXXXXXXXX,,New York,IN,Seller,Generated
bd483638-1add-4be6-9899-caceca336430,Owner 5685,+91XXXXXXXXXX,,Delhi,IN,Seller,Generated
c82582f3-2c9b-4c28-99f3-939d42887bed,Owner 4545,+91XXXXXXXXXX,,Mumbai,IN,Seller,Generated
952d0d27-38c2-47bf-b2ee-bfba6d6eca71,Owner 2532,+91XXXXXXXXXX,,Mumbai,IN,Seller,Generated
9ff534dc-8eb2-4081-b684-aaddb912b613,Owner 3710,+91XXXXXXXXXX,,Mumbai,IN,Seller,Generated
5e23bb39-9205-4199-8821-8e4a2f48d8b0,Owner 6908,+91XXXXXXXXXX,,New York,IN,Seller,Generated
cedab0c1-dbbd-40a0-b59b-116bbfd2fea3,Owner 4721,+91XXXXXXXXXX,,New York,IN,Seller,Generated
679dbaf8-7ea4-40f2-8c15-9e9430047625,Owner 8038,+91XXXXXXXXXX,,Mumbai,IN,Seller,Generated
4e8650aa-cc4c-4196-b91d-266c55398fc4,Owner 2890,+91XXXXXXXXXX,,Delhi,IN,Seller,Generated
8365b37a-a003-4d65-be4f-4e6e162911ac,Owner 5156,+91XXXXXXXXXX,,Mumbai,IN,Seller,Generated
e6da704d-9924-4fa5-b3a4-18f7a933ff1b,Owner 3348,+91XXXXXXXXXX,,Delhi,IN,Seller,Generated
3ae7f868-57ef-477f-b58d-297660d7e466,Owner 4112,+91XXXXXXXXXX,,Delhi,IN,Seller,Generated
d410c519-dee4-46b8-93a6-19352a82285c,Owner 2990,+91XXXXXXXXXX,,Delhi,IN,Seller,Generated
f90df4c4-3fb7-402c-9502-35b7920134f5,Owner 9056,+91XXXXXXXXXX,,London,IN,Seller,Generated
74902142-a945-420f-b155-7716d9504780,Owner 3214,+91XXXXXXXXXX,,Delhi,IN,Seller,Generated
077b6a94-0b1d-4179-91e2-68bd30947bec,Owner 4251,+91XXXXXXXXXX,,Mumbai,IN,Seller,Generated
e75dd660-e71f-4837-b79e-5dbe2b7cba65,Owner 5189,+91XXXXXXXXXX,,New York,IN,Seller,Generated
031047d1-cd8d-41a0-a692-589723c4f254,Owner 3701,+91XXXXXXXXXX,,New York,IN,Seller,Generated
a605ce73-535b-481c-8beb-b35c48afd2e5,Owner 8723,+91XXXXXXXXXX,,Delhi,IN,Seller,Generated
949be035-eab9-49f3-9231-c93e013d59fb,Owner 2579,+91XXXXXXXXXX,,Delhi,IN,Seller,Generated
9a949875-c94d-44f6-89cb-5ca6c421611b,Owner 5688,+91XXXXXXXXXX,,New York,IN,Seller,Generated
2a732ba5-a17a-4f07-affe-cefac65074cc,Owner 1150,+91XXXXXXXXXX,,New York,IN,Seller,Generated
aee720e5-3cbf-486a-b8b7-3f5b13ad2256,Owner 3926,+91XXXXXXXXXX,,Mumbai,IN,Seller,Generated
06d48507-f705-47d3-bb37-3a51f6f92101,Owner 961,+91XXXXXXXXXX,,London,IN,Seller,Generated
5024eb09-4ad7-4579-8c0c-ad3a6e4eac34,Owner 3333,+91XXXXXXXXXX,,Mumbai,IN,Seller,Generated
cdaf0c52-faf7-4020-8f3f-42ecef61dc82,Owner 9865,+91XXXXXXXXXX,,New York,IN,Seller,Generated
b5544774-8f7f-4522-a0bc-d99169893f56,Owner 6026,+91XXXXXXXXXX,,New York,IN,Seller,Generated
c347f643-30d0-416c-afb4-20e4591a2cd4,Owner 6119,+91XXXXXXXXXX,,Mumbai,IN,Seller,Generated
4d74f986-b121-4504-9bcc-b1ecc6449ccd,Owner 3012,+91XXXXXXXXXX,,Mumbai,IN,Seller,Generated
554088b4-8947-4520-8691-ae336e91c99f,Owner 573,+91XXXXXXXXXX,,New York,IN,Seller,Generated
dea5e2c4-3046-4c34-956a-e9ee122b643a,Owner 6639,+91XXXXXXXXXX,,New York,IN,Seller,Generated
87ac4b23-a915-4040-953f-4ceaa5d1333f,Owner 3877,+91XXXXXXXXXX,,Delhi,IN,Seller,Generated
956bafe0-0cd8-4524-b118-62db2093d8c7,Owner 3355,+91XXXXXXXXXX,,London,IN,Seller,Generated
fb58bb4c-a0bf-47f8-a04f-97552861aacf,Owner 2552,+91XXXXXXXXXX,,Mumbai,IN,Seller,Generated
cfb9a3af-c0c5-451b-97e2-402c72a1ff71,Owner 4297,+91XXXXXXXXXX,,Delhi,IN,Seller,Generated
bb3a2adf-e0b4-40f7-bafa-1141983b03be,Owner 5884,+91XXXXXXXXXX,,New York,IN,Seller,Generated
abf2f467-7fa0-49c3-8605-a033c8d46b76,Owner 3839,+91XXXXXXXXXX,,Mumbai,IN,Seller,Generated
ff0c4699-abb6-474e-8a89-d8cdcbb18452,Owner 15,+91XXXXXXXXXX,,London,IN,Seller,Generated
f0f2e01e-d532-4ed4-b3d0-789f941e3a9c,Owner 7058,+91XXXXXXXXXX,,Delhi,IN,Seller,Generated
e9e4a35d-b383-48a0-b55b-06f4d1f6dc67,Owner 5411,+91XXXXXXXXXX,,Mumbai,IN,Seller,Generated
595505e8-4aa4-4250-8088-6c35f6ad9c1b,Owner 3443,+91XXXXXXXXXX,,Delhi,IN,Seller,Generated
8954473d-dfa2-4189-9656-44e02140508f,Owner 992,+91XXXXXXXXXX,,New York,IN,Seller,Generated
5d7776e0-a0ab-4294-b6e7-0081d4eb3826,Owner 9884,+91XXXXXXXXXX,,New York,IN,Seller,Generated
0f8d9179-e17e-44bd-ac9f-164ea05794f2,Owner 4059,+91XXXXXXXXXX,,Delhi,IN,Seller,Generated
6cb17954-5f85-43b1-b7b7-c79c4de037e9,Owner 305,+91XXXXXXXXXX,,Mumbai,IN,Seller,Generated
4bec1ee0-e4f9-4435-a887-12215c84774f,Owner 8575,+91XXXXXXXXXX,,Delhi,IN,Seller,Generated
47602604-77f8-4ad3-9dbf-4242ce20cf4b,Owner 4841,+91XXXXXXXXXX,,New York,IN,Seller,Generated
63a21785-1966-4d27-b772-478e46fcb408,Owner 2281,+91XXXXXXXXXX,,Delhi,IN,Seller,Generated
0886b15c-d714-411b-8de2-bd61c59e9766,Owner 302,+91XXXXXXXXXX,,Delhi,IN,Seller,Generated
5f6594a5-0c4b-43a9-8f24-0f908e58aba2,Owner 6586,+91XXXXXXXXXX,,Mumbai,IN,Seller,Generated
a746845d-65ff-4602-a6d6-29162727e052,Owner 5921,+91XXXXXXXXXX,,London,IN,Seller,Generated
64d7c2db-2df1-49f8-b30a-605e825eed06,Owner 8452,+91XXXXXXXXXX,,Mumbai,IN,Seller,Generated
18f00404-9ffd-47b6-8dfc-0a773b8c9f6e,Owner 2146,+91XXXXXXXXXX,,London,IN,Seller,Generated
7efca5fc-138b-424e-bfdc-f8201d29fafa,Owner 8218,+91XXXXXXXXXX,,Mumbai,IN,Seller,Generated
0120b87a-5448-4197-9709-625996b144cf,Owner 520,+91XXXXXXXXXX,,Delhi,IN,Seller,Generated
0277527a-eaa7-4cd8-98a9-0a10aa5c8157,Owner 1440,+91XXXXXXXXXX,,Mumbai,IN,Seller,Generated
9916c12e-72b8-411f-83fd-114995020cad,Owner 6532,+91XXXXXXXXXX,,New York,IN,Seller,Generated
0e900261-33f4-4aff-b50d-5a9cd46fff47,Owner 9071,+91XXXXXXXXXX,,Delhi,IN,Seller,Generated
b030208c-bc9a-45f8-9bf6-8c5659125cb7,Owner 7673,+91XXXXXXXXXX,,Mumbai,IN,Seller,Generated
3769216e-191a-4b36-9087-5855bf43b1bb,Owner 4925,+91XXXXXXXXXX,,New York,IN,Seller,Generated
a6e66e49-a771-4564-adbf-12ce2541e9b3,Owner 1565,+91XXXXXXXXXX,,Delhi,IN,Seller,Generated
d4686147-626e-4b5b-9454-806e8d0528b1,Owner 3664,+91XXXXXXXXXX,,London,IN,Seller,Generated
6a2eb428-2111-4e2c-9c0d-539deb62728d,Owner 4024,+91XXXXXXXXXX,,Mumbai,IN,Seller,Generated
2ba742a1-2824-4b4e-8917-2b421393be00,Owner 3847,+91XXXXXXXXXX,,New York,IN,Seller,Generated
e2a4096e-3ef9-48ee-86ad-d9ee1b3bf220,Owner 9153,+91XXXXXXXXXX,,Delhi,IN,Seller,Generated
ffd6e102-7799-49b5-92dd-8d3602cdc29f,Owner 1147,+91XXXXXXXXXX,,Mumbai,IN,Seller,Generated
91b576a4-c350-4ca1-ba69-8439e5a8a253,Owner 7614,+91XXXXXXXXXX,,New York,IN,Seller,Generated
16886efc-d16b-4688-bf2a-eca583c71f06,Owner 7560,+91XXXXXXXXXX,,New York,IN,Seller,Generated
35bc35dc-973f-4e10-bfef-dcdf6010974d,Owner 4160,+91XXXXXXXXXX,,London,IN,Seller,Generated
95c3d8ee-a493-428a-8ab3-28b985a62de2,Owner 6463,+91XXXXXXXXXX,,Delhi,IN,Seller,Generated
f0ed463e-9970-443f-a1de-a64b5ce0da85,Owner 1348,+91XXXXXXXXXX,,New York,IN,Seller,Generated
7aa4409d-f3ec-4a44-abed-c88542c9e1bf,Owner 9848,+91XXXXXXXXXX,,Mumbai,IN,Seller,Generated
34d2014e-e051-4c1e-b24e-a3c1986646ad,Owner 3372,+91XXXXXXXXXX,,Mumbai,IN,Seller,Generated
1a3622ee-2d88-4621-b168-c9ccd5f8b729,Owner 2225,+91XXXXXXXXXX,,New York,IN,Seller,Generated
ba1d54be-64c9-455d-a36e-beb9eced51e4,Owner 9618,+91XXXXXXXXXX,,Delhi,IN,Seller,Generated
aecfefa6-4b7c-43cf-a52f-cf0e9a6ed06b,Owner 421,+91XXXXXXXXXX,,Delhi,IN,Seller,Generated
4d8e883a-357a-48f9-bacb-8297860cd805,Owner 7429,+91XXXXXXXXXX,,Delhi,IN,Seller,Generated
20808c4a-0727-43e4-b5a7-988811411624,Owner 3476,+91XXXXXXXXXX,,London,IN,Seller,Generated
623fadc2-fe8b-4fd1-9efe-8ad807b08b07,Owner 476,+91XXXXXXXXXX,,Mumbai,IN,Seller,Generated
6d671e94-4913-4e60-9d45-1b033434d59e,Owner 2030,+91XXXXXXXXXX,,Delhi,IN,Seller,Generated
4e5ad265-4b1a-474a-930e-3f460157ec74,Owner 4817,+91XXXXXXXXXX,,New York,IN,Seller,Generated
07a50e54-d146-4731-bf91-f2a850cdc7b8,Owner 949,+91XXXXXXXXXX,,New York,IN,Seller,Generated
b2927f36-a3e3-4bd6-aacd-1e04551cde73,Owner 989,+91XXXXXXXXXX,,New York,IN,Seller,Generated
aab5f6f7-5680-46f6-9796-93cbf09abfd8,Owner 9428,+91XXXXXXXXXX,,Mumbai,IN,Seller,Generated
7bdcf54e-b876-442b-8d8c-b293d7d37b23,Owner 6338,+91XXXXXXXXXX,,Mumbai,IN,Seller,Generated
205dd517-2326-455e-8efe-e3a779af26b6,Owner 6130,+91XXXXXXXXXX,,London,IN,Seller,Generated
77e53217-6778-49b6-83ec-55deb599e735,Owner 3365,+91XXXXXXXXXX,,Mumbai,IN,Seller,Generated
4a1f998a-8ba6-4242-8606-344ad6314f08,Owner 9219,+91XXXXXXXXXX,,Delhi,IN,Seller,Generated
75faa1dc-02bc-44b6-91ae-84d896bb96b4,Owner 3000,+91XXXXXXXXXX,,London,IN,Seller,Generated
338f5bb9-d814-477c-8b06-da169797312f,Owner 9612,+91XXXXXXXXXX,,Mumbai,IN,Seller,Generated
e500f5c3-0fa8-45a4-a32e-3e707aedc3e8,Owner 2329,+91XXXXXXXXXX,,New York,IN,Seller,Generated
380ce535-556d-4813-824a-eb363d551c50,Owner 4461,+91XXXXXXXXXX,,Delhi,IN,Seller,Generated
b974636e-104a-4934-90aa-25e0524b60c9,Owner 4958,+91XXXXXXXXXX,,London,IN,Seller,Generated
937ea25b-6055-499a-a4fc-01c6324109e1,Owner 7680,+91XXXXXXXXXX,,New York,IN,Seller,Generated
e27e904a-f63e-473b-800f-abf271f0f0c5,Owner 5194,+91XXXXXXXXXX,,Mumbai,IN,Seller,Generated
2175e093-70ea-470c-a2eb-5b18a80de525,Owner 4150,+91XXXXXXXXXX,,Mumbai,IN,Seller,Generated
a2194a9c-9c75-487e-a6cd-dcea7095eb74,Owner 4408,+91XXXXXXXXXX,,New York,IN,Seller,Generated
eb4a4c1f-1d18-40fd-a59e-efa517aeaf46,Owner 9915,+91XXXXXXXXXX,,London,IN,Seller,Generated
9ef9fbdb-d80a-419a-92d6-864b2eb398ad,Owner 7232,+91XXXXXXXXXX,,New York,IN,Seller,Generated
343178f6-68c3-4112-b68a-0659c91e43ed,Owner 4150,+91XXXXXXXXXX,,London,IN,Seller,Generated
1bae9ed8-fef4-42aa-ae66-92b9bfb94917,Owner 9358,+91XXXXXXXXXX,,London,IN,Seller,Generated
97907435-ba44-42c3-a32f-ffa7c90e7ebc,Owner 1830,+91XXXXXXXXXX,,Delhi,IN,Seller,Generated
93f94af0-4db1-4a21-9861-9fbb55b753ee,Owner 8503,+91XXXXXXXXXX,,London,IN,Seller,Generated
27217e7f-fdc2-401a-b3bc-2f25430e920e,Owner 9790,+91XXXXXXXXXX,,London,IN,Seller,Generated
63f736f3-1d43-428b-9c53-c734ba555db9,Owner 9648,+91XXXXXXXXXX,,London,IN,Seller,Generated
656c8b80-da55-4d02-b0d0-dcb6986d0310,Owner 2673,+91XXXXXXXXXX,,Delhi,IN,Seller,Generated
13523e58-9c88-43fe-8fd6-0d451a00bf24,Owner 7259,+91XXXXXXXXXX,,Mumbai,IN,Seller,Generated
7ff3ffa7-2fb0-44ba-8ee1-d530b3e3dbdc,Owner 4703,+91XXXXXXXXXX,,Delhi,IN,Seller,Generated
cc18be18-9182-4d8d-ab7d-56c62b76d135,Owner 6384,+91XXXXXXXXXX,,Delhi,IN,Seller,Generated
172cc2cb-141c-4adc-8607-957d25c2eb67,Owner 289,+91XXXXXXXXXX,,New York,IN,Seller,Generated
7e1c324b-4d4c-4804-b0fa-ec83edddc8db,Owner 2559,+91XXXXXXXXXX,,London,IN,Seller,Generated
ea64e148-a814-458a-b786-b709b41530db,Owner 9202,+91XXXXXXXXXX,,New York,IN,Seller,Generated
785f9e83-6c0d-404a-81a6-1e0cd770b04d,Owner 2139,+91XXXXXXXXXX,,New York,IN,Seller,Generated
573decde-17b0-4404-a8f0-10394255c082,Owner 2598,+91XXXXXXXXXX,,Delhi,IN,Seller,Generated
ee3ddad8-18fe-40b3-b7b8-1d795ce87770,Owner 8700,+91XXXXXXXXXX,,London,IN,Seller,Generated
2be3af17-65a5-4ae0-b077-8184852fe61f,Owner 4569,+91XXXXXXXXXX,,Delhi,IN,Seller,Generated
095ce348-2a62-4729-9ba5-e57cc4d32a3f,Owner 6314,+91XXXXXXXXXX,,New York,IN,Seller,Generated
7ed85e41-b40e-4f6d-acd4-ad4b881229d3,Owner 6918,+91XXXXXXXXXX,,Mumbai,IN,Seller,Generated
c4fd5b24-83b4-4940-b9d3-05da7302b0b8,Owner 3208,+91XXXXXXXXXX,,New York,IN,Seller,Generated
64ce2747-28a1-46fe-ae6b-12eeabc538b6,Owner 2980,+91XXXXXXXXXX,,New York,IN,Seller,Generated
8d6f1506-76fc-44a1-a0ef-b503e458f85b,Owner 7833,+91XXXXXXXXXX,,Delhi,IN,Seller,Generated
84a327df-7ebb-4ba2-a92c-070452420c65,Owner 8174,+91XXXXXXXXXX,,Mumbai,IN,Seller,Generated
0cb7d703-1386-453e-be44-7e4c3b7cb9e0,Owner 1107,+91XXXXXXXXXX,,London,IN,Seller,Generated
a506c405-d670-49cf-aba8-cb0e0ff6440b,Owner 6614,+91XXXXXXXXXX,,Delhi,IN,Seller,Generated
784125fd-6f3c-427f-b255-16b7f439af6e,Owner 4563,+91XXXXXXXXXX,,Mumbai,IN,Seller,Generated
1ae2ed5c-20f8-4ec6-a578-59831eca1fe7,Owner 5534,+91XXXXXXXXXX,,Delhi,IN,Seller,Generated
951550b8-8460-4b6d-a82a-d471ff0aa5b1,Owner 3822,+91XXXXXXXXXX,,London,IN,Seller,Generated
71c977d2-5af1-48c5-930b-133dc73eefd1,Owner 8742,+91XXXXXXXXXX,,Mumbai,IN,Seller,Generated
bcfc6641-77af-48db-b0ec-ba923e2131ed,Owner 7831,+91XXXXXXXXXX,,New York,IN,Seller,Generated
ac2df81b-23a3-40ee-8b3c-e78b56fceaac,Owner 9625,+91XXXXXXXXXX,,Mumbai,IN,Seller,Generated
c77c2d73-b3d6-4003-9105-274a8e333543,Owner 1954,+91XXXXXXXXXX,,London,IN,Seller,Generated
a40edabc-7269-443c-9c83-fb66324e9d0b,Owner 4911,+91XXXXXXXXXX,,London,IN,Seller,Generated
155cb915-184e-4ad8-9389-a5ffbf310076,Owner 6327,+91XXXXXXXXXX,,Mumbai,IN,Seller,Generated
e0117cb6-529c-4fc7-9add-750f5ec85dfe,Owner 2527,+91XXXXXXXXXX,,New York,IN,Seller,Generated
aaf2e7a9-013c-4fce-9893-1955f01415c4,Owner 9614,+91XXXXXXXXXX,,London,IN,Seller,Generated
600f093d-9241-41cc-970c-2e6dcc88333f,Owner 8176,+91XXXXXXXXXX,,New York,IN,Seller,Generated
88923db4-6c3a-4999-9bdc-d51d8b6a96dd,Owner 5669,+91XXXXXXXXXX,,London,IN,Seller,Generated
53995f41-4834-4e96-85ae-4ecb1f797943,Owner 838,+91XXXXXXXXXX,,Mumbai,IN,Seller,Generated
9ccdf6d3-50bc-4233-b11e-f65679f1514d,Owner 8235,+91XXXXXXXXXX,,Delhi,IN,Seller,Generated
a77aa6ab-48a7-4973-8533-97d9c395087c,Owner 6191,+91XXXXXXXXXX,,Delhi,IN,Seller,Generated
0bc4de7c-7b53-499d-9726-c1fab5a03007,Owner 7483,+91XXXXXXXXXX,,New York,IN,Seller,Generated
bf98e68f-6ba4-45a8-9bd1-607b34309016,Owner 8041,+91XXXXXXXXXX,,Delhi,IN,Seller,Generated
1503b14d-09c9-42fa-836c-b48f054315e4,Owner 7918,+91XXXXXXXXXX,,Mumbai,IN,Seller,Generated
e6568c87-cae7-495a-8175-53745bfbadf4,Owner 8847,+91XXXXXXXXXX,,New York,IN,Seller,Generated
939fd28d-4c40-4c18-857e-1d8408958daa,Owner 8763,+91XXXXXXXXXX,,Mumbai,IN,Seller,Generated
4375bedb-377c-4e36-b81f-4fb7db8e0a24,Owner 1069,+91XXXXXXXXXX,,Mumbai,IN,Seller,Generated
6c5d21fc-4370-4bb3-a71e-8704b34ac9ab,Owner 2981,+91XXXXXXXXXX,,Delhi,IN,Seller,Generated
840784ee-71c1-47a9-8f82-eb8c1bfa9da2,Owner 8762,+91XXXXXXXXXX,,Mumbai,IN,Seller,Generated
53505a28-ccff-4446-8811-35fc712c6739,Owner 5145,+91XXXXXXXXXX,,Mumbai,IN,Seller,Generated
4af5ab27-46c7-40b0-8f88-3fda0f049c2a,Owner 7619,+91XXXXXXXXXX,,New York,IN,Seller,Generated
11c43480-717c-485b-9f52-b983fe1bd2bd,Owner 547,+91XXXXXXXXXX,,Mumbai,IN,Seller,Generated
be2e4a94-51c1-4966-b338-f8981de986e5,Owner 5877,+91XXXXXXXXXX,,Delhi,IN,Seller,Generated
bc88d222-131f-4f54-a80b-a82fe11d1593,Owner 5077,+91XXXXXXXXXX,,Delhi,IN,Seller,Generated
8123583d-3ca3-4b9e-bcb4-3960ee71a2b3,Owner 9540,+91XXXXXXXXXX,,Delhi,IN,Seller,Generated
bb60a94b-f039-402a-a28f-95eec1ae7c63,Owner 9560,+91XXXXXXXXXX,,New York,IN,Seller,Generated
6154c383-25f2-4483-a5db-0e242d57f2b5,Owner 7585,+91XXXXXXXXXX,,London,IN,Seller,Generated
cba02220-968d-4bf1-8b86-8d6599e4c8be,Owner 4912,+91XXXXXXXXXX,,New York,IN,Seller,Generated
1ee50517-d8de-4a17-a6de-a7c244fca378,Owner 6852,+91XXXXXXXXXX,,Delhi,IN,Seller,Generated
a001ab9e-af39-4de7-b976-f82f4b004b75,Owner 7741,+91XXXXXXXXXX,,Mumbai,IN,Seller,Generated
7450de14-3194-46e3-87c8-a301e20548ee,Owner 7821,+91XXXXXXXXXX,,London,IN,Seller,Generated
9c584b10-03b5-4140-9317-bdcfbdc5230e,Owner 2023,+91XXXXXXXXXX,,Delhi,IN,Seller,Generated
13f516f4-9e1f-43a9-b812-16fcf788b667,Owner 4863,+91XXXXXXXXXX,,Delhi,IN,Seller,Generated
4a69ffd4-db9a-4cbb-a5e1-95b2ebbb8b78,Owner 7378,+91XXXXXXXXXX,,Delhi,IN,Seller,Generated
e5bb860c-a8c7-4a0c-be2a-52370e485ba7,Owner 4031,+91XXXXXXXXXX,,Mumbai,IN,Seller,Generated
09606d62-7280-4a15-aa2b-3685bcf12814,Owner 8786,+91XXXXXXXXXX,,London,IN,Seller,Generated
88b79d34-fe51-4f7f-8c6d-a15e302c4404,Owner 3458,+91XXXXXXXXXX,,New York,IN,Seller,Generated
37b3bc26-fb42-474c-99b2-c2ad80b7848a,Owner 8494,+91XXXXXXXXXX,,London,IN,Seller,Generated
586f1af0-f2ee-4208-bcd9-9d80f382044d,Owner 4599,+91XXXXXXXXXX,,London,IN,Seller,Generated
ca4f3e32-764c-4713-af37-3530874136ab,Owner 178,+91XXXXXXXXXX,,London,IN,Seller,Generated
bef19539-8fcf-4b72-b8de-b39f8f10eb64,Owner 7217,+91XXXXXXXXXX,,London,IN,Seller,Generated
a73c2bb0-f3ff-4723-8b9f-41c54f52bd59,Owner 4645,+91XXXXXXXXXX,,Mumbai,IN,Seller,Generated
e5c3487b-5dc3-4c94-8249-7f6bf87fa574,Owner 8181,+91XXXXXXXXXX,,Mumbai,IN,Seller,Generated
5eb4f266-1ca9-4405-8be4-327eeda58c91,Owner 7688,+91XXXXXXXXXX,,Mumbai,IN,Seller,Generated
b6aee675-aebf-4ab0-a50a-4e7fa6789ad3,Owner 6760,+91XXXXXXXXXX,,Mumbai,IN,Seller,Generated
5e2229d8-c932-497e-a041-e8ec329d4634,Owner 6860,+91XXXXXXXXXX,,New York,IN,Seller,Generated
bd93b0b5-1f40-4f40-b081-422f14f23571,Owner 1469,+91XXXXXXXXXX,,New York,IN,Seller,Generated
b7b1fd21-f9d8-4a66-9bc2-4c5eb02bcd65,Owner 8032,+91XXXXXXXXXX,,Delhi,IN,Seller,Generated
b0c53d49-18e7-421c-b95f-d567009a4692,Owner 5872,+91XXXXXXXXXX,,London,IN,Seller,Generated
45f1a937-c1da-4e60-9aa3-63cb9642b579,Owner 5609,+91XXXXXXXXXX,,Mumbai,IN,Seller,Generated
928f6d27-bdcb-49c7-b857-0be2b1b1fcac,Owner 8649,+91XXXXXXXXXX,,Mumbai,IN,Seller,Generated
8ec26164-cb02-4788-a1f4-a52cbe7a9e3a,Owner 5845,+91XXXXXXXXXX,,New York,IN,Seller,Generated
30059d8d-7fd9-4d89-b26f-e10ec46c9b57,Owner 254,+91XXXXXXXXXX,,New York,IN,Seller,Generated
8356380e-25e3-432e-a544-073aec972c02,Owner 7608,+91XXXXXXXXXX,,Delhi,IN,Seller,Generated
d22587b9-bbcf-4e2c-83e1-1ccbc21f2255,Owner 2324,+91XXXXXXXXXX,,Delhi,IN,Seller,Generated
ac08fdff-1e19-4c95-ac45-25144d48dbc1,Owner 5876,+91XXXXXXXXXX,,Delhi,IN,Seller,Generated
ce92c725-284e-43a9-b612-615d29c20cad,Owner 6502,+91XXXXXXXXXX,,Delhi,IN,Seller,Generated
95c4295e-f451-483e-9e24-a8477b76d027,Owner 3265,+91XXXXXXXXXX,,Mumbai,IN,Seller,Generated
cb1fa582-10ee-4025-a085-af60304ee36a,Owner 9684,+91XXXXXXXXXX,,London,IN,Seller,Generated
d8e804f0-93b5-4174-ba4a-c6402df349f6,Owner 7802,+91XXXXXXXXXX,,Mumbai,IN,Seller,Generated
63c66e69-a712-4bdd-b0fd-b055b892be6c,Owner 7874,+91XXXXXXXXXX,,Delhi,IN,Seller,Generated
2e3cd6f9-a1a3-4e43-a7c1-39136e2baeb4,Owner 1606,+91XXXXXXXXXX,,Mumbai,IN,Seller,Generated
2f76fc10-22bd-4e07-870b-8527904344c0,Owner 5269,+91XXXXXXXXXX,,Delhi,IN,Seller,Generated
a5db0c53-d3d4-478e-97f2-181e66dc1b31,Owner 7177,+91XXXXXXXXXX,,Delhi,IN,Seller,Generated
ae394d22-2fc3-4fe9-8438-6a2e79e79071,Owner 9149,+91XXXXXXXXXX,,New York,IN,Seller,Generated
0319290a-4a17-4d22-a4c4-de2f26cfda6f,Owner 1622,+91XXXXXXXXXX,,Delhi,IN,Seller,Generated
08b8ccbe-31d0-4bbb-938f-c0a82ada7525,Owner 9825,+91XXXXXXXXXX,,Mumbai,IN,Seller,Generated
06849e1a-8cd7-4274-9b97-f90eb3c74cea,Owner 6035,+91XXXXXXXXXX,,Mumbai,IN,Seller,Generated
037dd9a5-7733-44cd-b724-d98768121b6b,Owner 7360,+91XXXXXXXXXX,,Delhi,IN,Seller,Generated
051a03a9-8720-4bba-b56f-85f3991cc17b,Owner 6604,+91XXXXXXXXXX,,Delhi,IN,Seller,Generated
d2cc7437-3374-465e-b69e-adcc3f675b83,Owner 5653,+91XXXXXXXXXX,,London,IN,Seller,Generated
093578d0-bade-43a5-ba79-4c97270c213e,Owner 9675,+91XXXXXXXXXX,,London,IN,Seller,Generated
88e6c136-de37-4a9e-96b2-f467d55c3cba,Owner 8508,+91XXXXXXXXXX,,New York,IN,Seller,Generated
8d158c30-842b-4e3d-ad6a-d40139b602ef,Owner 4537,+91XXXXXXXXXX,,Mumbai,IN,Seller,Generated
188634f9-f20f-4b70-a374-8de20bb3a30c,Owner 6260,+91XXXXXXXXXX,,New York,IN,Seller,Generated
bdf727d3-74fd-408e-bbf8-e79e9a9c30be,Owner 8691,+91XXXXXXXXXX,,New York,IN,Seller,Generated
7b02677c-3b98-4b40-bc53-a31bc79e9a70,Owner 7115,+91XXXXXXXXXX,,New York,IN,Seller,Generated
854c276f-7d6e-4613-a486-a150ea21f7b3,Owner 3777,+91XXXXXXXXXX,,London,IN,Seller,Generated
ebafa003-ecf8-4fe2-afa4-b8e73e6881fb,Owner 8934,+91XXXXXXXXXX,,London,IN,Seller,Generated
09f7bd30-bcb5-4290-86e8-d6e8d4aa5198,Owner 5622,+91XXXXXXXXXX,,London,IN,Seller,Generated
480b9bfa-3552-47e6-a75a-0393553d9333,Owner 1854,+91XXXXXXXXXX,,New York,IN,Seller,Generated
3dc14e5c-7932-45ca-9f82-4dcc77e79f8d,Owner 9927,+91XXXXXXXXXX,,Mumbai,IN,Seller,Generated
16104a09-992f-461b-9f6e-5ca066bed89e,Owner 738,+91XXXXXXXXXX,,Mumbai,IN,Seller,Generated
887fdac5-b564-4eff-91a3-7e26d08db794,Owner 7291,+91XXXXXXXXXX,,Delhi,IN,Seller,Generated
2d96bdd6-1819-422c-849f-4ab63542f430,Owner 1641,+91XXXXXXXXXX,,Mumbai,IN,Seller,Generated
125baa3d-7b14-48ea-ac4f-e4ed0eebb27f,Owner 3680,+91XXXXXXXXXX,,Mumbai,IN,Seller,Generated
fbb6aff7-62ea-4056-a993-b2a7f1600a63,Owner 7095,+91XXXXXXXXXX,,Mumbai,IN,Seller,Generated
789d3662-71de-42c2-ac60-63c71cb11af0,Owner 2681,+91XXXXXXXXXX,,New York,IN,Seller,Generated
7ab5e78b-c8a6-46fc-8a7e-dad546d8a39a,Owner 7963,+91XXXXXXXXXX,,Mumbai,IN,Seller,Generated
64ccf03a-b129-4acc-9094-178aeb4140c3,Owner 7017,+91XXXXXXXXXX,,Delhi,IN,Seller,Generated
abea591a-7133-41cc-92de-6dd05bc7da3e,Owner 309,+91XXXXXXXXXX,,Delhi,IN,Seller,Generated
42c46541-9739-4963-a445-d28b256cedaa,Owner 5388,+91XXXXXXXXXX,,Mumbai,IN,Seller,Generated
90713973-f58b-4538-ba13-e3f871d28fe9,Owner 9390,+91XXXXXXXXXX,,Delhi,IN,Seller,Generated
7c84bfb4-78f8-4383-9e6f-abc86f91e5c9,Owner 2512,+91XXXXXXXXXX,,New York,IN,Seller,Generated
e7bced53-40b2-4652-8e7d-d49f04ffe7ec,Owner 7258,+91XXXXXXXXXX,,New York,IN,Seller,Generated
3529cd52-cf82-4179-ab8f-e437129c7e14,Owner 3661,+91XXXXXXXXXX,,Mumbai,IN,Seller,Generated
a134f957-8beb-4922-a5ff-2b6750e0eaa0,Owner 3777,+91XXXXXXXXXX,,Delhi,IN,Seller,Generated
28ff02dc-9fb5-4d1f-b039-816ce77b5e5c,Owner 4421,+91XXXXXXXXXX,,New York,IN,Seller,Generated
aa393faa-654a-4353-aa98-5966049ee8fd,Owner 6148,+91XXXXXXXXXX,,New York,IN,Seller,Generated
3a8f7a87-9e45-4cc4-9a56-5a0c8a1ab148,Owner 4194,+91XXXXXXXXXX,,New York,IN,Seller,Generated
aace9aa8-9639-4c3f-a0ea-1ca044c012f1,Owner 9116,+91XXXXXXXXXX,,Mumbai,IN,Seller,Generated
9be1da6b-6f6c-4047-b52c-077d2a7524cf,Owner 4092,+91XXXXXXXXXX,,London,IN,Seller,Generated
e2604e53-2275-4594-8934-ec8a51ca783e,Owner 2921,+91XXXXXXXXXX,,Mumbai,IN,Seller,Generated
68376b20-2368-479f-8e57-8fe38a64e649,Owner 1260,+91XXXXXXXXXX,,New York,IN,Seller,Generated
e4bc7eeb-d06e-4f5c-9ca3-5a8fc603010a,Owner 5788,+91XXXXXXXXXX,,Delhi,IN,Seller,Generated
aacf8e31-23e0-4b3a-bbcb-12801f09d1dc,Owner 3719,+91XXXXXXXXXX,,London,IN,Seller,Generated
28ac6782-f3e3-4a8f-978e-1d4f2fc5b3cd,Owner 7873,+91XXXXXXXXXX,,Mumbai,IN,Seller,Generated
5acdacc6-58fe-4fa0-b64b-f7fad5f01c14,Owner 658,+91XXXXXXXXXX,,Mumbai,IN,Seller,Generated
e1751d34-3f37-4ed6-a6e4-0cdf51270bd1,Owner 7817,+91XXXXXXXXXX,,Delhi,IN,Seller,Generated
6d3c3e6c-6395-4e48-bf05-1d270c86a4d3,Owner 2991,+91XXXXXXXXXX,,London,IN,Seller,Generated
0e809c2e-781f-4381-8744-9b51cb64cb6a,Owner 9958,+91XXXXXXXXXX,,London,IN,Seller,Generated
53c5bed5-8fda-4bc9-8e0b-705a016a744c,Owner 8463,+91XXXXXXXXXX,,Delhi,IN,Seller,Generated
0688ce42-adec-4457-9900-2134325998d4,Owner 3821,+91XXXXXXXXXX,,New York,IN,Seller,Generated
ad80cce3-4bc2-4eef-bf62-5561f70d4613,Owner 5053,+91XXXXXXXXXX,,New York,IN,Seller,Generated
a862b906-bf72-43c3-ad55-22cafa5ad1c2,Owner 3881,+91XXXXXXXXXX,,Mumbai,IN,Seller,Generated
961f67d5-0ce3-43de-a446-de0d2dae6c2e,Owner 3428,+91XXXXXXXXXX,,London,IN,Seller,Generated
87bdf940-f382-4d59-acb4-a2703c02c237,Owner 8369,+91XXXXXXXXXX,,New York,IN,Seller,Generated
510674e0-e0b8-49ca-93a6-99e11c58008c,Owner 5252,+91XXXXXXXXXX,,New York,IN,Seller,Generated
c7599a65-6e49-4163-a36c-ff4db81d73b7,Owner 5315,+91XXXXXXXXXX,,New York,IN,Seller,Generated
fb0c32be-3884-4ba0-b01d-e8da9a0d5c8e,Owner 5001,+91XXXXXXXXXX,,London,IN,Seller,Generated
