lead_id,name,phone,email,city,country,type,notes
f6d2ab1b-70d1-4dd0-a8aa-f6ad2b399f60,Owner 7552,+91XXXXXXXXXX,,New York,IN,Seller,Generated
e87e28ec-afe4-450b-bc89-541bda342637,Owner 4891,+91XXXXXXXXXX,,Delhi,IN,Seller,Generated
49a9807f-d0a0-44d7-94e5-c1a5508398b7,Owner 4113,+91XXXXXXXXXX,,Mumbai,IN,Seller,Generated
0f71e216-5cef-47c5-9086-34fe66d7be96,Owner 3363,+91XXXXXXXXXX,,Mumbai,IN,Seller,Generated
f92f8cfc-bce3-47b2-ab42-1ebe07115b8f,Owner 1366,+91XXXXXXXXXX,,London,IN,Seller,Generated
1baab2e4-dfe7-4492-a8e3-4efd142903dc,Owner 7053,+91XXXXXXXXXX,,London,IN,Seller,Generated
16d124ab-614e-43ce-91b0-375b382d5bd9,Owner 5922,+91XXXXXXXXXX,,Mumbai,IN,Seller,Generated
da2e9040-8b8a-4375-951c-93f6a288faae,Owner 3166,+91XXXXXXXXXX,,New York,IN,Seller,Generated
e027afef-ff0a-4618-b879-3b077965d100,Owner 9115,+91XXXXXXXXXX,,New York,IN,Seller,Generated
ad98d48c-80ce-49da-bb12-1eb53f1b919c,Owner 1012,+91XXXXXXXXXX,,New York,IN,Seller,Generated
fdd3b8d2-eb25-4ad2-be5b-cdde5c046656,Owner 3935,+91XXXXXXXXXX,,New York,IN,Seller,Generated
c1e54d37-575d-49d7-9160-70ae25087280,Owner 1973,+91XXXXXXXXXX,,London,IN,Seller,Generated
ee9207c9-3aa3-4dcf-bc11-0f8d50001e16,Owner 1463,+91XXXXXXXXXX,,New York,IN,Seller,Generated
94fa4092-4a40-4b0a-aaae-f7df80959929,Owner 5108,+91XXXXXXXXXX,,New York,IN,Seller,Generated
714c2f77-bb35-4688-935d-94093160c330,Owner 953,+91XXXXXXXXXX,,London,IN,Seller,Generated
9585d230-0ae9-4bac-b0b6-622e06e2757b,Owner 2850,+91XXXXXXXXXX,,Mumbai,IN,Seller,Generated
8b00393c-c2e2-4a63-8ee9-aa9d9744cbd8,Owner 3959,+91XXXXXXXXXX,,Mumbai,IN,Seller,Generated
1b48b1ff-595a-4071-bc6c-3dbb95a4eb0f,Owner 9235,+91XXXXXXXXXX,,Mumbai,IN,Seller,Generated
145eae4c-4ddc-4647-97c8-cfc066645cb1,Owner 5952,+91XXXXXXXXXX,,New York,IN,Seller,Generated
de5ea96c-f3c3-49c2-8aca-483541199eb3,Owner 588,+91XXXXXXXXXX,,Delhi,IN,Seller,Generated
054a268e-df63-4448-87d1-80c0e92043e9,Owner 8226,+91XXXXXXXXXX,,London,IN,Seller,Generated
640599c9-39db-4a43-a0d1-b67e714a1bb2,Owner 4749,+91XXXXXXXXXX,,New York,IN,Seller,Generated
705e2d93-b290-4897-a66d-39005479cbea,Owner 1248,+91XXXXXXXXXX,,Mumbai,IN,Seller,Generated
c09174be-c4ea-4c28-ac85-fe466075ce75,Owner 7279,+91XXXXXXXXXX,,New York,IN,Seller,Generated
e6657452-0033-42a1-a547-4c56f3edde36,Owner 8430,+91XXXXXXXXXX,,Mumbai,IN,Seller,Generated
a0a4f1cb-6c6d-4252-848f-66a0e0e25218,Owner 4339,+91XXXXXXXXXX,,Mumbai,IN,Seller,Generated
3a73f7ef-ce42-4b46-8660-8992b8dad0b8,Owner 6486,+91XXXXXXXXXX,,New York,IN,Seller,Generated
b5bb10dd-40b8-41e8-a168-c213ba10e5c7,Owner 5596,+91XXXXXXXXXX,,London,IN,Seller,Generated
814a5b4b-c61b-4930-8127-6c28303e691d,Owner 8482,+91XXXXXXXXXX,,London,IN,Seller,Generated
efa61664-66e9-4375-aabf-f08a1b8b8f14,Owner 9174,+91XXXXXXXXXX,,New York,IN,Seller,Generated
b7ee79b9-6404-474c-beb9-cfd3e6549af5,Owner 9106,+91XXXXXXXXXX,,London,IN,Seller,Generated
1bc3df54-6641-4912-8f3d-cbe8fe2a0825,Owner 7147,+91XXXXXXXXXX,,London,IN,Seller,Generated
397f5c73-c897-45f7-bd87-96316a9c5990,Owner 3168,+91XXXXXXXXXX,,New York,IN,Seller,Generated
b7827c3b-bea4-4fe6-bc9a-b19dc97f16c2,Owner 4965,+91XXXXXXXXXX,,New York,IN,Seller,Generated
cfe783b0-149f-40f2-a290-63d0c37d7350,Owner 8997,+91XXXXXXXXXX,,New York,IN,Seller,Generated
2667edd2-5d9f-4cf1-b17c-16e257c48689,Owner 1954,+91XXXXXXXXXX,,London,IN,Seller,Generated
e225d5aa-2261-4dfa-878c-ca85841c83ea,Owner 7285,+91XXXXXXXXXX,,Mumbai,IN,Seller,Generated
8af57827-6b6f-481c-a6c3-f206e72e64f6,Owner 8062,+91XXXXXXXXXX,,Mumbai,IN,Seller,Generated
7606a339-86b7-45e9-a191-438a08f90aaf,Owner 4652,+91XXXXXXXXXX,,Mumbai,IN,Seller,Generated
dbfe731d-39c7-403e-9c61-a06bf2af7ca2,Owner 2606,+91XXXXXXXXXX,,New York,IN,Seller,Generated
967f8600-cc0b-4dd4-b7a7-9d9292858e1a,Owner 815,+91XXXXXXXXXX,,Delhi,IN,Seller,Generated
e40c99f8-2516-4204-bdec-67856ad7ebcf,Owner 4695,+91XXXXXXXXXX,,Delhi,IN,Seller,Generated
d604fcbd-c696-45a1-b1b8-d275e2472bd7,Owner 2734,+91XXXXXXXXXX,,Delhi,IN,Seller,Generated
30d6e84a-ed94-4fd3-bbfb-b846ce220a94,Owner 787,+91XXXXXXXXXX,,New York,IN,Seller,Generated
52ef12b6-9014-4ea2-970a-365c63b6cb45,Owner 5963,+91XXXXXXXXXX,,Delhi,IN,Seller,Generated
6670ebfc-aa10-4901-98eb-912f81d50bd1,Owner 5890,+91XXXXXXXXXX,,Mumbai,IN,Seller,Generated
f3e2b833-a6c5-4e2e-81c1-380d17c52717,Owner 7542,+91XXXXXXXXXX,,Delhi,IN,Seller,Generated
079c5d98-687a-4974-b4b7-754c8def98af,Owner 6350,+91XXXXXXXXXX,,London,IN,Seller,Generated
febbccd2-1b24-4e77-9cd1-12d981c91abc,Owner 2742,+91XXXXXXXXXX,,Mumbai,IN,Seller,Generated
846e8187-8feb-4f03-b1fd-c2a551a9bb73,Owner 3257,+91XXXXXXXXXX,,Mumbai,IN,Seller,Generated
a703e6b1-6820-4e07-afa0-ea7d8e8dcdce,Owner 9234,+91XXXXXXXXXX,,London,IN,Seller,Generated
28cd21d4-c664-47be-a852-134cad8d90d1,Owner 5924,+91XXXXXXXXXX,,New York,IN,Seller,Generated
4196023a-ef58-459d-a912-bb0993753adb,Owner 1460,+91XXXXXXXXXX,,Delhi,IN,Seller,Generated
95f2e00f-176b-424e-accb-5936575cb4c5,Owner 186,+91XXXXXXXXXX,,Delhi,IN,Seller,Generated
2b1987d6-ca9c-4931-a956-060aa6534e1b,Owner 5614,+91XXXXXXXXXX,,London,IN,Seller,Generated
41727f98-d690-46c9-a333-b7c443b59b73,Owner 7371,+91XXXXXXXXXX,,Delhi,IN,Seller,Generated
02197e5a-5a29-42fd-a8a1-7131f01ca1ec,Owner 3104,+91XXXXXXXXXX,,Delhi,IN,Seller,Generated
73766027-aa7b-4b73-8f3f-a632b93e53f0,Owner 2978,+91XXXXXXXXXX,,New York,IN,Seller,Generated
911bc379-c5c6-479d-a05e-8132ff52abae,Owner 7846,+91XXXXXXXXXX,,London,IN,Seller,Generated
c0df7d52-2b9d-4a96-8995-20c8e3e14a2a,Owner 7819,+91XXXXXXXXXX,,London,IN,Seller,Generated
883d43da-6ccd-4921-b727-01463633ad7b,Owner 5362,+91XXXXXXXXXX,,Delhi,IN,Seller,Generated
290aba5d-aac7-466d-a3fc-696b48c2d421,Owner 413,+91XXXXXXXXXX,,Mumbai,IN,Seller,Generated
979f6b5e-5314-4cc1-a23a-c9b0591eb3b3,Owner 8620,+91XXXXXXXXXX,,Delhi,IN,Seller,Generated
79e2e0cd-b8cf-48ab-828f-68d3acd53fe7,Owner 5569,+91XXXXXXXXXX,,New York,IN,Seller,Generated
0917a742-5bde-4fa0-a373-3d45f19fd270,Owner 3023,+91XXXXXXXXXX,,Delhi,IN,Seller,Generated
0778aa3f-1324-430c-82dd-6f41d72da50f,Owner 3113,+91XXXXXXXXXX,,London,IN,Seller,Generated
f9269655-e07a-46bc-8fc1-de93e68079e3,Owner 181,+91XXXXXXXXXX,,New York,IN,Seller,Generated
fafdc171-52a6-4ab8-bb68-c9944a7c501c,Owner 129,+91XXXXXXXXXX,,London,IN,Seller,Generated
19eab472-8211-48c5-ab4d-8cec840adec6,Owner 6493,+91XXXXXXXXXX,,Mumbai,IN,Seller,Generated
e4ceb799-a3a5-46ba-ac23-ffd526e7a2c5,Owner 2470,+91XXXXXXXXXX,,Delhi,IN,Seller,Generated
b203386f-f612-4340-bf59-00fe7d232aa2,Owner 5800,+91XXXXXXXXXX,,New York,IN,Seller,Generated
0d7e7dd6-a2c9-4d83-992c-d1c4d23a31de,Owner 8362,+91XXXXXXXXXX,,London,IN,Seller,Generated
20a5700c-3980-4298-80c0-5d3755e5307b,Owner 9513,+91XXXXXXXXXX,,Mumbai,IN,Seller,Generated
29c578f3-527e-45b4-911a-d3621e1155d3,Owner 9561,+91XXXXXXXXXX,,London,IN,Seller,Generated
e8b476ee-ab9a-4be3-b7a4-1963628386d5,Owner 9133,+91XXXXXXXXXX,,London,IN,Seller,Generated
67c562f3-7e44-48ed-a553-4e4614484ed8,Owner 8163,+91XXXXXXXXXX,,New York,IN,Seller,Generated
4d10add2-8143-407a-b0b3-1f289d13adc1,Owner 3487,+91XXXXXXXXXX,,New York,IN,Seller,Generated
e0153ab1-7805-45ee-8563-cad1bb906667,Owner 1123,+91XXXXXXXXXX,,London,IN,Seller,Generated
02194f70-a4fa-4269-bf20-a05a4ba54870,Owner 6981,+91XXXXXXXXXX,,Mumbai,IN,Seller,Generated
620e2e7e-a474-4072-9bdb-1fcab9dfe55d,Owner 4562,+91XXXXXXXXXX,,Delhi,IN,Seller,Generated
047b7d83-1aa7-47ca-ada0-1e504ae303a1,Owner 9716,+91XXXXXXXXXX,,London,IN,Seller,Generated
55b0757f-4dfb-4e17-a872-8c235e75feba,Owner 7957,+91XXXXXXXXXX,,London,IN,Seller,Generated
f23c45c9-77ed-43ad-89a3-204a93c10a94,Owner 328,+91XXXXXXXXXX,,New York,IN,Seller,Generated
7c168b64-c52d-44ae-a838-b7dd572043bd,Owner 8635,+91XXXXXXXXXX,,Delhi,IN,Seller,Generated
834c68e7-8aff-46b2-9dfd-61659db0790f,Owner 2371,+91XXXXXXXXXX,,New York,IN,Seller,Generated
bc7fb369-22f7-4695-9cee-c5ded2a5c455,Owner 6349,+91XXXXXXXXXX,,Mumbai,IN,Seller,Generated
602cf05a-011a-4c0b-926f-c6f4f86d6ab4,Owner 1621,+91XXXXXXXXXX,,New York,IN,Seller,Generated
2187da8a-109a-4a8e-b03f-573feb7887aa,Owner 1185,+91XXXXXXXXXX,,Delhi,IN,Seller,Generated
e7835e09-5d03-47b4-8b1a-d72470399282,Owner 5076,+91XXXXXXXXXX,,New York,IN,Seller,Generated
08001e12-2945-4c19-82fe-ab2c2a4a3826,Owner 2467,+91XXXXXXXXXX,,Delhi,IN,Seller,Generated
6eeee499-40ee-481c-a837-65087bafe746,Owner 3474,+91XXXXXXXXXX,,Delhi,IN,Seller,Generated
458d8da6-7717-4f57-9f3a-fe820b8a071a,Owner 9007,+91XXXXXXXXXX,,London,IN,Seller,Generated
c6ecc88a-2402-40ad-8ed5-0c5be0cdec25,Owner 5779,+91XXXXXXXXXX,,Delhi,IN,Seller,Generated
a8b77f1f-a05b-46cc-b90f-0d56b10e1916,Owner 7431,+91XXXXXXXXXX,,New York,IN,Seller,Generated
17af7f5a-97d6-403e-a2bf-5b4d530979db,Owner 5110,+91XXXXXXXXXX,,Mumbai,IN,Seller,Generated
1a1a9c8f-dd68-4b1b-be4d-9a2264d86cec,Owner 8813,+91XXXXXXXXXX,,Mumbai,IN,Seller,Generated
218bfd30-686d-4d1c-9ea7-05852a413cf8,Owner 8289,+91XXXXXXXXXX,,London,IN,Seller,Generated
1bf3959e-f202-4411-b683-86f58f422382,Owner 756,+91XXXXXXXXXX,,Mumbai,IN,Seller,Generated
d8e0caf2-6587-4d86-8a39-064af2605b8c,Owner 7085,+91XXXXXXXXXX,,London,IN,Seller,Generated
4520fb61-5051-4573-90b5-d5b1a6ae01cc,Owner 3056,+91XXXXXXXXXX,,New York,IN,Seller,Generated
6a2346ff-46ff-4c45-9bc4-ca91a8c6e0c2,Owner 8884,+91XXXXXXXXXX,,Mumbai,IN,Seller,Generated
84cc594b-44dc-4359-9ed1-12e229ee8f10,Owner 3195,+91XXXXXXXXXX,,London,IN,Seller,Generated
a9c77413-06ab-4fb9-a8bb-1bfc7922681e,Owner 8776,+91XXXXXXXXXX,,Delhi,IN,Seller,Generated
63f9e534-8248-46ba-b1e7-9d3b20d9c771,Owner 8146,+91XXXXXXXXXX,,Mumbai,IN,Seller,Generated
8d6e5973-3302-440c-8338-f46c7d2f60f4,Owner 4960,+91XXXXXXXXXX,,London,IN,Seller,Generated
100db834-9f1c-49a9-b145-849f9b28e64a,Owner 8564,+91XXXXXXXXXX,,New York,IN,Seller,Generated
29025628-2513-4de4-901f-5a6a5d01bd0c,Owner 7965,+91XXXXXXXXXX,,Mumbai,IN,Seller,Generated
f788661e-6eca-4cf0-9cb4-7a1e1bfa1b16,Owner 8184,+91XXXXXXXXXX,,London,IN,Seller,Generated
af3a5833-b88a-4687-a839-8b40aa7e9471,Owner 4109,+91XXXXXXXXXX,,New York,IN,Seller,Generated
b6e3e524-155d-43c1-9cf9-d444e9b9063f,Owner 2136,+91XXXXXXXXXX,,London,IN,Seller,Generated
228838af-8355-4e11-a299-958ecd091106,Owner 6934,+91XXXXXXXXXX,,London,IN,Seller,Generated
b58834e3-5a90-442c-9c61-22b0c2b59b0d,Owner 8846,+91XXXXXXXXXX,,London,IN,Seller,Generated
96f5ff54-1fac-4f96-b8e5-d64833e52e8a,Owner 7854,+91XXXXXXXXXX,,Delhi,IN,Seller,Generated
2974aa38-0e13-4943-926a-7cee3b79fee6,Owner 1590,+91XXXXXXXXXX,,London,IN,Seller,Generated
0155e53f-2d68-4eca-9c9c-0d4500ff9049,Owner 8853,+91XXXXXXXXXX,,Delhi,IN,Seller,Generated
7e681d56-0c21-4d8a-b8b2-74f141bec72d,Owner 9005,+91XXXXXXXXXX,,London,IN,Seller,Generated
cd6d4d35-19b3-4940-8230-de3ecdd1053c,Owner 3795,+91XXXXXXXXXX,,New York,IN,Seller,Generated
03c55bba-1838-4e51-8e64-f6e9dbbc6879,Owner 5508,+91XXXXXXXXXX,,New York,IN,Seller,Generated
38e96073-e710-4749-9d99-5866ebac0e52,Owner 2400,+91XXXXXXXXXX,,Mumbai,IN,Seller,Generated
1f712a61-8dd1-40ee-8491-95675225ec03,Owner 2601,+91XXXXXXXXXX,,New York,IN,Seller,Generated
b6df5708-4dbb-41cf-9a7b-918b53fb4a58,Owner 1067,+91XXXXXXXXXX,,Mumbai,IN,Seller,Generated
28806ff1-beae-402f-8ffd-4d43d2a087bb,Owner 2521,+91XXXXXXXXXX,,London,IN,Seller,Generated
fb49ba96-4938-4612-89af-4cf643aacf22,Owner 4315,+91XXXXXXXXXX,,London,IN,Seller,Generated
c4d9a054-657d-44f4-b6ba-c97b8f8baf07,Owner 1674,+91XXXXXXXXXX,,Mumbai,IN,Seller,Generated
a2ca59aa-db8d-4157-b6ed-2d9f469741a0,Owner 2318,+91XXXXXXXXXX,,New York,IN,Seller,Generated
c0f3eb42-634e-46ef-a914-d6cdfa74fb87,Owner 1234,+91XXXXXXXXXX,,New York,IN,Seller,Generated
39af7d8f-2981-44e6-bc8e-9f2158191f48,Owner 2880,+91XXXXXXXXXX,,New York,IN,Seller,Generated
46364eb0-b4f9-4f9c-9d96-989995c0b910,Owner 7277,+91XXXXXXXXXX,,Delhi,IN,Seller,Generated
b838af7b-17bd-4d51-bf85-80b311939da3,Owner 3108,+91XXXXXXXXXX,,London,IN,Seller,Generated
27600ef6-6e48-4f9c-80d8-b8f4683cff04,Owner 2306,+91XXXXXXXXXX,,London,IN,Seller,Generated
8128d999-5621-4937-a8bb-7cbc79c18ad7,Owner 5921,+91XXXXXXXXXX,,Delhi,IN,Seller,Generated
c45a79b9-212b-41cc-8848-e2f68722d1d4,Owner 409,+91XXXXXXXXXX,,New York,IN,Seller,Generated
f09ca993-43fa-4b3e-a9e3-2c4a70554fac,Owner 8328,+91XXXXXXXXXX,,New York,IN,Seller,Generated
9efbeddd-db90-4a56-8e9a-c727bd1d6f95,Owner 5140,+91XXXXXXXXXX,,London,IN,Seller,Generated
78a181e6-0bf4-4077-aef9-4193ce053c72,Owner 4816,+91XXXXXXXXXX,,London,IN,Seller,Generated
d8773486-e893-493e-a4d8-0c0273b25224,Owner 9235,+91XXXXXXXXXX,,New York,IN,Seller,Generated
7127e855-adc0-4a79-afe3-70d53e4ea890,Owner 838,+91XXXXXXXXXX,,Delhi,IN,Seller,Generated
e551e5a6-347b-435c-ac30-6a3c19483fb9,Owner 8064,+91XXXXXXXXXX,,Delhi,IN,Seller,Generated
e6128915-e009-458e-b5f2-c7df1f61780a,Owner 2919,+91XXXXXXXXXX,,London,IN,Seller,Generated
873caec7-afa4-4622-9e6f-e08f8039581c,Owner 1217,+91XXXXXXXXXX,,Delhi,IN,Seller,Generated
3e75c51f-ea1e-48c5-9a81-282b1e6b2944,Owner 2124,+91XXXXXXXXXX,,Delhi,IN,Seller,Generated
ba68a967-5032-44fa-b17b-befdbc787be2,Owner 2335,+91XXXXXXXXXX,,New York,IN,Seller,Generated
61eb9066-7f21-4d89-bf3b-6d5b946685b2,Owner 9212,+91XXXXXXXXXX,,Delhi,IN,Seller,Generated
a4cd1a85-185e-4bc7-8e4d-9493922a6b2f,Owner 2551,+91XXXXXXXXXX,,Delhi,IN,Seller,Generated
06d24bfa-aa64-4a73-a91f-9b893fd12d18,Owner 2225,+91XXXXXXXXXX,,London,IN,Seller,Generated
3f98c296-1c7a-4d93-b724-48cbf4898c23,Owner 6747,+91XXXXXXXXXX,,New York,IN,Seller,Generated
c9657f42-09f4-4989-b12c-b1f7e4e01281,Owner 1186,+91XXXXXXXXXX,,Delhi,IN,Seller,Generated
25d40d4f-4cfb-4a6e-b35e-760b577bb074,Owner 3000,+91XXXXXXXXXX,,Delhi,IN,Seller,Generated
29cc9dab-00ae-42b3-9c63-db855e254575,Owner 2007,+91XXXXXXXXXX,,Mumbai,IN,Seller,Generated
10ab1c7f-8748-4526-a9fa-1d9b2439f353,Owner 854,+91XXXXXXXXXX,,Mumbai,IN,Seller,Generated
96e92854-4cb5-45d8-bc0e-7a427a2e3dc9,Owner 7576,+91XXXXXXXXXX,,Delhi,IN,Seller,Generated
7e35270d-91fa-4ec3-804f-bf92ee43d7f0,Owner 2646,+91XXXXXXXXXX,,London,IN,Seller,Generated
647963ec-af92-4abb-8508-358090205b06,Owner 7737,+91XXXXXXXXXX,,London,IN,Seller,Generated
77e5d75d-d098-4c77-a880-b10ae51db08a,Owner 5938,+91XXXXXXXXXX,,Delhi,IN,Seller,Generated
6015d2d6-460e-4540-ad83-fd0aed541a4d,Owner 9583,+91XXXXXXXXXX,,Delhi,IN,Seller,Generated
fe7849db-f1ac-4a64-be73-d4794ef1d530,Owner 8723,+91XXXXXXXXXX,,New York,IN,Seller,Generated
809dc346-7e93-4cdb-b0a6-6da4fd28a94b,Owner 5758,+91XXXXXXXXXX,,Mumbai,IN,Seller,Generated
e1d70fe4-9de2-4d26-8b31-5dd460a9d7e0,Owner 2002,+91XXXXXXXXXX,,London,IN,Seller,Generated
4691b232-0fea-4fe8-bac8-499aa676b216,Owner 4925,+91XXXXXXXXXX,,Delhi,IN,Seller,Generated
2f1e5a98-13ee-4750-8ffb-c736b0cc0c82,Owner 2065,+91XXXXXXXXXX,,Delhi,IN,Seller,Generated
73e7154d-d5e1-4bef-bf60-70d20be5d6f7,Owner 2227,+91XXXXXXXXXX,,Mumbai,IN,Seller,Generated
abc4de82-a728-449e-ad04-ca77afdb6840,Owner 5730,+91XXXXXXXXXX,,Mumbai,IN,Seller,Generated
0cdff321-a003-49d5-bcbb-d11bf794b8a3,Owner 44,+91XXXXXXXXXX,,Mumbai,IN,Seller,Generated
04462154-f0f9-4ff5-be1e-b5408cebd64c,Owner 9104,+91XXXXXXXXXX,,Mumbai,IN,Seller,Generated
874a3df1-5c50-464d-a4f6-0872b66e50e5,Owner 2821,+91XXXXXXXXXX,,Mumbai,IN,Seller,Generated
546ffd8e-16fa-43dd-8ddf-ef40247e4c09,Owner 4792,+91XXXXXXXXXX,,Delhi,IN,Seller,Generated
d7c4d3e1-ffd9-47c8-a4f1-2bebe46f00f1,Owner 4364,+91XXXXXXXXXX,,Mumbai,IN,Seller,Generated
68277a5d-59f2-4052-a7f0-7ab5b1037f6e,Owner 5979,+91XXXXXXXXXX,,Mumbai,IN,Seller,Generated
34e80792-bc7a-455c-ad50-04032677d733,Owner 9365,+91XXXXXXXXXX,,Mumbai,IN,Seller,Generated
0159ecc4-ec34-40ac-a243-86129e5292e2,Owner 5578,+91XXXXXXXXXX,,London,IN,Seller,Generated
9f26ba68-5b58-4e36-a542-c3408420a8e7,Owner 7602,+91XXXXXXXXXX,,Delhi,IN,Seller,Generated
c0541a55-0e83-414e-afb8-ee792694db91,Owner 9633,+91XXXXXXXXXX,,New York,IN,Seller,Generated
da09c71c-ebb2-4ce0-98f6-eadacc3ee1d1,Owner 7213,+91XXXXXXXXXX,,New York,IN,Seller,Generated
390403a7-3bea-4bfc-ae89-acd521c923c4,Owner 6567,+91XXXXXXXXXX,,Mumbai,IN,Seller,Generated
947739fa-631e-496d-b488-b7fb46fa59ec,Owner 7210,+91XXXXXXXXXX,,London,IN,Seller,Generated
a79ba7db-3623-4f19-84d2-70532a5a946b,Owner 704,+91XXXXXXXXXX,,Delhi,IN,Seller,Generated
e5cbb9d4-3a16-4983-8501-30f35cdcbfb9,Owner 3184,+91XXXXXXXXXX,,London,IN,Seller,Generated
8fda22cf-2be3-4cea-9cea-9bfc2bf8b56a,Owner 9871,+91XXXXXXXXXX,,Delhi,IN,Seller,Generated
b318543c-8315-47bd-af47-55a137e034c3,Owner 269,+91XXXXXXXXXX,,Delhi,IN,Seller,Generated
bd5795f5-5750-4482-a3e1-5febf1ca6300,Owner 462,+91XXXXXXXXXX,,Delhi,IN,Seller,Generated
1d0a9e58-caa8-4c66-9d0c-135107be1e6a,Owner 6986,+91XXXXXXXXXX,,Delhi,IN,Seller,Generated
ac075028-b9d9-47e0-bd67-15bbe11c0ed1,Owner 3384,+91XXXXXXXXXX,,New York,IN,Seller,Generated
19744607-ae1b-43c5-8327-dc102be64eaa,Owner 5409,+91XXXXXXXXXX,,Delhi,IN,Seller,Generated
35f1dad3-c241-421d-a82f-cbaba8df93f2,Owner 6042,+91XXXXXXXXXX,,Delhi,IN,Seller,Generated
ce097b13-eafb-4bda-a6ec-084f9a8dc6ca,Owner 5927,+91XXXXXXXXXX,,Delhi,IN,Seller,Generated
3102a53e-78e6-42cb-940d-d5c7635021ab,Owner 3696,+91XXXXXXXXXX,,Mumbai,IN,Seller,Generated
d95c5727-ccc5-41e4-af85-958f99d401b0,Owner 6599,+91XXXXXXXXXX,,Mumbai,IN,Seller,Generated
db16ac4e-e4a9-4407-a41e-6b111016bf6e,Owner 8318,+91XXXXXXXXXX,,Mumbai,IN,Seller,Generated
53fe46c8-d073-4fab-b19b-ec4be483059d,Owner 7427,+91XXXXXXXXXX,,Mumbai,IN,Seller,Generated
b7766234-e556-41e4-a849-22c205c0e0a1,Owner 5590,+91XXXXXXXXXX,,Mumbai,IN,Seller,Generated
27e8a522-3401-4cd9-830f-7b7320d23b80,Owner 2530,+91XXXXXXXXXX,,New York,IN,Seller,Generated
32bbdc16-409f-462e-a81f-a20119d0cc1d,Owner 1285,+91XXXXXXXXXX,,Delhi,IN,Seller,Generated
2f0a0de3-2cdb-4a7a-a91f-4d0f1dd36fe0,Owner 2747,+91XXXXXXXXXX,,Delhi,IN,Seller,Generated
99e3152d-b49d-47dd-9c85-ba4f078256b3,Owner 66,+91XXXXXXXXXX,,London,IN,Seller,Generated
29357ebf-8705-4374-ac1c-e2dd567c8d48,Owner 4839,+91XXXXXXXXXX,,Mumbai,IN,Seller,Generated
080678b4-ba51-479b-a84f-d2395c4e22c6,Owner 5683,+91XXXXXXXXXX,,London,IN,Seller,Generated
e006b95c-cc8c-4b3a-98eb-cbca10110d7f,Owner 1137,+91XXXXXXXXXX,,Mumbai,IN,Seller,Generated
d13cd158-cc1f-4164-a8cc-c419bd8175a1,Owner 7082,+91XXXXXXXXXX,,Delhi,IN,Seller,Generated
1e628c6e-58d8-4fdf-880d-a01c615db2ec,Owner 5561,+91XXXXXXXXXX,,London,IN,Seller,Generated
2be201ff-16f6-4eb3-9c58-acfd0ab33484,Owner 805,+91XXXXXXXXXX,,New York,IN,Seller,Generated
c6669fa9-bc51-48a8-b4e8-658626c1edd4,Owner 40,+91XXXXXXXXXX,,London,IN,Seller,Generated
d163b68a-1120-45f7-851e-db40bb2b0e5d,Owner 6169,+91XXXXXXXXXX,,Mumbai,IN,Seller,Generated
cd68a930-ef76-4d70-848a-de4cc7511bd1,Owner 6178,+91XXXXXXXXXX,,Delhi,IN,Seller,Generated
352c4bb4-ede3-4edb-b378-c7cacf044380,Owner 5728,+91XXXXXXXXXX,,Mumbai,IN,Seller,Generated
b3a2370f-985c-411e-bebf-0cbf6c1a7acc,Owner 8835,+91XXXXXXXXXX,,Mumbai,IN,Seller,Generated
cdd720f8-606d-47c2-ad21-2b6195d59af3,Owner 3899,+91XXXXXXXXXX,,New York,IN,Seller,Generated
e190e874-05df-4295-88ca-5bc607c5155c,Owner 2362,+91XXXXXXXXXX,,London,IN,Seller,Generated
092934b6-0453-4dd9-aed4-127da639119c,Owner 9549,+91XXXXXXXXXX,,Delhi,IN,Seller,Generated
eba4c24b-4823-4d99-b29b-b743fa19d6a8,Owner 4988,+91XXXXXXXXXX,,London,IN,Seller,Generated
e3deb343-3db6-4fd3-98dd-58deb0a696a7,Owner 5826,+91XXXXXXXXXX,,Mumbai,IN,Seller,Generated
c4e29454-79b1-4789-be91-4ddb002d6db5,Owner 1293,+91XXXXXXXXXX,,London,IN,Seller,Generated
74238855-534c-49e1-b903-2c568f1f5b12,Owner 9169,+91XXXXXXXXXX,,New York,IN,Seller,Generated
341ea22e-c4dc-4d8e-9901-a9a0a24e4703,Owner 3988,+91XXXXXXXXXX,,New York,IN,Seller,Generated
4596a66f-1679-4129-8958-67c90923e5ef,Owner 9597,+91XXXXXXXXXX,,London,IN,Seller,Generated
27ce8a2e-d598-4bef-9fce-58f14c2bc0d8,Owner 8881,+91XXXXXXXXXX,,London,IN,Seller,Generated
11d919dc-36fd-488b-86bc-18220cbe5f86,Owner 9824,+91XXXXXXXXXX,,London,IN,Seller,Generated
92012c1a-5101-4524-a457-edc9b26c6a23,Owner 8457,+91XXXXXXXXXX,,New York,IN,Seller,Generated
3a083e21-7f1f-45b1-b012-de9dbe77a3cd,Owner 8767,+91XXXXXXXXXX,,Mumbai,IN,Seller,Generated
bad974e4-83aa-44d0-983f-454bccd74952,Owner 6611,+91XXXXXXXXXX,,London,IN,Seller,Generated
92549db9-8a0e-42c1-b769-bc854171d0c4,Owner 2177,+91XXXXXXXXXX,,New York,IN,Seller,Generated
c9996c2f-81bf-4528-ad88-00c343844f34,Owner 5013,+91XXXXXXXXXX,,Mumbai,IN,Seller,Generated
95fac556-65a7-419f-aaeb-ffff95eb6071,Owner 5800,+91XXXXXXXXXX,,New York,IN,Seller,Generated
8580a4a3-50b6-4141-96db-ac3693635ef6,Owner 3405,+91XXXXXXXXXX,,London,IN,Seller,Generated
69b86e1c-8933-4b93-abc8-3cc118517692,Owner 9501,+91XXXXXXXXXX,,New York,IN,Seller,Generated
f24d26fa-cf1b-4372-866a-6df434602c49,Owner 4293,+91XXXXXXXXXX,,Mumbai,IN,Seller,Generated
81173c45-1ec0-45ab-958e-c23843b0b03b,Owner 4602,+91XXXXXXXXXX,,New York,IN,Seller,Generated
7ab938fb-ed33-4efb-8b0c-2b76dc87b713,Owner 9619,+91XXXXXXXXXX,,Mumbai,IN,Seller,Generated
78e580ef-6688-4948-aab6-5fba5e72f6a9,Owner 7683,+91XXXXXXXXXX,,New York,IN,Seller,Generated
69bed1b8-1169-4042-bc9e-177d68ef5f1b,Owner 7871,+91XXXXXXXXXX,,Mumbai,IN,Seller,Generated
90242af5-8f96-4da8-8d7e-245dcb123f33,Owner 918,+91XXXXXXXXXX,,Delhi,IN,Seller,Generated
b33fe235-d4a8-4179-b549-57eef55d0cf8,Owner 983,+91XXXXXXXXXX,,Delhi,IN,Seller,Generated
4dbea4fc-3687-4ed8-9e02-c5d8d9d66ecf,Owner 8554,+91XXXXXXXXXX,,Delhi,IN,Seller,Generated
7bfb4e81-51d2-4a59-a949-eb0264921c9b,Owner 8423,+91XXXXXXXXXX,,London,IN,Seller,Generated
c98748f5-7667-4f68-a629-924f67c414e5,Owner 2219,+91XXXXXXXXXX,,New York,IN,Seller,Generated
450a8975-089a-4758-9089-5ee52cf6853d,Owner 7781,+91XXXXXXXXXX,,Mumbai,IN,Seller,Generated
85cd1738-90a0-481b-a331-dc1dab4fb854,Owner 1600,+91XXXXXXXXXX,,Mumbai,IN,Seller,Generated
0ae87b8e-cb12-4f3f-bec6-7f4cfc0dbc4c,Owner 8133,+91XXXXXXXXXX,,Mumbai,IN,Seller,Generated
c94a4441-300a-4c92-975f-7d116483f6c3,Owner 6938,+91XXXXXXXXXX,,Delhi,IN,Seller,Generated
6dec96a2-3fb6-4dec-af1a-525757232d91,Owner 7987,+91XXXXXXXXXX,,Mumbai,IN,Seller,Generated
4b84e3e1-db09-4958-952e-acdcfa62cf65,Owner 9464,+91XXXXXXXXXX,,Mumbai,IN,Seller,Generated
4a68d3fc-1a17-4909-80fe-ba0797a6f115,Owner 6323,+91XXXXXXXXXX,,Mumbai,IN,Seller,Generated
90b372b0-4726-4b66-8c99-92ca274b43e3,Owner 5900,+91XXXXXXXXXX,,Mumbai,IN,Seller,Generated
8cc9de7b-a68e-4a35-85d3-fec6bd6bdc04,Owner 8482,+91XXXXXXXXXX,,Mumbai,IN,Seller,Generated
e9c59831-47f1-4cea-8b91-5fffa75a1a2b,Owner 9963,+91XXXXXXXXXX,,New York,IN,Seller,Generated
41fa1f37-7ead-4390-9178-296c53137b07,Owner 9191,+91XXXXXXXXXX,,Mumbai,IN,Seller,Generated
e84512d2-45fe-4ff2-8e2c-9ed9d97877da,Owner 4555,+91XXXXXXXXXX,,Mumbai,IN,Seller,Generated
608b5ba5-56e5-4dd5-9053-54379ae2ab5e,Owner 7641,+91XXXXXXXXXX,,New York,IN,Seller,Generated
0f2006ff-0be5-4b41-9a3b-500cd62ef493,Owner 1540,+91XXXXXXXXXX,,Mumbai,IN,Seller,Generated
34f8cc69-6465-48f6-ae5f-d2fd237c2aaf,Owner 3490,+91XXXXXXXXXX,,New York,IN,Seller,Generated
df38bd67-b1fd-4d43-bf0a-3393806f7812,Owner 9593,+91XXXXXXXXXX,,Delhi,IN,Seller,Generated
04a7837d-7776-4fb1-afea-794dcc831ed6,Owner 3835,+91XXXXXXXXXX,,Delhi,IN,Seller,Generated
ee978327-3a8e-4187-98d5-e92462e09c22,Owner 6367,+91XXXXXXXXXX,,New York,IN,Seller,Generated
2feb8053-c25a-42ad-9119-2b9569fb25a6,Owner 6890,+91XXXXXXXXXX,,London,IN,Seller,Generated
37f55918-69c9-452a-b832-fb5d8cc06644,Owner 7169,+91XXXXXXXXXX,,London,IN,Seller,Generated
deaadb32-6588-4d4b-b764-8aa8f97bbf44,Owner 481,+91XXXXXXXXXX,,London,IN,Seller,Generated
c2552551-cf01-468b-80a5-141374cc6720,Owner 7451,+91XXXXXXXXXX,,New York,IN,Seller,Generated
c8178194-6d52-47a2-8e81-7acb0ebe035b,Owner 5602,+91XXXXXXXXXX,,London,IN,Seller,Generated
1edae59f-46fe-4deb-b856-666c89617ced,Owner 1703,+91XXXXXXXXXX,,Delhi,IN,Seller,Generated
ae4f9a28-d662-4721-9837-591e78773564,Owner 6346,+91XXXXXXXXXX,,New York,IN,Seller,Generated
06f5a703-da36-4ebf-95e2-550da28098fe,Owner 9279,+91XXXXXXXXXX,,London,IN,Seller,Generated
ff28054c-5922-4f97-becf-948cef129f28,Owner 9595,+91XXXXXXXXXX,,London,IN,Seller,Generated
0cee6c82-6c4a-4214-b247-13478ca25679,Owner 7311,+91XXXXXXXXXX,,New York,IN,Seller,Generated
614b9412-5603-4d2b-8326-7d36cb96c104,Owner 2045,+91XXXXXXXXXX,,Delhi,IN,Seller,Generated
ceb9193e-2ff2-49df-bd64-bbc020569e09,Owner 4971,+91XXXXXXXXXX,,Delhi,IN,Seller,Generated
c7718e0b-ac24-47fc-9681-aff97b6ca0b3,Owner 326,+91XXXXXXXXXX,,London,IN,Seller,Generated
4ff6bd79-4537-4215-82c7-2230f296594d,Owner 7928,+91XXXXXXXXXX,,London,IN,Seller,Generated
9c178281-9ba7-4416-abff-af7af4207911,Owner 2641,+91XXXXXXXXXX,,Delhi,IN,Seller,Generated
141caa59-33ee-43cb-9296-77b9d75a3c70,Owner 705,+91XXXXXXXXXX,,London,IN,Seller,Generated
d14ff2d2-4198-416b-b604-ce2278a485cb,Owner 486,+91XXXXXXXXXX,,Mumbai,IN,Seller,Generated
642bdc75-b86d-43b4-b865-0cf04fb87291,Owner 2592,+91XXXXXXXXXX,,London,IN,Seller,Generated
163b3e3c-3404-4dee-adb3-ce08bb992890,Owner 5884,+91XXXXXXXXXX,,Mumbai,IN,Seller,Generated
f1f4df97-244d-42dd-bb49-ef9376ac075a,Owner 1876,+91XXXXXXXXXX,,New York,IN,Seller,Generated
e2f8a552-96c3-496e-8da8-32a3ece06d4c,Owner 4123,+91XXXXXXXXXX,,New York,IN,Seller,Generated
9fb5febf-ff9d-413c-8e55-e14db913dc0b,Owner 3789,+91XXXXXXXXXX,,Delhi,IN,Seller,Generated
39120664-048b-46e4-9756-70a23a76344a,Owner 6990,+91XXXXXXXXXX,,Delhi,IN,Seller,Generated
685af89b-ec01-4c69-9ac5-c80163463375,Owner 2490,+91XXXXXXXXXX,,London,IN,Seller,Generated
21da6662-01b4-47fe-b730-6222bea993c0,Owner 6424,+91XXXXXXXXXX,,London,IN,Seller,Generated
e0231b20-05d7-4295-82ee-bacf1be8f646,Owner 1455,+91XXXXXXXXXX,,New York,IN,Seller,Generated
e179773f-6e04-435d-ac86-a958d66a33fc,Owner 4895,+91XXXXXXXXXX,,Delhi,IN,Seller,Generated
8f794543-d68a-4db7-8a0e-824666c9cff1,Owner 485,+91XXXXXXXXXX,,Delhi,IN,Seller,Generated
f1d831aa-32c3-4d55-b322-fad5b45d4a12,Owner 5723,+91XXXXXXXXXX,,London,IN,Seller,Generated
5aca3742-6e02-4a3c-a17c-62ae386cd1d1,Owner 2349,+91XXXXXXXXXX,,London,IN,Seller,Generated
4fabb665-fe56-4462-b12d-670d7f4f69fd,Owner 8707,+91XXXXXXXXXX,,London,IN,Seller,Generated
73cadfc8-b930-4429-8e0f-8b147d2293b1,Owner 8078,+91XXXXXXXXXX,,London,IN,Seller,Generated
0ea2d4fb-2d58-4713-9af8-c85e925bbfed,Owner 7105,+91XXXXXXXXXX,,Delhi,IN,Seller,Generated
cf841254-31a8-4ae9-8ecc-2ce1400a33bc,Owner 5629,+91XXXXXXXXXX,,Mumbai,IN,Seller,Generated
24b768a4-d919-490e-b5aa-a945bcf7e2cd,Owner 2225,+91XXXXXXXXXX,,Mumbai,IN,Seller,Generated
26d91b57-5992-48ac-aa60-a20cd2f924da,Owner 8931,+91XXXXXXXXXX,,London,IN,Seller,Generated
2336c309-4f00-47e3-852f-27e3d36e0110,Owner 2874,+91XXXXXXXXXX,,London,IN,Seller,Generated
81e0d3a0-4c71-4669-957d-7c7ac33dabf3,Owner 1745,+91XXXXXXXXXX,,Delhi,IN,Seller,Generated
1625622d-e85a-479c-a64d-b6eef8eba532,Owner 8740,+91XXXXXXXXXX,,Delhi,IN,Seller,Generated
ffab5aae-d9c8-4587-92a8-5de8d45b7d95,Owner 3060,+91XXXXXXXXXX,,Delhi,IN,Seller,Generated
8324d11c-bb71-441c-8c48-4ffb0fa5cf9c,Owner 1614,+91XXXXXXXXXX,,London,IN,Seller,Generated
52e1eaac-e56c-49d0-9021-7a6aa34e8ad9,Owner 4908,+91XXXXXXXXXX,,New York,IN,Seller,Generated
ea6cdb44-c199-4b26-9c01-b5371c073ac1,Owner 5827,+91XXXXXXXXXX,,London,IN,Seller,Generated
893e42df-c7b4-4048-ac7c-0e58d6da4917,Owner 3945,+91XXXXXXXXXX,,New York,IN,Seller,Generated
5185c8d5-cbc8-4b7c-bd1f-5f6f84160913,Owner 4920,+91XXXXXXXXXX,,Mumbai,IN,Seller,Generated
305efeaf-973b-4431-a3c1-725a342f076e,Owner 5031,+91XXXXXXXXXX,,New York,IN,Seller,Generated
1cfe41ef-5885-43ab-8164-f8a3388e1a38,Owner 9167,+91XXXXXXXXXX,,Mumbai,IN,Seller,Generated
bedc0a32-4604-4f68-b876-4dac4d0937a7,Owner 1501,+91XXXXXXXXXX,,Mumbai,IN,Seller,Generated
5641ead9-31a3-462b-8bcf-5554ba75b069,Owner 4532,+91XXXXXXXXXX,,Delhi,IN,Seller,Generated
a4970a6a-b141-4dc5-9548-f801907390cf,Owner 2841,+91XXXXXXXXXX,,New York,IN,Seller,Generated
c92748b3-5733-451d-8d76-cfc3ad732396,Owner 7671,+91XXXXXXXXXX,,New York,IN,Seller,Generated
6f9f1c80-42ed-4282-887c-399a49fe6b93,Owner 4757,+91XXXXXXXXXX,,Delhi,IN,Seller,Generated
102d16fd-75c9-4dd3-82ef-dbc2cbf96e82,Owner 9100,+91XXXXXXXXXX,,Mumbai,IN,Seller,Generated
fab9aa1e-3a8c-4e1d-8d0c-2caee9053502,Owner 2605,+91XXXXXXXXXX,,London,IN,Seller,Generated
6eaebf50-7b93-4a4f-b4f5-59f0e1ed5907,Owner 8501,+91XXXXXXXXXX,,London,IN,Seller,Generated
6afe097e-5fe3-4fdf-aef4-adb10bcd755d,Owner 348,+91XXXXXXXXXX,,London,IN,Seller,Generated
b5d57b54-14d8-4c21-9c57-5c51ae78f2b8,Owner 2287,+91XXXXXXXXXX,,Delhi,IN,Seller,Generated
76a7fcae-bc34-43f3-945c-a2f0d726758f,Owner 8118,+91XXXXXXXXXX,,New York,IN,Seller,Generated
586941b2-9eb3-4e79-bf89-7815889b63c9,Owner 1306,+91XXXXXXXXXX,,Mumbai,IN,Seller,Generated
de12b774-f411-4d92-bfdc-f28e07adc871,Owner 2934,+91XXXXXXXXXX,,Mumbai,IN,Seller,Generated
a02c5c5d-c92b-4ce9-9e8b-e1fbda404ca4,Owner 4582,+91XXXXXXXXXX,,Mumbai,IN,Seller,Generated
14bd40de-2a7b-404b-8d7e-19b7cd19ab62,Owner 4735,+91XXXXXXXXXX,,Mumbai,IN,Seller,Generated
a3c172d7-61c9-409b-91f6-1fc600877fae,Owner 6689,+91XXXXXXXXXX,,Delhi,IN,Seller,Generated
319c9b10-5889-4519-817e-913916b786a1,Owner 7415,+91XXXXXXXXXX,,Delhi,IN,Seller,Generated
416eb7ad-b9dc-4089-a5b4-bec7258f22d6,Owner 6822,+91XXXXXXXXXX,,Delhi,IN,Seller,Generated
fd650278-ec69-4dd7-b026-7bd33f333963,Owner 2162,+91XXXXXXXXXX,,London,IN,Seller,Generated
2f3f5117-55e6-41bf-8635-cb2480a53384,Owner 5573,+91XXXXXXXXXX,,London,IN,Seller,Generated
c2aec528-29cb-4ac3-b5c2-78b2492458b6,Owner 4948,+91XXXXXXXXXX,,London,IN,Seller,Generated
3d689b1a-8eb4-4f1b-993e-2ef9679bb9ad,Owner 4217,+91XXXXXXXXXX,,Delhi,IN,Seller,Generated
6c3ac1fd-16df-48cd-b75e-22b61485e397,Owner 4140,+91XXXXXXXXXX,,New York,IN,Seller,Generated
e444ff58-52d0-4944-bb7a-e2d2635a93f4,Owner 7487,+91XXXXXXXXXX,,Mumbai,IN,Seller,Generated
a6bbb895-8cab-41a0-b42a-67f2b3c364e9,Owner 1347,+91XXXXXXXXXX,,New York,IN,Seller,Generated
5f12ce24-d9f4-4a53-9f1a-d5fe6338f20e,Owner 7614,+91XXXXXXXXXX,,Delhi,IN,Seller,Generated
fc14f9c7-0fc9-46a2-824f-e50d3b0260c1,Owner 8688,+91XXXXXXXXXX,,Delhi,IN,Seller,Generated
b565774f-9d11-4a8d-8c96-7956af5e4ccd,Owner 9420,+91XXXXXXXXXX,,Delhi,IN,Seller,Generated
c694ace7-ac25-410b-888f-a04a5d1aa3cd,Owner 8342,+91XXXXXXXXXX,,Mumbai,IN,Seller,Generated
301544e7-962a-405d-a693-d1c0d7c085b4,Owner 783,+91XXXXXXXXXX,,London,IN,Seller,Generated
73597fa4-a1f6-409a-856d-13a62874fe2f,Owner 1050,+91XXXXXXXXXX,,London,IN,Seller,Generated
2ded8d0c-b3fc-4059-8bed-dad54cd40a31,Owner 1104,+91XXXXXXXXXX,,Mumbai,IN,Seller,Generated
12fbb362-d07d-4bb0-b471-299f704cbd56,Owner 9355,+91XXXXXXXXXX,,Mumbai,IN,Seller,Generated
51bde6b8-0f1d-4d21-85c6-39f807e3915e,Owner 7445,+91XXXXXXXXXX,,Delhi,IN,Seller,Generated
84ebb304-a576-4d5c-8874-9ed013137073,Owner 8880,+91XXXXXXXXXX,,Mumbai,IN,Seller,Generated
46c3add8-f036-4870-9581-911af5b91fdd,Owner 5883,+91XXXXXXXXXX,,Delhi,IN,Seller,Generated
4c84222c-f72a-4f8a-96ea-0bcd849cd0b5,Owner 4740,+91XXXXXXXXXX,,Delhi,IN,Seller,Generated
59e54708-2646-4ee8-b7f4-0c294dea5f2b,Owner 2063,+91XXXXXXXXXX,,Mumbai,IN,Seller,Generated
cdd3867b-f16d-4b1a-89a1-abe52a05960c,Owner 7912,+91XXXXXXXXXX,,Delhi,IN,Seller,Generated
7be6a0aa-36be-466e-959f-39b2986e4c15,Owner 7088,+91XXXXXXXXXX,,London,IN,Seller,Generated
dfd1d3eb-5997-4584-a31f-22318898f3ce,Owner 2311,+91XXXXXXXXXX,,London,IN,Seller,Generated
6a8f1cbc-7df6-4047-a7bb-f8ed0133a572,Owner 6728,+91XXXXXXXXXX,,London,IN,Seller,Generated
1e442007-4c9a-4e25-ae77-64a494f4ef68,Owner 3102,+91XXXXXXXXXX,,New York,IN,Seller,Generated
6a80ed7b-2aa0-4955-a38a-c7498afb0eaf,Owner 6646,+91XXXXXXXXXX,,Delhi,IN,Seller,Generated
0cff485b-56f1-4162-bdbb-9f358dc9cf3b,Owner 7785,+91XXXXXXXXXX,,New York,IN,Seller,Generated
0d800c35-4e21-40fc-88c9-3b3606a43a48,Owner 206,+91XXXXXXXXXX,,Delhi,IN,Seller,Generated
e8ee6962-0330-4b3d-81d0-a08cd8b426db,Owner 9678,+91XXXXXXXXXX,,New York,IN,Seller,Generated
48214b56-e2c4-40a2-ae32-b14b1b95f51b,Owner 9944,+91XXXXXXXXXX,,Delhi,IN,Seller,Generated
4e2a59fa-874a-4c2d-a688-9c7817f61e56,Owner 1069,+91XXXXXXXXXX,,London,IN,Seller,Generated
36435acf-7527-428c-980a-05b377fe281e,Owner 5958,+91XXXXXXXXXX,,London,IN,Seller,Generated
58f1992c-8c93-4bc5-bf9f-cff859a1d47c,Owner 342,+91XXXXXXXXXX,,Mumbai,IN,Seller,Generated
9b327698-b468-4010-95e1-4ee9c2debe45,Owner 7527,+91XXXXXXXXXX,,New York,IN,Seller,Generated
5f39ca33-8a98-48ca-9dbb-4e38cfad8a47,Owner 6013,+91XXXXXXXXXX,,London,IN,Seller,Generated
1d09cbb9-7f25-40a7-870c-3b372b081e3f,Owner 9003,+91XXXXXXXXXX,,Delhi,IN,Seller,Generated
7a136d51-c258-4100-9cf6-eea5fd3f9bed,Owner 6249,+91XXXXXXXXXX,,Mumbai,IN,Seller,Generated
e7dcffa7-9fdf-49f0-9e59-3e970e2f700f,Owner 5783,+91XXXXXXXXXX,,New York,IN,Seller,Generated
2c21c27e-ce95-486d-9379-8f1094c8c459,Owner 7755,+91XXXXXXXXXX,,New York,IN,Seller,Generated
c9e525bf-b58b-4b35-a90e-54d56c34056f,Owner 438,+91XXXXXXXXXX,,New York,IN,Seller,Generated
8188fc56-da8c-45ae-9be2-5a7733ae4b45,Owner 8245,+91XXXXXXXXXX,,Delhi,IN,Seller,Generated
6d8886f1-1e28-4fc7-af6a-b6deaf59bf04,Owner 2685,+91XXXXXXXXXX,,Mumbai,IN,Seller,Generated
bced764d-a8cd-4530-b383-e70e660d8263,Owner 3861,+91XXXXXXXXXX,,London,IN,Seller,Generated
d152e2b2-a438-4c0d-a81c-a2602ba1f8ef,Owner 4280,+91XXXXXXXXXX,,New York,IN,Seller,Generated
c661adfb-9961-4cb0-be5b-1a521e47631a,Owner 3088,+91XXXXXXXXXX,,Delhi,IN,Seller,Generated
0a929178-ce6a-4f21-bc87-f590297554fd,Owner 3197,+91XXXXXXXXXX,,New York,IN,Seller,Generated
0ee7564b-62a1-4705-865a-f085d99e1657,Owner 3682,+91XXXXXXXXXX,,Mumbai,IN,Seller,Generated
70fcb60e-4763-495b-8d4a-b23f1d5be279,Owner 6983,+91XXXXXXXXXX,,London,IN,Seller,Generated
deb752dc-23e0-48a3-b805-0563368e2171,Owner 1764,+91XXXXXXXXXX,,London,IN,Seller,Generated
ee5b6fcf-9046-4ab9-96fe-5053c8f0a8a5,Owner 6237,+91XXXXXXXXXX,,Mumbai,IN,Seller,Generated
1ef6d5c5-91a9-40b9-85aa-207581976f34,Owner 9061,+91XXXXXXXXXX,,London,IN,Seller,Generated
16651bfd-4900-4a60-aabb-512bee6cfcc8,Owner 2889,+91XXXXXXXXXX,,London,IN,Seller,Generated
d63696a8-0c59-4022-9102-f60159702ddb,Owner 9672,+91XXXXXXXXXX,,Delhi,IN,Seller,Generated
69effe64-d5d0-4fa1-b809-45d7256b07ac,Owner 457,+91XXXXXXXXXX,,Delhi,IN,Seller,Generated
929c3584-e2c4-464d-9286-a8a64e4aba9f,Owner 5349,+91XXXXXXXXXX,,New York,IN,Seller,Generated
1a3889d9-ab67-41df-b1d2-7048d46794c1,Owner 3622,+91XXXXXXXXXX,,London,IN,Seller,Generated
8a3d0f97-50db-4b9d-9ecd-ad15cbfd1881,Owner 7759,+91XXXXXXXXXX,,Mumbai,IN,Seller,Generated
aab0b9c7-e6cf-4c23-808c-b70487796d1f,Owner 5576,+91XXXXXXXXXX,,New York,IN,Seller,Generated
1920bdb5-4b7b-42f0-a4cc-ea7fe9b3c9c2,Owner 7486,+91XXXXXXXXXX,,Delhi,IN,Seller,Generated
2a399e2a-c0da-44e9-895e-758f04d020b5,Owner 5902,+91XXXXXXXXXX,,London,IN,Seller,Generated
d51d92cc-e913-4940-93f3-40b3a9abd51c,Owner 3816,+91XXXXXXXXXX,,Delhi,IN,Seller,Generated
e4c39b62-5450-401d-85aa-a84f7086dac7,Owner 9871,+91XXXXXXXXXX,,New York,IN,Seller,Generated
4caeded4-6f99-47d4-b4c6-9add24de0808,Owner 8096,+91XXXXXXXXXX,,Delhi,IN,Seller,Generated
3943f862-c1a1-478b-b5f6-53a92745a74d,Owner 7292,+91XXXXXXXXXX,,Delhi,IN,Seller,Generated
d025f57f-3bae-4ba9-ab1f-60bee403cc8f,Owner 7509,+91XXXXXXXXXX,,London,IN,Seller,Generated
291af56f-860d-4de0-a1be-ae494f831ac3,Owner 7966,+91XXXXXXXXXX,,New York,IN,Seller,Generated
f0e589d9-3137-432b-a912-ef8277377bec,Owner 5924,+91XXXXXXXXXX,,New York,IN,Seller,Generated
4c190b3a-85d8-4235-8fa2-61c0ec4229b2,Owner 696,+91XXXXXXXXXX,,Mumbai,IN,Seller,Generated
31455d2b-8c7b-4aec-8c1d-8908e996a735,Owner 4133,+91XXXXXXXXXX,,London,IN,Seller,Generated
43705e99-63a9-437a-8447-8c13c1adae03,Owner 9468,+91XXXXXXXXXX,,London,IN,Seller,Generated
95bf8d40-8c5c-441b-b62e-b8a7e4b7af4d,Owner 2338,+91XXXXXXXXXX,,Mumbai,IN,Seller,Generated
b2e57bcf-8a15-4278-b662-bcd92fed0ca2,Owner 6116,+91XXXXXXXXXX,,Mumbai,IN,Seller,Generated
10484806-59bf-4fb0-9485-658beda82e4a,Owner 9329,+91XXXXXXXXXX,,Mumbai,IN,Seller,Generated
c7632848-70f4-47df-88e0-4e05f39e95a4,Owner 3237,+91XXXXXXXXXX,,Mumbai,IN,Seller,Generated
006e8275-4d2f-483c-aa3a-dddc75eecbfd,Owner 111,+91XXXXXXXXXX,,New York,IN,Seller,Generated
a022ed1e-3429-4002-8fed-f72a7358b7a1,Owner 6984,+91XXXXXXXXXX,,Delhi,IN,Seller,Generated
47405a00-8f52-4922-b46d-630c2092a57b,Owner 8374,+91XXXXXXXXXX,,New York,IN,Seller,Generated
625e2342-6672-4461-9ec5-53718aa2d92c,Owner 5718,+91XXXXXXXXXX,,Delhi,IN,Seller,Generated
a8cc5684-382f-48be-9513-99f8a6ebcdfd,Owner 2157,+91XXXXXXXXXX,,New York,IN,Seller,Generated
7cb70baf-66ab-4e8e-ab32-0464d64f858c,Owner 3583,+91XXXXXXXXXX,,Mumbai,IN,Seller,Generated
06cb13c7-c54a-4e3c-9f59-4e6e3b795c0d,Owner 4023,+91XXXXXXXXXX,,New York,IN,Seller,Generated
47b05baf-cf4c-4f73-8ede-77ce4031f885,Owner 9577,+91XXXXXXXXXX,,New York,IN,Seller,Generated
00d12f29-68de-4ead-8864-928c686cffd9,Owner 5279,+91XXXXXXXXXX,,Mumbai,IN,Seller,Generated
945adb11-2370-4108-a071-bef8c717ab50,Owner 9825,+91XXXXXXXXXX,,New York,IN,Seller,Generated
9d0d96b7-fce7-4adf-a4f2-ffc558cb1b70,Owner 4586,+91XXXXXXXXXX,,New York,IN,Seller,Generated
3bf6fce3-a97e-4738-a7d0-e112c4cd4005,Owner 2787,+91XXXXXXXXXX,,New York,IN,Seller,Generated
259b1910-ada8-438d-b170-f95e8b116a78,Owner 9495,+91XXXXXXXXXX,,London,IN,Seller,Generated
164823eb-2606-4adf-9bdf-f6b5c329e424,Owner 2320,+91XXXXXXXXXX,,Delhi,IN,Seller,Generated
ff4a4570-de5f-4ecf-b278-e01800e5d0ba,Owner 9250,+91XXXXXXXXXX,,New York,IN,Seller,Generated
6e3c22d1-db43-4fc4-a45a-605fc4efa667,Owner 6883,+91XXXXXXXXXX,,London,IN,Seller,Generated
da53f51b-abb3-4b18-8c3b-decbc054b906,Owner 7734,+91XXXXXXXXXX,,Delhi,IN,Seller,Generated
e33aff31-f826-4a15-b768-4dfd0ba71ae0,Owner 8902,+91XXXXXXXXXX,,Mumbai,IN,Seller,Generated
f14882f8-abca-4e18-932b-e8b8a7a8150b,Owner 3536,+91XXXXXXXXXX,,London,IN,Seller,Generated
4b49de42-5d4b-404c-b332-d356001757ac,Owner 8996,+91XXXXXXXXXX,,Mumbai,IN,Seller,Generated
145281f0-8e27-4aad-be1c-ee8349d2224d,Owner 7519,+91XXXXXXXXXX,,New York,IN,Seller,Generated
f8b3fc94-c0de-4a55-9db1-0d7de60032ae,Owner 5118,+91XXXXXXXXXX,,Delhi,IN,Seller,Generated
453f2cca-066a-447d-951a-78884deefb64,Owner 2401,+91XXXXXXXXXX,,Mumbai,IN,Seller,Generated
53b3a3e7-ac09-4331-9247-1d60ca421742,Owner 9828,+91XXXXXXXXXX,,Delhi,IN,Seller,Generated
403cf795-844b-460e-8e70-b9191ee1fbc9,Owner 4935,+91XXXXXXXXXX,,Mumbai,IN,Seller,Generated
79333eea-7e55-44f0-9b12-700fbc95b323,Owner 5190,+91XXXXXXXXXX,,Mumbai,IN,Seller,Generated
ab806b4b-c356-40ca-84d2-5b43766bf5df,Owner 6408,+91XXXXXXXXXX,,New York,IN,Seller,Generated
3561ce0d-c914-4b5b-8526-787679bee4f1,Owner 6858,+91XXXXXXXXXX,,London,IN,Seller,Generated
030ef7e6-41ca-40c5-9905-66a2f53f8a46,Owner 5134,+91XXXXXXXXXX,,New York,IN,Seller,Generated
8203bfc6-d042-4c74-86b5-e02edaaef600,Owner 1006,+91XXXXXXXXXX,,Mumbai,IN,Seller,Generated
c589125c-78cb-4dfc-9683-1822014fb116,Owner 6117,+91XXXXXXXXXX,,London,IN,Seller,Generated
91a794d5-b9fe-4931-8d46-c19ec361f46c,Owner 4770,+91XXXXXXXXXX,,Delhi,IN,Seller,Generated
3aabaef5-5ab4-4c04-a53e-5c23f463319b,Owner 1072,+91XXXXXXXXXX,,New York,IN,Seller,Generated
61a92756-5fea-4c78-a49e-4f56ef40d1fb,Owner 3407,+91XXXXXXXXXX,,London,IN,Seller,Generated
6f28ba16-0703-4821-b742-e3978f327afb,Owner 8842,+91XXXXXXXXXX,,Mumbai,IN,Seller,Generated
38df2e43-1b39-4b4b-ae67-797ee3177290,Owner 7097,+91XXXXXXXXXX,,Delhi,IN,Seller,Generated
f88b8864-75c3-4ce5-b4db-dd8157ce4454,Owner 9538,+91XXXXXXXXXX,,New York,IN,Seller,Generated
5cef292c-ff8b-4ff6-a7f7-56424a1431ca,Owner 3911,+91XXXXXXXXXX,,Delhi,IN,Seller,Generated
2dcd46cd-d215-4714-89cd-f01728608339,Owner 77,+91XXXXXXXXXX,,New York,IN,Seller,Generated
b2a7f139-f8ab-4cc5-9c90-66fbb48e1085,Owner 2045,+91XXXXXXXXXX,,Delhi,IN,Seller,Generated
16f5aea0-3cb1-46f4-b931-cb899a936c41,Owner 5143,+91XXXXXXXXXX,,New York,IN,Seller,Generated
60249c31-9e19-42ad-831c-c0b51ac39f23,Owner 9358,+91XXXXXXXXXX,,Mumbai,IN,Seller,Generated
c577fa30-31a6-4874-8de0-0d36402db32d,Owner 8990,+91XXXXXXXXXX,,Mumbai,IN,Seller,Generated
93f135bc-a30d-45d1-93aa-e01f7f087572,Owner 6055,+91XXXXXXXXXX,,London,IN,Seller,Generated
74e0c55d-eb55-4170-8dd7-8f2fad311e2f,Owner 7921,+91XXXXXXXXXX,,Delhi,IN,Seller,Generated
ee1a8a6b-7033-4da3-8b87-d7c4aa45eb0c,Owner 4928,+91XXXXXXXXXX,,Delhi,IN,Seller,Generated
5b0796c3-4cf4-4ec9-9522-419844b75188,Owner 7283,+91XXXXXXXXXX,,New York,IN,Seller,Generated
4e7f4156-3bb1-4100-8def-beca5eb39ab0,Owner 3,+91XXXXXXXXXX,,Mumbai,IN,Seller,Generated
dae7995a-1401-41d3-b52f-8d2e50129cae,Owner 5565,+91XXXXXXXXXX,,London,IN,Seller,Generated
99466c79-68dc-4929-90ac-5debd6650cee,Owner 2783,+91XXXXXXXXXX,,Delhi,IN,Seller,Generated
1ca683ab-613e-4c8e-a87e-a5fdac3679ba,Owner 2447,+91XXXXXXXXXX,,Mumbai,IN,Seller,Generated
ab965d2a-5544-4f16-bbcc-7c3d2a35874f,Owner 8548,+91XXXXXXXXXX,,Mumbai,IN,Seller,Generated
bd89166b-b247-4508-9827-4e01cf1fddf4,Owner 1645,+91XXXXXXXXXX,,London,IN,Seller,Generated
57ad4014-079e-4057-bab1-2a3bb8262e35,Owner 813,+91XXXXXXXXXX,,Mumbai,IN,Seller,Generated
0446aad4-b60a-49fa-ad06-6ef0244ac48d,Owner 2227,+91XXXXXXXXXX,,New York,IN,Seller,Generated
4b856a23-4d94-457a-aada-c24b2f921376,Owner 1537,+91XXXXXXXXXX,,London,IN,Seller,Generated
b4bad2a2-22f5-4422-83b7-6c9940755c14,Owner 6911,+91XXXXXXXXXX,,Delhi,IN,Seller,Generated
7a51db87-087e-4d20-ab36-287308317bca,Owner 3430,+91XXXXXXXXXX,,London,IN,Seller,Generated
c2d1d8f2-a43e-4eb6-a2dc-ac700db778ee,Owner 9579,+91XXXXXXXXXX,,London,IN,Seller,Generated
ee52815e-1e7a-49cb-a0ff-351a2d5ee3cf,Owner 1447,+91XXXXXXXXXX,,New York,IN,Seller,Generated
a4130de7-807f-478b-8f30-258681e33c37,Owner 9757,+91XXXXXXXXXX,,Mumbai,IN,Seller,Generated
a616e59f-5468-4cb1-a2bf-97ceb36c2ad9,Owner 7817,+91XXXXXXXXXX,,Mumbai,IN,Seller,Generated
b5c8ed1c-552f-4308-ba78-11d881785f53,Owner 3788,+91XXXXXXXXXX,,Mumbai,IN,Seller,Generated
d22e1535-dd9c-4568-86e1-a87f797cdd11,Owner 3100,+91XXXXXXXXXX,,Mumbai,IN,Seller,Generated
a9e683ad-95ad-422b-bb50-55c849445d0d,Owner 7297,+91XXXXXXXXXX,,Delhi,IN,Seller,Generated
a10dda56-5262-4ea9-b908-f5c2af13d5cf,Owner 5197,+91XXXXXXXXXX,,Mumbai,IN,Seller,Generated
72f7ceee-f581-48d6-9cef-c6a49be35469,Owner 7464,+91XXXXXXXXXX,,Mumbai,IN,Seller,Generated
54ae5f87-7e51-470e-8ed1-ffadbb2bb259,Owner 6732,+91XXXXXXXXXX,,London,IN,Seller,Generated
a76e63cf-ab52-4db1-af7f-fe05e7387b44,Owner 4077,+91XXXXXXXXXX,,Delhi,IN,Seller,Generated
86add211-858b-47c1-92ab-7fad3df0d321,Owner 3553,+91XXXXXXXXXX,,London,IN,Seller,Generated
650e803b-35b1-4464-8809-f0a2eaf9359d,Owner 9256,+91XXXXXXXXXX,,Mumbai,IN,Seller,Generated
72fa98f7-6c4f-454a-8d50-3189da29d389,Owner 4485,+91XXXXXXXXXX,,New York,IN,Seller,Generated
cc83a946-3d94-46c9-a235-dacedf0af7f3,Owner 368,+91XXXXXXXXXX,,New York,IN,Seller,Generated
bab73f21-8d28-4737-bb06-9308ac52d7ec,Owner 9473,+91XXXXXXXXXX,,Mumbai,IN,Seller,Generated
676b4341-1ab3-4a7e-a67a-cf31455ae8c2,Owner 3803,+91XXXXXXXXXX,,New York,IN,Seller,Generated
cf27aeac-dd75-4aa7-a9f4-ff3f28be8e57,Owner 8160,+91XXXXXXXXXX,,London,IN,Seller,Generated
bdb4d813-e7bf-4b83-988b-076a8b763557,Owner 2462,+91XXXXXXXXXX,,London,IN,Seller,Generated
510e52dc-09ef-44aa-97ba-0a5c8a06ba65,Owner 2731,+91XXXXXXXXXX,,New York,IN,Seller,Generated
f2c7ec68-da6a-41dd-84b5-ad16453c7f75,Owner 3468,+91XXXXXXXXXX,,New York,IN,Seller,Generated
c00b40c2-20b4-4e49-ad32-d6cec4e40dbb,Owner 6383,+91XXXXXXXXXX,,Delhi,IN,Seller,Generated
34aca72c-ca96-4909-9222-33431edfc5c0,Owner 7958,+91XXXXXXXXXX,,Mumbai,IN,Seller,Generated
5e36dec4-03de-4ff5-8756-0710d9bbfb9a,Owner 7563,+91XXXXXXXXXX,,Mumbai,IN,Seller,Generated
65d633d8-25c4-4696-a3e0-adba57d7b45a,Owner 643,+91XXXXXXXXXX,,New York,IN,Seller,Generated
8fb75676-b210-4a21-8b12-14e46814c280,Owner 5907,+91XXXXXXXXXX,,London,IN,Seller,Generated
ffaaf274-fed4-4769-a98a-284085b3d4c3,Owner 7238,+91XXXXXXXXXX,,Mumbai,IN,Seller,Generated
045497dd-cace-4cca-9c9c-ce4338862dbd,Owner 830,+91XXXXXXXXXX,,New York,IN,Seller,Generated
cc3ed377-3dd6-4971-a558-2daddc4fe04d,Owner 7743,+91XXXXXXXXXX,,Delhi,IN,Seller,Generated
7c1ab42e-0dff-4924-89bb-9c6803c40f7b,Owner 9216,+91XXXXXXXXXX,,Mumbai,IN,Seller,Generated
17c2335f-a01c-4b0a-bb9c-a749ebbace42,Owner 8044,+91XXXXXXXXXX,,New York,IN,Seller,Generated
02aee12f-04a0-4a33-b410-9c3ee0564eec,Owner 6451,+91XXXXXXXXXX,,Delhi,IN,Seller,Generated
efc5e74e-fdc1-434a-aa52-5826413bf193,Owner 6843,+91XXXXXXXXXX,,New York,IN,Seller,Generated
4940d679-8101-431a-b266-fb36fca406c1,Owner 6460,+91XXXXXXXXXX,,Mumbai,IN,Seller,Generated
d950878b-1b76-4cfb-af7d-a4bce28c4701,Owner 2752,+91XXXXXXXXXX,,New York,IN,Seller,Generated
14e5a292-8ed2-41b9-930b-4b251e09e9ce,Owner 9544,+91XXXXXXXXXX,,Delhi,IN,Seller,Generated
7538c45e-37aa-4523-bdcb-cee7567a9149,Owner 7760,+91XXXXXXXXXX,,Delhi,IN,Seller,Generated
b6c4ba46-d6ac-447b-9476-abef97492bc6,Owner 6698,+91XXXXXXXXXX,,Delhi,IN,Seller,Generated
ce9574a1-fa39-40d3-9d6f-0f73a33b372a,Owner 6327,+91XXXXXXXXXX,,London,IN,Seller,Generated
0dd64b3a-8be0-4f36-9d9e-fedccaa93a1b,Owner 7863,+91XXXXXXXXXX,,Delhi,IN,Seller,Generated
b4fb1bcd-1bd1-495f-a848-f905e68e35e6,Owner 6544,+91XXXXXXXXXX,,London,IN,Seller,Generated
122e88aa-d4e2-4c3c-ae8e-3f40f046549f,Owner 1036,+91XXXXXXXXXX,,New York,IN,Seller,Generated
3019dc4f-c017-4359-9f8f-4e8f033ed084,Owner 3211,+91XXXXXXXXXX,,Delhi,IN,Seller,Generated
77a9385b-6ba8-42b2-83a2-4143477cc834,Owner 9963,+91XXXXXXXXXX,,London,IN,Seller,Generated
11884753-d381-41d5-819e-ca5782a1445d,Owner 7421,+91XXXXXXXXXX,,London,IN,Seller,Generated
bb4faf3d-32a3-416e-ac32-6df4d2477477,Owner 5882,+91XXXXXXXXXX,,New York,IN,Seller,Generated
cf00957e-bbca-45c8-b877-02d4137ffb70,Owner 5278,+91XXXXXXXXXX,,Mumbai,IN,Seller,Generated
4ee29a5e-eb8f-49e7-9d35-3b297f309b7c,Owner 3269,+91XXXXXXXXXX,,Delhi,IN,Seller,Generated
23bd98f3-f46c-4f2d-8061-1c98dada00e4,Owner 4787,+91XXXXXXXXXX,,Delhi,IN,Seller,Generated
9f5630a1-80ad-43f2-bcc7-6d18b98ca763,Owner 5430,+91XXXXXXXXXX,,New York,IN,Seller,Generated
772cd96d-979f-40b7-9322-a1e7cd7f2233,Owner 7662,+91XXXXXXXXXX,,New York,IN,Seller,Generated
