lead_id,name,phone,email,city,country,type,notes
29397c6b-f292-44ef-84ee-ffae912eb0b0,Owner 1417,+91XXXXXXXXXX,,Mumbai,IN,Seller,Generated
c9521016-f0cc-4b18-a337-ab4eb7f41347,Owner 4696,+91XXXXXXXXXX,,Delhi,IN,Seller,Generated
c3c3b489-635e-4444-b9ed-fe8b60cc4f3b,Owner 3949,+91XXXXXXXXXX,,Mumbai,IN,Seller,Generated
352f60b6-b617-451f-b017-1dba91361175,Owner 4987,+91XXXXXXXXXX,,London,IN,Seller,Generated
dc418fc6-61f6-4d1f-938f-8bcb26a4a70d,Owner 5564,+91XXXXXXXXXX,,London,IN,Seller,Generated
2dbb7430-aa8a-4c73-845b-d94e5fc45a3a,Owner 7213,+91XXXXXXXXXX,,London,IN,Seller,Generated
a899fae3-e048-4524-993b-255bef28723d,Owner 3440,+91XXXXXXXXXX,,Delhi,IN,Seller,Generated
befb16a4-d656-498a-b3f5-69a377f8373f,Owner 9700,+91XXXXXXXXXX,,New York,IN,Seller,Generated
9f406005-bf97-49d6-9110-db595dcb99f1,Owner 4816,+91XXXXXXXXXX,,London,IN,Seller,Generated
1c103a57-33f3-4961-a9a4-a0ed4c13ba45,Owner 6606,+91XXXXXXXXXX,,Delhi,IN,Seller,Generated
7c8aad1a-4ad6-4b1a-8600-f8e7bec84bc9,Owner 6893,+91XXXXXXXXXX,,New York,IN,Seller,Generated
6868c1d8-7a17-4ac0-b258-13dd01d4bdb0,Owner 3324,+91XXXXXXXXXX,,Delhi,IN,Seller,Generated
7b7f3ad6-a946-47c6-89f5-531fc8592e5b,Owner 2063,+91XXXXXXXXXX,,New York,IN,Seller,Generated
f159cb61-2ddd-4db4-a148-f3609a40f6f8,Owner 6163,+91XXXXXXXXXX,,Mumbai,IN,Seller,Generated
5d68865c-7a1e-4919-81c0-2fb9d55f4f56,Owner 7923,+91XXXXXXXXXX,,New York,IN,Seller,Generated
fb42d131-57ff-4861-8e05-41b251de09c9,Owner 8743,+91XXXXXXXXXX,,Delhi,IN,Seller,Generated
5e0cdd9c-1e96-4268-8391-c24aa6a13849,Owner 4435,+91XXXXXXXXXX,,Delhi,IN,Seller,Generated
418b0533-8bff-40d5-936a-68916f55c4f3,Owner 9615,+91XXXXXXXXXX,,New York,IN,Seller,Generated
470dbe1f-6992-4253-93d4-396b65b30ea1,Owner 5350,+91XXXXXXXXXX,,Delhi,IN,Seller,Generated
f6d65dda-68f3-4c11-ab20-c232136079d6,Owner 4927,+91XXXXXXXXXX,,London,IN,Seller,Generated
cb2d92f6-a029-4ef8-86df-81e820d9369b,Owner 326,+91XXXXXXXXXX,,Delhi,IN,Seller,Generated
cdda64e7-a5c4-48d2-a53a-077c363a2247,Owner 2305,+91XXXXXXXXXX,,New York,IN,Seller,Generated
1e75dafd-e497-4be8-a0db-19b5472bf126,Owner 5029,+91XXXXXXXXXX,,London,IN,Seller,Generated
a107f87e-3ca2-448a-8584-43de2de01471,Owner 9805,+91XXXXXXXXXX,,London,IN,Seller,Generated
aa26165d-6a53-4576-a879-6d2449527fab,Owner 8193,+91XXXXXXXXXX,,Delhi,IN,Seller,Generated
2143184b-b04d-4c42-a11d-ae6a8bba2368,Owner 8843,+91XXXXXXXXXX,,Mumbai,IN,Seller,Generated
2a5a83d4-412d-44cb-b3e6-5bf408901500,Owner 571,+91XXXXXXXXXX,,Mumbai,IN,Seller,Generated
8a007fa9-ecce-4279-a01c-d9cbcfb8dd6d,Owner 3834,+91XXXXXXXXXX,,Delhi,IN,Seller,Generated
f67aa503-ede9-41ce-9c15-bfee5075d687,Owner 2158,+91XXXXXXXXXX,,Mumbai,IN,Seller,Generated
084c4b6e-8132-4add-a3ab-e9e94fb75fa7,Owner 418,+91XXXXXXXXXX,,London,IN,Seller,Generated
f896bf50-7818-4de6-9954-4f81dcf08249,Owner 5077,+91XXXXXXXXXX,,Delhi,IN,Seller,Generated
4014815a-b032-4306-b0c8-70efd866f240,Owner 5515,+91XXXXXXXXXX,,Delhi,IN,Seller,Generated
559da9cf-c645-4d6c-a24d-b5f83ac959db,Owner 4498,+91XXXXXXXXXX,,New York,IN,Seller,Generated
c39e340d-58c8-40eb-8b94-2ab029c7c536,Owner 534,+91XXXXXXXXXX,,Mumbai,IN,Seller,Generated
b34423c0-f88c-4b11-bc15-51f3e802a4c6,Owner 2386,+91XXXXXXXXXX,,Mumbai,IN,Seller,Generated
a5777ae6-9632-464a-92ef-9fe303da37db,Owner 1252,+91XXXXXXXXXX,,London,IN,Seller,Generated
c54fa50f-0924-49b7-8f14-f4a3b648468f,Owner 2017,+91XXXXXXXXXX,,New York,IN,Seller,Generated
28f94520-c527-4f34-8327-78a33cf08085,Owner 8175,+91XXXXXXXXXX,,Mumbai,IN,Seller,Generated
331606e4-5955-4251-8f70-2cdc5580b997,Owner 2454,+91XXXXXXXXXX,,Delhi,IN,Seller,Generated
cee0ced9-5118-4275-92d8-0051878ed6ea,Owner 2495,+91XXXXXXXXXX,,Mumbai,IN,Seller,Generated
1378f334-05c5-442c-bdec-afbb47e8cb23,Owner 5011,+91XXXXXXXXXX,,Mumbai,IN,Seller,Generated
805c3f42-b144-41a2-b70d-da4d7781267f,Owner 8351,+91XXXXXXXXXX,,Mumbai,IN,Seller,Generated
69bb660f-8ece-404e-9615-3c2d48daed79,Owner 7726,+91XXXXXXXXXX,,Delhi,IN,Seller,Generated
4448207f-031b-4ea7-90ce-b46c3cf88d14,Owner 2648,+91XXXXXXXXXX,,New York,IN,Seller,Generated
5105f830-3df4-49e5-a086-348ed8de0bc5,Owner 8635,+91XXXXXXXXXX,,London,IN,Seller,Generated
550cf340-023d-40d6-bd0a-0e3ff91b793d,Owner 885,+91XXXXXXXXXX,,Delhi,IN,Seller,Generated
5e21138e-7ff6-46d1-b15d-3953e7354829,Owner 9090,+91XXXXXXXXXX,,Delhi,IN,Seller,Generated
7909cde8-ba9d-4bf2-95a6-091db5cccf98,Owner 5801,+91XXXXXXXXXX,,Delhi,IN,Seller,Generated
49e53457-e64f-440d-8d8d-ecc07de06761,Owner 4528,+91XXXXXXXXXX,,Delhi,IN,Seller,Generated
7eee54d6-3d24-46c0-8ba2-b558cf16280d,Owner 2095,+91XXXXXXXXXX,,Mumbai,IN,Seller,Generated
27bf269c-372a-445a-8fe3-3dc693ce181a,Owner 251,+91XXXXXXXXXX,,Delhi,IN,Seller,Generated
a0124c98-4712-408a-b07d-bc8670a17feb,Owner 7504,+91XXXXXXXXXX,,Mumbai,IN,Seller,Generated
858f807a-da15-4f79-adbf-86e7cc6bf4f2,Owner 3652,+91XXXXXXXXXX,,Delhi,IN,Seller,Generated
8eb1f0c0-a8dc-4e47-be96-a2efedfa6447,Owner 8181,+91XXXXXXXXXX,,New York,IN,Seller,Generated
200b3779-e952-45c3-a0dd-0618ded25204,Owner 826,+91XXXXXXXXXX,,Mumbai,IN,Seller,Generated
9b0be454-c603-4870-b1e2-525a6e343ead,Owner 9145,+91XXXXXXXXXX,,London,IN,Seller,Generated
6f8fcfd6-0335-4773-9174-ab538ddd9355,Owner 9067,+91XXXXXXXXXX,,Mumbai,IN,Seller,Generated
b49c4eeb-80c5-402f-90a4-43e175648a0f,Owner 8788,+91XXXXXXXXXX,,London,IN,Seller,Generated
edd0ccc2-4a4f-45ce-9401-426884ed13f0,Owner 7645,+91XXXXXXXXXX,,Delhi,IN,Seller,Generated
c313ffdf-5e5f-4720-84c7-d9ef365f2212,Owner 3805,+91XXXXXXXXXX,,Delhi,IN,Seller,Generated
42b4f81d-64aa-4741-8e58-0c5737dba875,Owner 3116,+91XXXXXXXXXX,,Delhi,IN,Seller,Generated
ab6452a3-aa81-4ec7-ab5a-eb5af10d7995,Owner 1845,+91XXXXXXXXXX,,London,IN,Seller,Generated
34e7722d-a3eb-47a7-a1f4-2101cfa08f1d,Owner 4220,+91XXXXXXXXXX,,London,IN,Seller,Generated
40a3765c-efa9-431b-aa98-944abca91822,Owner 7894,+91XXXXXXXXXX,,Mumbai,IN,Seller,Generated
d0e5f0b3-5613-4eba-86f3-078e2ea85c9a,Owner 6191,+91XXXXXXXXXX,,London,IN,Seller,Generated
b660b718-4ea9-46e3-9b1a-ebfa3490d882,Owner 1815,+91XXXXXXXXXX,,New York,IN,Seller,Generated
6fd5e3d9-e972-446b-a62f-c9415b31a080,Owner 8755,+91XXXXXXXXXX,,New York,IN,Seller,Generated
328d30ea-e8b4-4ac4-9ef8-49ea992c5265,Owner 5554,+91XXXXXXXXXX,,Delhi,IN,Seller,Generated
4f862fec-6ea3-4152-b49c-c42eec750999,Owner 4267,+91XXXXXXXXXX,,New York,IN,Seller,Generated
8a9dcece-e9a4-4598-864b-955b69dad543,Owner 752,+91XXXXXXXXXX,,London,IN,Seller,Generated
6ebdb34e-e7f1-4d17-bf99-992b642e2f62,Owner 2220,+91XXXXXXXXXX,,Mumbai,IN,Seller,Generated
1b1378c4-c8f3-40d5-ac8c-20b579f026df,Owner 6448,+91XXXXXXXXXX,,Delhi,IN,Seller,Generated
48d0199d-677e-4e84-8a05-dfa016917fe0,Owner 3784,+91XXXXXXXXXX,,Mumbai,IN,Seller,Generated
fbc06145-9a6b-4628-a273-2f13133c9702,Owner 8760,+91XXXXXXXXXX,,Delhi,IN,Seller,Generated
1c3df0ef-9e04-4f15-9eb2-e6b5562d780f,Owner 9048,+91XXXXXXXXXX,,New York,IN,Seller,Generated
f9878b40-1e2b-47af-a59b-6d447aca34cd,Owner 2817,+91XXXXXXXXXX,,New York,IN,Seller,Generated
68534f78-29e8-42c7-b2e1-0fdc851883e0,Owner 7683,+91XXXXXXXXXX,,Delhi,IN,Seller,Generated
66910c5b-65c9-405e-9265-b2a9f9155cf1,Owner 1570,+91XXXXXXXXXX,,New York,IN,Seller,Generated
3575a150-e8e9-4d03-a69c-be9eb8d5361e,Owner 9449,+91XXXXXXXXXX,,London,IN,Seller,Generated
9bd2c442-0840-4dad-b1d8-834886f4f967,Owner 7921,+91XXXXXXXXXX,,Delhi,IN,Seller,Generated
5c01f07c-1ba4-4884-93e1-0a63c64a162c,Owner 6075,+91XXXXXXXXXX,,London,IN,Seller,Generated
35566d6d-7fb3-4f97-aad1-58a0a0b9242c,Owner 6912,+91XXXXXXXXXX,,Mumbai,IN,Seller,Generated
881af8e3-979b-4415-bc2d-ab326e947912,Owner 8949,+91XXXXXXXXXX,,London,IN,Seller,Generated
a93eb257-e6df-4848-a1e2-a5d89477627e,Owner 113,+91XXXXXXXXXX,,London,IN,Seller,Generated
8608b8c3-b3d9-4c47-b44b-f20f6d352f11,Owner 8169,+91XXXXXXXXXX,,Mumbai,IN,Seller,Generated
fd1a438b-fac4-4418-834f-8191d104bb18,Owner 5543,+91XXXXXXXXXX,,New York,IN,Seller,Generated
c176962b-555f-47b8-b6bc-746ba5b9c909,Owner 5086,+91XXXXXXXXXX,,Mumbai,IN,Seller,Generated
d18893c4-b972-4457-9d92-3193d50936fe,Owner 7914,+91XXXXXXXXXX,,London,IN,Seller,Generated
2a24dcfb-b202-496c-a763-66fb5f591ee6,Owner 9056,+91XXXXXXXXXX,,Mumbai,IN,Seller,Generated
81706c12-6f7a-4cce-9e2b-f575389bab8b,Owner 5332,+91XXXXXXXXXX,,Delhi,IN,Seller,Generated
1741ce9b-23fe-48f9-a8fc-289071f4ad41,Owner 461,+91XXXXXXXXXX,,London,IN,Seller,Generated
ceb2e02b-3397-4bdc-a77e-299aac980431,Owner 9854,+91XXXXXXXXXX,,Mumbai,IN,Seller,Generated
88cc57d2-a021-41f5-b091-9f63914a896f,Owner 5446,+91XXXXXXXXXX,,New York,IN,Seller,Generated
21361ded-7e4f-4d6e-b30d-25f0cd42c83e,Owner 4733,+91XXXXXXXXXX,,Mumbai,IN,Seller,Generated
7263fab3-732a-4e73-9e6b-e239abe131d5,Owner 3644,+91XXXXXXXXXX,,London,IN,Seller,Generated
e21ae2ab-8d2b-47b3-a2d8-2a27c2e17812,Owner 6107,+91XXXXXXXXXX,,New York,IN,Seller,Generated
1df9a767-2210-493b-bae3-b8b185724ac8,Owner 2813,+91XXXXXXXXXX,,London,IN,Seller,Generated
894455aa-2cf9-442c-a3d0-62aab61fa009,Owner 7502,+91XXXXXXXXXX,,Mumbai,IN,Seller,Generated
d0e6a8ba-8115-4b50-bcdc-ff2b8e82f2f6,Owner 4148,+91XXXXXXXXXX,,Mumbai,IN,Seller,Generated
dc82cb5b-8b4e-4aab-9917-5470f395a9c6,Owner 8097,+91XXXXXXXXXX,,Delhi,IN,Seller,Generated
58af63c9-e09d-43ac-850e-da377213988e,Owner 2140,+91XXXXXXXXXX,,Mumbai,IN,Seller,Generated
dfe485ed-9cb9-4b80-8218-2d1b272bb180,Owner 7209,+91XXXXXXXXXX,,Mumbai,IN,Seller,Generated
bf813615-2366-4745-9450-bfe073eb26e9,Owner 4804,+91XXXXXXXXXX,,Mumbai,IN,Seller,Generated
7aa39b7d-bd82-4fdd-8421-364fd06fbf5e,Owner 4991,+91XXXXXXXXXX,,Delhi,IN,Seller,Generated
fdb31014-324c-4f3c-9fbb-3768a55b0d2c,Owner 1497,+91XXXXXXXXXX,,New York,IN,Seller,Generated
d203d042-3ba8-4cc3-b26d-84a33ec7c7e5,Owner 714,+91XXXXXXXXXX,,New York,IN,Seller,Generated
365affe0-7f8f-4215-ab52-e6be3b22a6dc,Owner 1742,+91XXXXXXXXXX,,New York,IN,Seller,Generated
85ad36d4-2c22-424b-930c-24dde00f67b3,Owner 4097,+91XXXXXXXXXX,,London,IN,Seller,Generated
e8264635-f15f-4bc5-b2af-68f6abc4890a,Owner 8567,+91XXXXXXXXXX,,London,IN,Seller,Generated
c44904e6-cb81-4632-b576-83e05af62293,Owner 4102,+91XXXXXXXXXX,,Mumbai,IN,Seller,Generated
e9f4a9fe-86dc-47c8-9503-82b1d871423a,Owner 7987,+91XXXXXXXXXX,,Mumbai,IN,Seller,Generated
afc184e4-fd19-4ecb-bb82-4430a6aa6978,Owner 9083,+91XXXXXXXXXX,,Mumbai,IN,Seller,Generated
91770577-5557-44b9-9618-5109e7c92837,Owner 6642,+91XXXXXXXXXX,,New York,IN,Seller,Generated
35816e06-16c6-4558-aa6c-c33f4f355a8e,Owner 6969,+91XXXXXXXXXX,,London,IN,Seller,Generated
2fe86563-2afe-4161-a2a8-979d55d2dee2,Owner 506,+91XXXXXXXXXX,,New York,IN,Seller,Generated
6d0e7b3a-3b03-4da4-8d21-bf375db05f19,Owner 2884,+91XXXXXXXXXX,,Delhi,IN,Seller,Generated
76515b47-f3e0-46a2-b4c2-05b8c7ca8dcc,Owner 2338,+91XXXXXXXXXX,,Mumbai,IN,Seller,Generated
89efe05d-3839-4032-b239-e1fe71f9502d,Owner 4498,+91XXXXXXXXXX,,Mumbai,IN,Seller,Generated
528bb511-d92f-475e-9ca9-6156f2128b6d,Owner 3945,+91XXXXXXXXXX,,New York,IN,Seller,Generated
29cb3288-a815-4c54-8d99-1abe5d2fd0ad,Owner 3506,+91XXXXXXXXXX,,Delhi,IN,Seller,Generated
50a7d493-4da7-468b-b77c-535dca1cbea8,Owner 7463,+91XXXXXXXXXX,,Delhi,IN,Seller,Generated
06a5101b-6b27-4197-9c1f-78162c3a5afc,Owner 9071,+91XXXXXXXXXX,,Delhi,IN,Seller,Generated
504b1694-2558-486f-824f-a85e7d401cd9,Owner 8756,+91XXXXXXXXXX,,Mumbai,IN,Seller,Generated
4789d691-b443-40a1-9f7b-2d99685d54a0,Owner 4412,+91XXXXXXXXXX,,London,IN,Seller,Generated
375ff4d6-890f-4a2d-bfab-3d06d482983f,Owner 7550,+91XXXXXXXXXX,,London,IN,Seller,Generated
c0003526-3304-4af7-9c1b-bec15f086040,Owner 6774,+91XXXXXXXXXX,,Delhi,IN,Seller,Generated
31de8904-00e7-4feb-8289-37c6d1ed4bde,Owner 6728,+91XXXXXXXXXX,,Delhi,IN,Seller,Generated
0bf6ceca-23e7-4e7a-9b2a-df22223f00e3,Owner 3307,+91XXXXXXXXXX,,Delhi,IN,Seller,Generated
4f67da69-d541-48b9-b1ed-223f53705033,Owner 2588,+91XXXXXXXXXX,,Mumbai,IN,Seller,Generated
c06064e5-65c2-4a05-a6b1-17a3cd02399d,Owner 2176,+91XXXXXXXXXX,,New York,IN,Seller,Generated
09431b84-75b4-4a3b-a562-407a16b95c4d,Owner 4863,+91XXXXXXXXXX,,London,IN,Seller,Generated
dfa0496d-6906-4729-a963-9d05cd6cc3cf,Owner 9111,+91XXXXXXXXXX,,Delhi,IN,Seller,Generated
01f25206-d47b-46e6-923e-52622fdf1f6b,Owner 9052,+91XXXXXXXXXX,,New York,IN,Seller,Generated
3234d588-4e24-42aa-8aed-e28af6b479ea,Owner 5904,+91XXXXXXXXXX,,New York,IN,Seller,Generated
d6c38a77-111b-42c6-a30b-211d8932ae95,Owner 2127,+91XXXXXXXXXX,,Delhi,IN,Seller,Generated
6c113ecc-d716-4a45-bbaa-dab680eae391,Owner 4667,+91XXXXXXXXXX,,New York,IN,Seller,Generated
31aefb5b-45d3-4f24-a584-815b399e5a1f,Owner 2189,+91XXXXXXXXXX,,Delhi,IN,Seller,Generated
478522f8-fb7b-4828-af8f-2bcb3f1d4ec5,Owner 9666,+91XXXXXXXXXX,,Delhi,IN,Seller,Generated
838eed75-2ea3-4d1a-9876-b417be631857,Owner 8422,+91XXXXXXXXXX,,Delhi,IN,Seller,Generated
cd551860-6cbb-4f5e-8578-d8a1658858f4,Owner 3847,+91XXXXXXXXXX,,Mumbai,IN,Seller,Generated
5d37f11a-727e-4702-b0a9-b6eb7cf5aa5a,Owner 5564,+91XXXXXXXXXX,,New York,IN,Seller,Generated
ed7c9fa5-d14c-4359-a92a-9c61fb8b49f1,Owner 9736,+91XXXXXXXXXX,,Delhi,IN,Seller,Generated
870d4f00-3c38-4068-84d5-b8699410ed2d,Owner 7321,+91XXXXXXXXXX,,Delhi,IN,Seller,Generated
d6204fae-2cbf-4699-b023-53de08c8a840,Owner 3951,+91XXXXXXXXXX,,New York,IN,Seller,Generated
33ae1645-5f8c-408c-a839-a26cfa40ed1f,Owner 6023,+91XXXXXXXXXX,,Delhi,IN,Seller,Generated
e33ebc0f-c549-44b4-af6a-1273434f21ab,Owner 2278,+91XXXXXXXXXX,,Delhi,IN,Seller,Generated
5b5576b4-2bb0-4a7d-96d7-ae6b29f13976,Owner 2354,+91XXXXXXXXXX,,London,IN,Seller,Generated
453d116f-0431-46cb-adc6-5e56231601b2,Owner 1179,+91XXXXXXXXXX,,London,IN,Seller,Generated
343b9dc9-8fdd-4771-a690-0c9c2f7e0460,Owner 2799,+91XXXXXXXXXX,,New York,IN,Seller,Generated
98ff03b1-bfb3-402b-8a83-b7523a7ba9d3,Owner 3166,+91XXXXXXXXXX,,Mumbai,IN,Seller,Generated
7310b55c-70c6-4b00-b01c-635ba2c5601b,Owner 1660,+91XXXXXXXXXX,,Delhi,IN,Seller,Generated
99ee13ee-8813-496a-9147-b0faf28d02c3,Owner 1979,+91XXXXXXXXXX,,New York,IN,Seller,Generated
296f8288-81d5-41f0-b516-a0390227b5bf,Owner 6427,+91XXXXXXXXXX,,Mumbai,IN,Seller,Generated
a5ef812d-7883-4858-9f17-402af0990bc6,Owner 1292,+91XXXXXXXXXX,,New York,IN,Seller,Generated
e07bab7a-b6ca-4918-a2e0-01050909953e,Owner 2878,+91XXXXXXXXXX,,Delhi,IN,Seller,Generated
9bbcb53a-5b54-44e0-be27-230c76336728,Owner 6707,+91XXXXXXXXXX,,New York,IN,Seller,Generated
0f1a9856-ab65-4567-bfe2-4980d6e9d006,Owner 9505,+91XXXXXXXXXX,,London,IN,Seller,Generated
5f220670-7f01-4005-abf0-7edfde908dc5,Owner 8488,+91XXXXXXXXXX,,Delhi,IN,Seller,Generated
0bf64cf6-5a5e-4aa1-9967-a94fae4a0861,Owner 9243,+91XXXXXXXXXX,,Mumbai,IN,Seller,Generated
74e1cc27-89e5-4858-9843-e35ef342ae2a,Owner 6437,+91XXXXXXXXXX,,Mumbai,IN,Seller,Generated
156b8947-c1f9-40cd-9dfb-a059a4dd0936,Owner 5589,+91XXXXXXXXXX,,New York,IN,Seller,Generated
125461ed-27ce-46a4-a0ae-a0806dc65587,Owner 7630,+91XXXXXXXXXX,,London,IN,Seller,Generated
53628849-f0e8-4bab-9f62-bc8b007cb54d,Owner 5745,+91XXXXXXXXXX,,Delhi,IN,Seller,Generated
9c083ed5-ff87-4f03-beff-7a1f6a055686,Owner 8293,+91XXXXXXXXXX,,New York,IN,Seller,Generated
d56bce6e-26a1-4861-900b-8c87d67ef74d,Owner 9613,+91XXXXXXXXXX,,Delhi,IN,Seller,Generated
ca5c8956-f91b-478c-a561-989044154388,Owner 9538,+91XXXXXXXXXX,,Mumbai,IN,Seller,Generated
22527b9d-cfc2-4294-b374-bb83b3499f47,Owner 3387,+91XXXXXXXXXX,,London,IN,Seller,Generated
d2093ad8-1eb8-4225-8794-15d8ec8a422a,Owner 4025,+91XXXXXXXXXX,,New York,IN,Seller,Generated
89625daf-7c50-4f0f-bd12-b26bf354b232,Owner 6081,+91XXXXXXXXXX,,New York,IN,Seller,Generated
f97b0bd5-7fef-4acb-a80f-1647fdb20305,Owner 3893,+91XXXXXXXXXX,,Mumbai,IN,Seller,Generated
2b812b5b-ccd8-44b1-9ce1-777c8fbb95cd,Owner 5708,+91XXXXXXXXXX,,Mumbai,IN,Seller,Generated
2a9613f3-3745-4bd3-a080-e5ceb4ad8655,Owner 5644,+91XXXXXXXXXX,,Delhi,IN,Seller,Generated
9adda911-8f65-421c-94a4-2a3125fa1689,Owner 227,+91XXXXXXXXXX,,Mumbai,IN,Seller,Generated
1bebbb72-006f-41ad-ab45-ea2f1f91adb7,Owner 8750,+91XXXXXXXXXX,,New York,IN,Seller,Generated
315ff3ac-002e-4031-920b-0536e9821b7e,Owner 4283,+91XXXXXXXXXX,,London,IN,Seller,Generated
87a5c18e-47b8-400e-9be7-3908d4d30679,Owner 656,+91XXXXXXXXXX,,Mumbai,IN,Seller,Generated
b34db756-22fa-4bf8-86a1-d6fc9b16091d,Owner 5570,+91XXXXXXXXXX,,New York,IN,Seller,Generated
a1773910-17f1-4741-b66c-d0ac507cb445,Owner 3544,+91XXXXXXXXXX,,Delhi,IN,Seller,Generated
cb7f7714-9fb2-44bf-9187-4a4ec60f6ed9,Owner 6124,+91XXXXXXXXXX,,Delhi,IN,Seller,Generated
7c45fb0d-a96f-4b39-a1b3-52b938134106,Owner 8525,+91XXXXXXXXXX,,New York,IN,Seller,Generated
1b95ff92-b2c4-435c-896b-ba3d916dfe84,Owner 5250,+91XXXXXXXXXX,,London,IN,Seller,Generated
a6f59c67-a533-48fb-8520-4a318eb1e384,Owner 5810,+91XXXXXXXXXX,,London,IN,Seller,Generated
91120422-72a5-4201-bb2d-32b2f4ac2be9,Owner 987,+91XXXXXXXXXX,,Delhi,IN,Seller,Generated
68273b4f-164a-4658-87df-e3a1600a9bb7,Owner 7855,+91XXXXXXXXXX,,New York,IN,Seller,Generated
3c215b9f-2449-4bc8-b407-6d670820b538,Owner 2546,+91XXXXXXXXXX,,Mumbai,IN,Seller,Generated
f55c0da8-54ab-4c4e-9f07-e429c17842d3,Owner 5593,+91XXXXXXXXXX,,Delhi,IN,Seller,Generated
e16b799e-fc07-412d-9c17-7bb4fbc1cdfa,Owner 3368,+91XXXXXXXXXX,,Mumbai,IN,Seller,Generated
9651c5b3-f5e6-4e2f-a600-05054bb80c09,Owner 7230,+91XXXXXXXXXX,,London,IN,Seller,Generated
f90f9f7d-aa32-440c-8d6e-8c6337f32698,Owner 7550,+91XXXXXXXXXX,,London,IN,Seller,Generated
f432f2b7-55b3-4f65-9c38-c2c91983e1c9,Owner 7191,+91XXXXXXXXXX,,London,IN,Seller,Generated
0310003a-37cb-407f-8394-e2eea134774d,Owner 6886,+91XXXXXXXXXX,,Delhi,IN,Seller,Generated
6c1ef060-7aa8-443d-ae38-da9974fe357f,Owner 2334,+91XXXXXXXXXX,,Mumbai,IN,Seller,Generated
634e24be-2d63-476f-abac-3eeadc4531db,Owner 964,+91XXXXXXXXXX,,New York,IN,Seller,Generated
49fc546d-2f1e-4bcd-82d3-e10935f178ba,Owner 2368,+91XXXXXXXXXX,,Mumbai,IN,Seller,Generated
d53635c0-0257-4098-a33f-a091d6ed6210,Owner 5647,+91XXXXXXXXXX,,London,IN,Seller,Generated
2e329806-ed5a-46a5-a520-2ca05b9a5864,Owner 2859,+91XXXXXXXXXX,,Delhi,IN,Seller,Generated
b4029096-0e19-4ee9-99f9-41b5bf2d5233,Owner 3410,+91XXXXXXXXXX,,London,IN,Seller,Generated
6e1aa06d-1ea8-4ed6-9cfd-b062a84c49a0,Owner 6407,+91XXXXXXXXXX,,New York,IN,Seller,Generated
ce1b47a3-81d5-4cba-9acb-8ac7a892c636,Owner 9235,+91XXXXXXXXXX,,New York,IN,Seller,Generated
b36f7f7d-6a2d-4645-adc5-2f3cc219169c,Owner 1618,+91XXXXXXXXXX,,London,IN,Seller,Generated
dbfcbb8e-a827-49e2-8e3c-a8a90b3b2976,Owner 709,+91XXXXXXXXXX,,London,IN,Seller,Generated
2dd0f7df-ffa8-4001-9d1f-e3034f6c5c6d,Owner 8759,+91XXXXXXXXXX,,New York,IN,Seller,Generated
dc6fd7e8-04c4-4195-989c-e1d3511d4e40,Owner 7452,+91XXXXXXXXXX,,Mumbai,IN,Seller,Generated
b69cef8e-8370-4e28-b4ac-0a9af41b8990,Owner 1861,+91XXXXXXXXXX,,New York,IN,Seller,Generated
1c98b64b-8785-4384-bb4e-a8c7382f4d50,Owner 5288,+91XXXXXXXXXX,,Delhi,IN,Seller,Generated
577ec720-d0b7-4c5a-905b-61b9d9c5249e,Owner 9924,+91XXXXXXXXXX,,Mumbai,IN,Seller,Generated
bcad7a48-624f-4d94-a12d-be1f201f64de,Owner 7863,+91XXXXXXXXXX,,London,IN,Seller,Generated
aa51ee42-cbe3-41a8-9d2b-d987539cf67d,Owner 9805,+91XXXXXXXXXX,,New York,IN,Seller,Generated
a45a0d47-5bef-4014-88ce-d49141f301a6,Owner 9239,+91XXXXXXXXXX,,New York,IN,Seller,Generated
deceb731-f8d6-49f6-9b91-5d9fd6483754,Owner 6124,+91XXXXXXXXXX,,Mumbai,IN,Seller,Generated
6f4073e8-31cc-4b2e-9b8f-aea690118b16,Owner 5454,+91XXXXXXXXXX,,London,IN,Seller,Generated
4ec3680c-cb17-4218-9ea4-13d8eb1885d4,Owner 7657,+91XXXXXXXXXX,,London,IN,Seller,Generated
1a3f6274-93d4-44e0-bfed-a24bc9677dd5,Owner 5701,+91XXXXXXXXXX,,New York,IN,Seller,Generated
656aea16-cfb7-4478-996f-91fee8a0543d,Owner 2209,+91XXXXXXXXXX,,London,IN,Seller,Generated
b9737960-2e4f-488a-a93d-640df3ea0ac3,Owner 9388,+91XXXXXXXXXX,,Mumbai,IN,Seller,Generated
5969d02e-de9a-4e6f-ac52-f72a3576413c,Owner 5016,+91XXXXXXXXXX,,New York,IN,Seller,Generated
dd0a3ddb-1d41-4f7d-b5e4-590304bd95ad,Owner 2247,+91XXXXXXXXXX,,Mumbai,IN,Seller,Generated
b0fd08b1-b2a5-4235-8ff1-4207607fb21b,Owner 5825,+91XXXXXXXXXX,,London,IN,Seller,Generated
aff3e195-4015-4143-bc8f-7746404a6770,Owner 4858,+91XXXXXXXXXX,,Delhi,IN,Seller,Generated
092e4cc4-49f9-48e1-b173-0f91144a73ad,Owner 8316,+91XXXXXXXXXX,,Mumbai,IN,Seller,Generated
ccab1238-a4ba-41f7-b484-1db76a3f4d1c,Owner 6600,+91XXXXXXXXXX,,Mumbai,IN,Seller,Generated
a585283e-492d-4772-bb68-61309560620b,Owner 3980,+91XXXXXXXXXX,,Delhi,IN,Seller,Generated
c4517512-a851-4b6d-820f-f4d862648cb9,Owner 4300,+91XXXXXXXXXX,,New York,IN,Seller,Generated
f8ceed83-00d1-4e76-b2ed-d5d3737a8c9b,Owner 7415,+91XXXXXXXXXX,,New York,IN,Seller,Generated
2cd3ef01-2743-4ab3-98f3-4e349385c26c,Owner 646,+91XXXXXXXXXX,,Delhi,IN,Seller,Generated
62231be1-9afa-466b-a2ac-6be800cd61c9,Owner 1761,+91XXXXXXXXXX,,Mumbai,IN,Seller,Generated
57b50c87-167d-4054-ac25-3c388c690b36,Owner 9603,+91XXXXXXXXXX,,Delhi,IN,Seller,Generated
45e43017-cd65-4f2f-9b8d-98242e8020e1,Owner 3958,+91XXXXXXXXXX,,Mumbai,IN,Seller,Generated
f4af905e-15a9-474c-87c8-6e4d006c40c5,Owner 6258,+91XXXXXXXXXX,,New York,IN,Seller,Generated
2adc4d99-84d3-4c17-a8d7-e82f569d8126,Owner 2930,+91XXXXXXXXXX,,Delhi,IN,Seller,Generated
ec97ce8b-157f-4421-9cd6-6cf36a6d23b0,Owner 8059,+91XXXXXXXXXX,,Mumbai,IN,Seller,Generated
4d509b77-a954-4a64-bece-2a5f6e9d0637,Owner 6910,+91XXXXXXXXXX,,New York,IN,Seller,Generated
33d1d774-87c0-4d0a-85cb-3f4c5779ceab,Owner 4711,+91XXXXXXXXXX,,New York,IN,Seller,Generated
6a402e87-1ba3-40ae-b380-b5b31b78a9b1,Owner 247,+91XXXXXXXXXX,,London,IN,Seller,Generated
913e0423-fa7d-40d0-a327-9675e7b70a8a,Owner 9176,+91XXXXXXXXXX,,Mumbai,IN,Seller,Generated
37b8c07a-6295-4150-a93f-356b408d94d4,Owner 2665,+91XXXXXXXXXX,,London,IN,Seller,Generated
0b90a948-9a7e-4888-b124-173383310ec3,Owner 4333,+91XXXXXXXXXX,,New York,IN,Seller,Generated
579d11d8-5ef2-437b-9c80-007c92cab823,Owner 8624,+91XXXXXXXXXX,,Mumbai,IN,Seller,Generated
b04a16aa-5c8d-4318-a892-8e3f30a70da6,Owner 6718,+91XXXXXXXXXX,,New York,IN,Seller,Generated
1d190a8f-e159-4a35-b445-846d2f814e95,Owner 8616,+91XXXXXXXXXX,,London,IN,Seller,Generated
506987b7-cc7f-48ad-8432-5eb9d03b21ae,Owner 2694,+91XXXXXXXXXX,,Delhi,IN,Seller,Generated
6a1700df-57c1-4546-83d3-c543a45054b3,Owner 2187,+91XXXXXXXXXX,,New York,IN,Seller,Generated
efbd37fe-9c7f-4fd2-a1ae-7201cf00c719,Owner 506,+91XXXXXXXXXX,,London,IN,Seller,Generated
9eadd084-9f64-4133-82cc-d5b06387a2ce,Owner 4418,+91XXXXXXXXXX,,Mumbai,IN,Seller,Generated
1fc98cc5-6bda-42bd-b209-dce8d74582bb,Owner 1885,+91XXXXXXXXXX,,London,IN,Seller,Generated
79d7b499-604c-4b04-a623-8369a0458d5c,Owner 5764,+91XXXXXXXXXX,,London,IN,Seller,Generated
1e807b35-7ed3-4c06-a19e-be387a08b3e1,Owner 814,+91XXXXXXXXXX,,New York,IN,Seller,Generated
4c5f5cad-c05c-46da-ad5f-e73cba77056d,Owner 1748,+91XXXXXXXXXX,,New York,IN,Seller,Generated
387665f0-ee05-4567-bac7-db17c64739ca,Owner 6813,+91XXXXXXXXXX,,Delhi,IN,Seller,Generated
bd849ac4-430c-4819-a860-06168900fd67,Owner 7719,+91XXXXXXXXXX,,New York,IN,Seller,Generated
7663a643-ed75-4a14-ad4c-b54e206d5d5b,Owner 6088,+91XXXXXXXXXX,,London,IN,Seller,Generated
de141e29-8326-4ef0-991f-5392e06d1f5b,Owner 6961,+91XXXXXXXXXX,,London,IN,Seller,Generated
a74bafdd-fef7-40ca-b7a9-047d55895a37,Owner 295,+91XXXXXXXXXX,,Delhi,IN,Seller,Generated
1fe15f2d-262e-4e1b-be38-e996887af3d9,Owner 6991,+91XXXXXXXXXX,,New York,IN,Seller,Generated
57fc1ca3-ad7d-43c7-a4e8-8bd7ac96ce1e,Owner 795,+91XXXXXXXXXX,,London,IN,Seller,Generated
26a82d8c-dd8c-44df-87bd-db1920f42fc0,Owner 4842,+91XXXXXXXXXX,,Mumbai,IN,Seller,Generated
8ad86f68-fd4d-44ae-8ad4-3bbddfb2bde8,Owner 2191,+91XXXXXXXXXX,,Mumbai,IN,Seller,Generated
dbc3c23e-4023-45d0-9980-590aeb37230b,Owner 9839,+91XXXXXXXXXX,,London,IN,Seller,Generated
fd527d87-9177-4dbd-ae82-e3c3d4560c26,Owner 4908,+91XXXXXXXXXX,,Delhi,IN,Seller,Generated
c866ecbb-6db1-4b5b-9a45-45f21ebb9605,Owner 8899,+91XXXXXXXXXX,,Delhi,IN,Seller,Generated
315955bf-9b5a-4f52-b4f0-2a864b8f1c53,Owner 4375,+91XXXXXXXXXX,,New York,IN,Seller,Generated
115f4bc4-deef-4bfb-aa38-e62fc2034bfa,Owner 7763,+91XXXXXXXXXX,,Mumbai,IN,Seller,Generated
e48461fa-5b8e-40eb-84b9-6435e53ff47d,Owner 4660,+91XXXXXXXXXX,,London,IN,Seller,Generated
f2e32e73-fb60-422e-8577-67822ac85ef4,Owner 4832,+91XXXXXXXXXX,,London,IN,Seller,Generated
12b2bbc2-7f0e-4551-ba3d-8a5b8ba2b252,Owner 8936,+91XXXXXXXXXX,,Delhi,IN,Seller,Generated
8ab417d3-c184-4fe9-8dbc-8f43029eef04,Owner 8541,+91XXXXXXXXXX,,London,IN,Seller,Generated
c39d6e4b-6299-4357-b13b-ed7ef93522e4,Owner 7150,+91XXXXXXXXXX,,Delhi,IN,Seller,Generated
94c6fa2d-4da0-496a-b355-53d7fb9bccdd,Owner 8981,+91XXXXXXXXXX,,Delhi,IN,Seller,Generated
ac46f2eb-8c12-4b26-84ad-5365b2f5126a,Owner 3315,+91XXXXXXXXXX,,Mumbai,IN,Seller,Generated
6dce01ed-fecd-463e-b268-c733bc39e495,Owner 5681,+91XXXXXXXXXX,,Mumbai,IN,Seller,Generated
5fe11b3b-79ef-4256-a470-43bde3cecc59,Owner 9501,+91XXXXXXXXXX,,Mumbai,IN,Seller,Generated
072b61ed-b20f-4585-af5f-e1acc1a2fa40,Owner 1908,+91XXXXXXXXXX,,Mumbai,IN,Seller,Generated
fdfdcc13-5100-4c70-bfeb-c1d8c7614a4d,Owner 5895,+91XXXXXXXXXX,,London,IN,Seller,Generated
47223335-95ba-4cc9-bf51-f033f2ce729f,Owner 5996,+91XXXXXXXXXX,,New York,IN,Seller,Generated
39a7f315-6649-494a-ac06-a9202f386c43,Owner 4164,+91XXXXXXXXXX,,London,IN,Seller,Generated
516b6682-7309-45cb-840c-f143274e5f28,Owner 2397,+91XXXXXXXXXX,,New York,IN,Seller,Generated
19e996ed-a77e-47af-bf34-e5129ced5f02,Owner 9797,+91XXXXXXXXXX,,Delhi,IN,Seller,Generated
3779ba35-9283-4ea1-b156-961dbf59512a,Owner 3099,+91XXXXXXXXXX,,London,IN,Seller,Generated
fa96cff1-899e-4ff7-9c84-4c824de40aad,Owner 480,+91XXXXXXXXXX,,Delhi,IN,Seller,Generated
2a0f09ad-f984-4065-9091-8a46973f29a7,Owner 9833,+91XXXXXXXXXX,,New York,IN,Seller,Generated
c0a8a332-bc01-4b2e-9b21-86f541328212,Owner 7103,+91XXXXXXXXXX,,Delhi,IN,Seller,Generated
b21325d4-6ab7-4cc0-bbca-e304c0b715b0,Owner 5646,+91XXXXXXXXXX,,Delhi,IN,Seller,Generated
2bda2307-c39c-46dd-9c5a-b2b092189d76,Owner 3523,+91XXXXXXXXXX,,Mumbai,IN,Seller,Generated
79727be7-15bf-42f3-98b1-504dc886188b,Owner 1948,+91XXXXXXXXXX,,Delhi,IN,Seller,Generated
1f92eda5-65eb-4430-83c8-5758ef7820e0,Owner 5983,+91XXXXXXXXXX,,Delhi,IN,Seller,Generated
b2607820-d529-4d6d-8ddc-bc2e80072933,Owner 3323,+91XXXXXXXXXX,,London,IN,Seller,Generated
1d3a2d7f-df31-4a5f-9f53-4774256d4339,Owner 9167,+91XXXXXXXXXX,,Mumbai,IN,Seller,Generated
f7f9f339-dd1c-44df-b331-76fed23506ef,Owner 4377,+91XXXXXXXXXX,,London,IN,Seller,Generated
9d2f2634-e3df-4c34-b859-32c6e2eb6fbe,Owner 3658,+91XXXXXXXXXX,,New York,IN,Seller,Generated
3a623f66-e25c-485e-a4fe-33fa2db46321,Owner 3374,+91XXXXXXXXXX,,Delhi,IN,Seller,Generated
b0752581-b5e3-4da2-9d75-3277a71a8c4a,Owner 6474,+91XXXXXXXXXX,,Delhi,IN,Seller,Generated
125ba0a1-fbed-48e8-87bf-1573fd9fc8d7,Owner 2081,+91XXXXXXXXXX,,Delhi,IN,Seller,Generated
a1aaa764-999b-40c9-b57c-884f7ac75e4d,Owner 1415,+91XXXXXXXXXX,,New York,IN,Seller,Generated
f3f61d21-e681-4e2b-b29a-fe7be6154bf4,Owner 8938,+91XXXXXXXXXX,,Delhi,IN,Seller,Generated
f3d2ac42-7799-453d-8ccf-0a403a1f78d8,Owner 7689,+91XXXXXXXXXX,,London,IN,Seller,Generated
761f2a74-1b5b-4970-8da0-7b697d0af2f8,Owner 1861,+91XXXXXXXXXX,,London,IN,Seller,Generated
38ea33d6-920c-4300-9ef5-a47229e68e2f,Owner 6364,+91XXXXXXXXXX,,Mumbai,IN,Seller,Generated
cdbdab4a-4d73-4198-b359-af88a93dca68,Owner 9340,+91XXXXXXXXXX,,Delhi,IN,Seller,Generated
7bd06582-d959-4015-a8c7-a96440005134,Owner 4585,+91XXXXXXXXXX,,New York,IN,Seller,Generated
423093ec-f670-4d71-a192-3e223ce2ffa0,Owner 5423,+91XXXXXXXXXX,,Delhi,IN,Seller,Generated
97072a63-ea51-4513-90fb-dae62d086427,Owner 9095,+91XXXXXXXXXX,,Delhi,IN,Seller,Generated
92d0dd80-b49f-4d64-b880-c05e5d58f3d7,Owner 5482,+91XXXXXXXXXX,,London,IN,Seller,Generated
aa615fd4-b1ef-4965-a708-bd08947d08ba,Owner 4785,+91XXXXXXXXXX,,New York,IN,Seller,Generated
d21e010c-dac7-4265-a264-84db1d40e3a6,Owner 7229,+91XXXXXXXXXX,,Delhi,IN,Seller,Generated
e5c7c2f4-ea3e-4f2f-ac22-bcb675812b0a,Owner 5522,+91XXXXXXXXXX,,New York,IN,Seller,Generated
82aed704-df2f-453c-816f-0c9c51bd739a,Owner 6055,+91XXXXXXXXXX,,Delhi,IN,Seller,Generated
46b8b9d6-ee8f-481f-8b2e-3171f1680d10,Owner 77,+91XXXXXXXXXX,,Delhi,IN,Seller,Generated
f534aa86-4b80-46dd-b84c-f5628e805dac,Owner 6116,+91XXXXXXXXXX,,London,IN,Seller,Generated
d0a85c2e-5123-4c19-a853-f0581c56b7cb,Owner 4908,+91XXXXXXXXXX,,Mumbai,IN,Seller,Generated
d0188dfe-cfeb-4efc-b749-771aaa2d8477,Owner 5237,+91XXXXXXXXXX,,Delhi,IN,Seller,Generated
91f5110f-14c1-4057-a1a4-59d6410b1af4,Owner 4795,+91XXXXXXXXXX,,Delhi,IN,Seller,Generated
dc82cf07-6297-4fcc-918b-4b8e480b8332,Owner 6974,+91XXXXXXXXXX,,Mumbai,IN,Seller,Generated
61eee5d9-75dd-43a4-8afa-2cc15c346d37,Owner 122,+91XXXXXXXXXX,,London,IN,Seller,Generated
9ec91b57-4179-4e5d-b533-e10194fafdaf,Owner 841,+91XXXXXXXXXX,,Mumbai,IN,Seller,Generated
397d04cc-aa0f-4ad3-83e1-9730e6b58925,Owner 105,+91XXXXXXXXXX,,New York,IN,Seller,Generated
24660a3f-e311-4099-b548-20785866763c,Owner 5452,+91XXXXXXXXXX,,Delhi,IN,Seller,Generated
3afc54b2-ae04-47b6-8204-92b6cc0583e7,Owner 1978,+91XXXXXXXXXX,,Delhi,IN,Seller,Generated
1d5c5831-6c55-414e-a05d-488177e25aea,Owner 2582,+91XXXXXXXXXX,,New York,IN,Seller,Generated
35d08f77-bd21-49c9-8bd1-5f0e37f26ab9,Owner 8520,+91XXXXXXXXXX,,Mumbai,IN,Seller,Generated
1d8bf33c-d7bf-4d9c-99a1-51e933af5234,Owner 1692,+91XXXXXXXXXX,,Delhi,IN,Seller,Generated
835f8465-3c84-405a-8b39-dc64be87eea4,Owner 3994,+91XXXXXXXXXX,,Delhi,IN,Seller,Generated
5134db45-2eb1-4df3-950b-68c7eb80879d,Owner 1685,+91XXXXXXXXXX,,London,IN,Seller,Generated
b855eeea-6f02-4a16-8ca7-107eb68925ed,Owner 2860,+91XXXXXXXXXX,,Mumbai,IN,Seller,Generated
9504c360-6794-4f99-9e88-cf94ba82733a,Owner 9769,+91XXXXXXXXXX,,Mumbai,IN,Seller,Generated
a88562ee-76cd-4e6d-9369-7e9dd1dba948,Owner 220,+91XXXXXXXXXX,,London,IN,Seller,Generated
9e2127a8-6eb8-42ea-989d-09edb7d374c1,Owner 7532,+91XXXXXXXXXX,,Delhi,IN,Seller,Generated
6f230bc6-4d33-4b37-a781-b6ca64a60d84,Owner 7551,+91XXXXXXXXXX,,Delhi,IN,Seller,Generated
656d7855-47fd-406a-81b3-8822648eb68b,Owner 9087,+91XXXXXXXXXX,,New York,IN,Seller,Generated
3aeb78a9-69a1-440f-be72-ebe09ba91b6f,Owner 7724,+91XXXXXXXXXX,,Mumbai,IN,Seller,Generated
e5c4f5ff-403b-417d-bdbb-9a1de2f67e66,Owner 1738,+91XXXXXXXXXX,,London,IN,Seller,Generated
2e9946f6-c4c8-4290-a5c8-316451901f5f,Owner 7061,+91XXXXXXXXXX,,New York,IN,Seller,Generated
561cf44e-3392-4915-8d0e-e5396f325a3f,Owner 5789,+91XXXXXXXXXX,,New York,IN,Seller,Generated
5e4acd03-9cf8-4a30-bdde-0099b59207b3,Owner 4700,+91XXXXXXXXXX,,New York,IN,Seller,Generated
0b540488-2ecc-468a-b176-98775aa44fdc,Owner 4098,+91XXXXXXXXXX,,Delhi,IN,Seller,Generated
1ce1e212-dfc1-49c4-90e0-b81431200c1f,Owner 5640,+91XXXXXXXXXX,,London,IN,Seller,Generated
a524d0d3-74c2-41a5-b980-beb8239cfa55,Owner 6182,+91XXXXXXXXXX,,New York,IN,Seller,Generated
915d0262-3b2f-4973-90c7-8e3c6e1ff6c6,Owner 2696,+91XXXXXXXXXX,,Delhi,IN,Seller,Generated
36305034-b9d7-430f-af54-30e82339d73c,Owner 1058,+91XXXXXXXXXX,,Mumbai,IN,Seller,Generated
71e55bb5-93fd-481a-8cb1-59244242e66a,Owner 8165,+91XXXXXXXXXX,,London,IN,Seller,Generated
2761328a-19a3-4253-9db9-f74413f9971d,Owner 8163,+91XXXXXXXXXX,,Delhi,IN,Seller,Generated
1b77de01-4f1d-4092-9491-48c56d907574,Owner 3464,+91XXXXXXXXXX,,New York,IN,Seller,Generated
7b653fc9-b015-40a1-967e-b4d72de1c1ff,Owner 9594,+91XXXXXXXXXX,,Delhi,IN,Seller,Generated
de85aa1c-1163-4831-877b-5b6decc2d11f,Owner 2901,+91XXXXXXXXXX,,London,IN,Seller,Generated
28fc4459-3bab-464e-ad07-e20feb59bb68,Owner 3891,+91XXXXXXXXXX,,New York,IN,Seller,Generated
e8c2c74d-2b58-46a5-be0f-b0700ce101b3,Owner 5975,+91XXXXXXXXXX,,London,IN,Seller,Generated
290e5b6a-da9c-4c7a-bf40-e074e8de6696,Owner 6784,+91XXXXXXXXXX,,Delhi,IN,Seller,Generated
f8f9acf5-2550-47f7-94a7-73b88ef610eb,Owner 7160,+91XXXXXXXXXX,,New York,IN,Seller,Generated
533e9782-fb3c-4d85-9d2d-188031e1a04d,Owner 3229,+91XXXXXXXXXX,,Delhi,IN,Seller,Generated
87b426ce-ffe8-4cf9-82de-cd348817e729,Owner 1,+91XXXXXXXXXX,,Mumbai,IN,Seller,Generated
085b73ae-007b-4f80-896e-0c38beae2867,Owner 2589,+91XXXXXXXXXX,,Mumbai,IN,Seller,Generated
0645f28d-5307-4f9d-a024-38412b80868b,Owner 6553,+91XXXXXXXXXX,,Mumbai,IN,Seller,Generated
5a2575c8-2301-4dbf-b7a6-cbe3ebed5c64,Owner 5165,+91XXXXXXXXXX,,Mumbai,IN,Seller,Generated
097269b7-b72b-413a-8c9e-9f2c81506942,Owner 1212,+91XXXXXXXXXX,,New York,IN,Seller,Generated
39390db4-f018-4356-8ea1-948ce64d51fc,Owner 5180,+91XXXXXXXXXX,,Mumbai,IN,Seller,Generated
eed055d9-f23e-4171-80c3-ecb8c379e86a,Owner 5868,+91XXXXXXXXXX,,Mumbai,IN,Seller,Generated
bd79b27b-eb93-4149-8149-837aa7ea153f,Owner 809,+91XXXXXXXXXX,,London,IN,Seller,Generated
3d8bbcfa-6caa-4292-9264-93a65f93ee87,Owner 2177,+91XXXXXXXXXX,,Delhi,IN,Seller,Generated
945ce6fb-5756-4f95-9000-a7ae37cde2fd,Owner 3284,+91XXXXXXXXXX,,Delhi,IN,Seller,Generated
cc393bd2-3023-43e1-9e8c-bc5e5c9d4d4a,Owner 5482,+91XXXXXXXXXX,,London,IN,Seller,Generated
c5a59b96-5607-4c6b-b880-88c4052ff012,Owner 2845,+91XXXXXXXXXX,,New York,IN,Seller,Generated
128a1640-10b2-441a-95ad-42f3c9fe7eb6,Owner 1894,+91XXXXXXXXXX,,Delhi,IN,Seller,Generated
c3706fa8-8143-4494-a394-c5a7ed1ea5cc,Owner 8359,+91XXXXXXXXXX,,London,IN,Seller,Generated
15f11932-04f6-4aa8-aef1-6c8103b720b3,Owner 1772,+91XXXXXXXXXX,,Mumbai,IN,Seller,Generated
5a904879-4549-4423-8ee5-054a67acd407,Owner 2771,+91XXXXXXXXXX,,London,IN,Seller,Generated
b0163154-d9bf-41ec-9da3-bb8aaf19eb73,Owner 2408,+91XXXXXXXXXX,,Delhi,IN,Seller,Generated
bdd5e194-f12a-4ab5-9240-c22d9f8654b7,Owner 3783,+91XXXXXXXXXX,,Mumbai,IN,Seller,Generated
90c0d5b4-556e-4389-838d-37a9be27ea0c,Owner 4431,+91XXXXXXXXXX,,Delhi,IN,Seller,Generated
e2938488-5ee3-45c2-94c0-d54986f2a546,Owner 2385,+91XXXXXXXXXX,,Delhi,IN,Seller,Generated
1c180e5f-4a1c-4ef4-8178-6410c48ac2db,Owner 9367,+91XXXXXXXXXX,,Mumbai,IN,Seller,Generated
ff938f64-e1c0-4da0-9bd4-9a03f131183a,Owner 886,+91XXXXXXXXXX,,London,IN,Seller,Generated
1279ee1e-b571-48aa-ad4d-a56127b89c4a,Owner 2977,+91XXXXXXXXXX,,Delhi,IN,Seller,Generated
5802c8cf-d09a-4667-97c1-b27b1f2ee63d,Owner 2395,+91XXXXXXXXXX,,London,IN,Seller,Generated
dc83bbd3-5cca-4984-9d38-e3e202135f00,Owner 3711,+91XXXXXXXXXX,,New York,IN,Seller,Generated
b2fe69d1-9998-4899-8b7a-1a6d87c08415,Owner 5523,+91XXXXXXXXXX,,Mumbai,IN,Seller,Generated
8aea51c2-c030-4b2d-a019-e00ba64098a2,Owner 7659,+91XXXXXXXXXX,,Mumbai,IN,Seller,Generated
c713f5d9-aaa7-4dd7-a2f4-d13904a1cf01,Owner 4636,+91XXXXXXXXXX,,Mumbai,IN,Seller,Generated
b9103247-ae95-4d32-b585-1d9b3e82048c,Owner 9199,+91XXXXXXXXXX,,New York,IN,Seller,Generated
9ed3739f-f8a8-4114-8442-c26757c6951c,Owner 4874,+91XXXXXXXXXX,,London,IN,Seller,Generated
a2708b3e-80ff-4261-bf09-a4d39553e191,Owner 9068,+91XXXXXXXXXX,,Delhi,IN,Seller,Generated
7f68393a-f03d-4632-aedc-7afb32dba181,Owner 4618,+91XXXXXXXXXX,,New York,IN,Seller,Generated
d879b7cf-6b7e-4d43-b1ed-7608e1da1817,Owner 1726,+91XXXXXXXXXX,,Mumbai,IN,Seller,Generated
891218db-ed7a-4ce5-8f8d-98b378c0de1b,Owner 3175,+91XXXXXXXXXX,,London,IN,Seller,Generated
bc8a528f-862c-4923-92bd-ce2d8700df82,Owner 7816,+91XXXXXXXXXX,,Mumbai,IN,Seller,Generated
9c37742a-d3b5-4dde-b0d8-6a9bdc3ab955,Owner 3173,+91XXXXXXXXXX,,Delhi,IN,Seller,Generated
1cf526c8-05b2-43ab-a27f-eb4802a66e36,Owner 2938,+91XXXXXXXXXX,,Delhi,IN,Seller,Generated
275eab18-dda9-4d60-b2e0-d78016415a89,Owner 567,+91XXXXXXXXXX,,London,IN,Seller,Generated
186938cf-b4db-4334-abb2-b116115dac13,Owner 9675,+91XXXXXXXXXX,,London,IN,Seller,Generated
59457f48-1b88-4955-ba3d-0a6ac9363f76,Owner 6808,+91XXXXXXXXXX,,London,IN,Seller,Generated
51c83206-f808-4f1b-8ee3-967dfe6070c2,Owner 7986,+91XXXXXXXXXX,,New York,IN,Seller,Generated
0328b273-e376-4a4f-b446-bc49397e27d6,Owner 4666,+91XXXXXXXXXX,,London,IN,Seller,Generated
d137c503-c04a-4edf-a450-d4ac3df9db6a,Owner 1384,+91XXXXXXXXXX,,Mumbai,IN,Seller,Generated
7240b580-6701-4807-9071-2470050c3506,Owner 7557,+91XXXXXXXXXX,,London,IN,Seller,Generated
d727048c-78b5-4590-b67c-ca78b44db0ac,Owner 9453,+91XXXXXXXXXX,,Delhi,IN,Seller,Generated
38b5d158-7d13-40da-948b-2d121d37ec89,Owner 7239,+91XXXXXXXXXX,,New York,IN,Seller,Generated
0ccd5865-af1c-4db4-9ced-85f7e60d6e20,Owner 3600,+91XXXXXXXXXX,,New York,IN,Seller,Generated
f629efcf-b8f9-4e8b-9bae-bc9c39ccd37c,Owner 7499,+91XXXXXXXXXX,,Mumbai,IN,Seller,Generated
2842f851-f88a-42bc-ac20-e35a90c8cc69,Owner 627,+91XXXXXXXXXX,,New York,IN,Seller,Generated
1bc28ab1-e789-4cd5-8045-c3844fe96b0a,Owner 9841,+91XXXXXXXXXX,,New York,IN,Seller,Generated
ea004251-1e47-45c9-847b-43b500cb125e,Owner 4999,+91XXXXXXXXXX,,London,IN,Seller,Generated
d3a09235-bd43-4b82-ad06-d927f22feccf,Owner 6098,+91XXXXXXXXXX,,New York,IN,Seller,Generated
917176da-8a41-43f4-aad4-1ed507e55cc2,Owner 3045,+91XXXXXXXXXX,,Mumbai,IN,Seller,Generated
081587fe-a434-4ae8-b2e1-d0d35e02f062,Owner 6526,+91XXXXXXXXXX,,Delhi,IN,Seller,Generated
331c2afd-5aec-416b-8858-0dbbd0af9433,Owner 8785,+91XXXXXXXXXX,,Delhi,IN,Seller,Generated
be90a3d9-99a2-47ee-9563-8c456cb7dfc8,Owner 2165,+91XXXXXXXXXX,,New York,IN,Seller,Generated
6f2a5c31-df58-4f21-bf4f-aa7a7fe033f8,Owner 1693,+91XXXXXXXXXX,,Mumbai,IN,Seller,Generated
9f928c0e-7eaf-4cf9-92cc-8f2598e950b2,Owner 7324,+91XXXXXXXXXX,,London,IN,Seller,Generated
5fc3972f-4874-44d2-8bf3-a0b0c5621432,Owner 4803,+91XXXXXXXXXX,,London,IN,Seller,Generated
8db9b5de-b4f2-4436-b9a0-fa9984964b20,Owner 2463,+91XXXXXXXXXX,,New York,IN,Seller,Generated
3adac39f-08bc-48c9-9d0e-1f06ccc65f78,Owner 2249,+91XXXXXXXXXX,,New York,IN,Seller,Generated
97447e53-1f68-42a5-a278-9e2a7def079f,Owner 1428,+91XXXXXXXXXX,,Delhi,IN,Seller,Generated
eedfb2fe-b5c4-4810-9c13-28303e1195a0,Owner 5626,+91XXXXXXXXXX,,London,IN,Seller,Generated
f5c88469-71ac-4c90-9bc7-d29c94ff5490,Owner 4673,+91XXXXXXXXXX,,Mumbai,IN,Seller,Generated
ab2bdf8d-d488-44a2-86f9-89b85ec7493c,Owner 4333,+91XXXXXXXXXX,,Delhi,IN,Seller,Generated
2ef38673-46ee-40c8-ac9c-06c5a70d796a,Owner 4071,+91XXXXXXXXXX,,London,IN,Seller,Generated
4e4fc584-65f0-43dd-ab4e-187c470972e0,Owner 4043,+91XXXXXXXXXX,,New York,IN,Seller,Generated
99c58786-8b0c-4801-a2d3-69a74f96b992,Owner 8783,+91XXXXXXXXXX,,New York,IN,Seller,Generated
5a7066b2-0ef0-4ab9-897d-40299485d6ff,Owner 5268,+91XXXXXXXXXX,,Mumbai,IN,Seller,Generated
0dbc7660-ea75-423d-8117-6c8f5bafd70c,Owner 2524,+91XXXXXXXXXX,,Mumbai,IN,Seller,Generated
dd0b10ba-9194-4e01-8aec-d9bb5f55cf89,Owner 1308,+91XXXXXXXXXX,,New York,IN,Seller,Generated
3183e7ee-3dc3-4452-823f-f516120f74b2,Owner 3447,+91XXXXXXXXXX,,Delhi,IN,Seller,Generated
f3748089-3429-4763-bff8-c2a8e0ba52e2,Owner 3775,+91XXXXXXXXXX,,London,IN,Seller,Generated
27ff3802-8894-4b36-87f5-5e1ef92ca0dd,Owner 2474,+91XXXXXXXXXX,,Delhi,IN,Seller,Generated
443e2186-45a3-454c-9953-2c0f6a1685a0,Owner 109,+91XXXXXXXXXX,,London,IN,Seller,Generated
d17868b2-670a-490b-b192-ff52f2495701,Owner 6002,+91XXXXXXXXXX,,Mumbai,IN,Seller,Generated
db443ca6-06ea-41d7-a2e8-f069daa743be,Owner 670,+91XXXXXXXXXX,,London,IN,Seller,Generated
8bbff13d-cfda-4477-84a8-a2aefdb02247,Owner 9917,+91XXXXXXXXXX,,London,IN,Seller,Generated
6f09011a-b3f0-459f-8017-5251d01b6d4d,Owner 7747,+91XXXXXXXXXX,,London,IN,Seller,Generated
008f56f2-c15c-46c4-afdb-e775d5f8f4c3,Owner 3036,+91XXXXXXXXXX,,Delhi,IN,Seller,Generated
6b8d5c61-e30b-40f6-aa3e-9d072387e5c0,Owner 6309,+91XXXXXXXXXX,,London,IN,Seller,Generated
5105999c-b350-438f-9a31-78b4abb4d7c1,Owner 4769,+91XXXXXXXXXX,,Delhi,IN,Seller,Generated
5588a131-49cc-43e2-90d1-063d42d57281,Owner 5604,+91XXXXXXXXXX,,Mumbai,IN,Seller,Generated
3edd0845-9a48-4684-a5dc-b21198d266f7,Owner 8465,+91XXXXXXXXXX,,London,IN,Seller,Generated
3d2a07da-0493-4943-be84-ec9fb524703d,Owner 9605,+91XXXXXXXXXX,,Delhi,IN,Seller,Generated
690cbb92-596f-4b65-a309-31e43f3b7a61,Owner 8409,+91XXXXXXXXXX,,London,IN,Seller,Generated
5727e1c2-3512-47fb-b95c-d8586fa5fa4d,Owner 364,+91XXXXXXXXXX,,Mumbai,IN,Seller,Generated
6c8fac49-621a-42d9-9271-46ffe6190d3d,Owner 5113,+91XXXXXXXXXX,,New York,IN,Seller,Generated
28697f45-dd10-4b69-87d3-c66b3a8bab8a,Owner 1562,+91XXXXXXXXXX,,London,IN,Seller,Generated
5d1a4d83-2066-484a-8218-1412b8b3e512,Owner 3869,+91XXXXXXXXXX,,London,IN,Seller,Generated
bbb80089-dea1-44d4-8fdf-0852b309d92c,Owner 279,+91XXXXXXXXXX,,Delhi,IN,Seller,Generated
8ae485c7-2eab-4762-bf28-f4a507b2a360,Owner 1896,+91XXXXXXXXXX,,London,IN,Seller,Generated
b8a473be-a460-4c5b-b111-e7f9fc660532,Owner 4161,+91XXXXXXXXXX,,London,IN,Seller,Generated
eac81ffb-5243-46ba-bdd7-b54d59e78eb3,Owner 3780,+91XXXXXXXXXX,,Mumbai,IN,Seller,Generated
a8790582-3e7e-40c3-a426-499c33b24918,Owner 3249,+91XXXXXXXXXX,,London,IN,Seller,Generated
38a4ef86-e135-4246-b7fc-bcd22ca898d9,Owner 4148,+91XXXXXXXXXX,,Delhi,IN,Seller,Generated
85ede8c2-480f-4263-8985-d95abc860fb3,Owner 9432,+91XXXXXXXXXX,,London,IN,Seller,Generated
4b4279da-6a30-4295-93c7-2bed34d11d84,Owner 2843,+91XXXXXXXXXX,,New York,IN,Seller,Generated
eec30a74-de4c-4bf4-a2d5-d009e9523097,Owner 7386,+91XXXXXXXXXX,,New York,IN,Seller,Generated
022e8336-2e3e-484a-93de-c2a521b81a65,Owner 4467,+91XXXXXXXXXX,,Delhi,IN,Seller,Generated
72c124a4-225e-450f-9c5d-c3ebdf18a84d,Owner 686,+91XXXXXXXXXX,,London,IN,Seller,Generated
daa6f586-3748-4e46-a2d8-e77b72ed703e,Owner 3115,+91XXXXXXXXXX,,London,IN,Seller,Generated
ad8ec11d-3621-4555-b84e-0b66e9288684,Owner 3838,+91XXXXXXXXXX,,London,IN,Seller,Generated
54ba8c9e-ab7e-4766-87ec-3d3b5b02066c,Owner 6012,+91XXXXXXXXXX,,London,IN,Seller,Generated
70669660-a219-4102-bd3a-0385888db36a,Owner 8682,+91XXXXXXXXXX,,Mumbai,IN,Seller,Generated
ff5a308d-be50-4b9b-8d10-09f04d7f2f8f,Owner 6225,+91XXXXXXXXXX,,Delhi,IN,Seller,Generated
29ead301-35c9-4830-9831-91b5d94bdf5d,Owner 288,+91XXXXXXXXXX,,Delhi,IN,Seller,Generated
c0d8ec99-471c-48e9-96ee-b181e2531aed,Owner 2815,+91XXXXXXXXXX,,New York,IN,Seller,Generated
e42d2d77-f6c5-4682-9b44-db7b60e1e510,Owner 8223,+91XXXXXXXXXX,,New York,IN,Seller,Generated
a0fda1f8-4b9d-4992-8fbf-863e57fa4af0,Owner 404,+91XXXXXXXXXX,,Delhi,IN,Seller,Generated
09001675-6de3-468f-8994-2e2c528ad878,Owner 9719,+91XXXXXXXXXX,,New York,IN,Seller,Generated
4c559353-9353-473d-8de0-a56fa860e444,Owner 4878,+91XXXXXXXXXX,,New York,IN,Seller,Generated
8ac68554-1889-4406-a49c-9a83f811015a,Owner 7444,+91XXXXXXXXXX,,New York,IN,Seller,Generated
b2b390f2-ec52-48e0-b4f9-609348960038,Owner 4508,+91XXXXXXXXXX,,New York,IN,Seller,Generated
71ad3761-bb0f-4a46-b88b-359fba0a2ee5,Owner 1991,+91XXXXXXXXXX,,New York,IN,Seller,Generated
c7d0edbf-c1bc-43bb-bc04-ea88b255304d,Owner 4074,+91XXXXXXXXXX,,Delhi,IN,Seller,Generated
b6f163b2-b444-402e-9b8a-4580f730f024,Owner 286,+91XXXXXXXXXX,,London,IN,Seller,Generated
df312b67-955d-4bd0-8742-45f6abf09767,Owner 904,+91XXXXXXXXXX,,Mumbai,IN,Seller,Generated
24e6f32c-aa1a-4fd0-978c-283635c9aa31,Owner 2815,+91XXXXXXXXXX,,Mumbai,IN,Seller,Generated
966b06f1-6881-497c-aa29-bb77b8cbe98c,Owner 1814,+91XXXXXXXXXX,,Delhi,IN,Seller,Generated
df8ca14c-108b-449e-9896-0a15df92361c,Owner 5569,+91XXXXXXXXXX,,Delhi,IN,Seller,Generated
a298ea70-63c8-45c8-9690-e86509502aca,Owner 8501,+91XXXXXXXXXX,,New York,IN,Seller,Generated
b2d3b78f-fab8-40a0-991d-7f4052d3523f,Owner 8523,+91XXXXXXXXXX,,Delhi,IN,Seller,Generated
1e1386c9-2a05-4cf8-a809-0fa311db76ab,Owner 828,+91XXXXXXXXXX,,Mumbai,IN,Seller,Generated
6740ba2a-f857-4044-ab76-06db3bcb0327,Owner 5619,+91XXXXXXXXXX,,New York,IN,Seller,Generated
51207b12-6f21-4814-aba2-dd7da101ec5f,Owner 8658,+91XXXXXXXXXX,,London,IN,Seller,Generated
4f09694e-6eeb-4196-ab56-fd5623081de2,Owner 9560,+91XXXXXXXXXX,,Mumbai,IN,Seller,Generated
467ead33-5ceb-4b15-b677-66c5c80b8db0,Owner 8660,+91XXXXXXXXXX,,Delhi,IN,Seller,Generated
0b5282e0-feb7-470b-96c5-37f6af2790b0,Owner 7038,+91XXXXXXXXXX,,Delhi,IN,Seller,Generated
540187c7-65dc-4da2-a9f7-a4ca38ef7795,Owner 1787,+91XXXXXXXXXX,,New York,IN,Seller,Generated
fd4a7b6e-72c4-4a07-b14d-7c553de9ac7c,Owner 7789,+91XXXXXXXXXX,,Delhi,IN,Seller,Generated
0683550c-b936-4640-ac75-c936c65e347a,Owner 2498,+91XXXXXXXXXX,,New York,IN,Seller,Generated
e9723944-0322-4b41-b90e-309b8df97afe,Owner 5307,+91XXXXXXXXXX,,Delhi,IN,Seller,Generated
859d90ed-517a-45a6-b696-a9bd8e2dc349,Owner 3723,+91XXXXXXXXXX,,Delhi,IN,Seller,Generated
bf0abe12-d393-416f-9366-87ff8c588133,Owner 9481,+91XXXXXXXXXX,,Delhi,IN,Seller,Generated
dd7f8bd9-b77d-4f47-aea2-ac71dd8911ed,Owner 8485,+91XXXXXXXXXX,,Delhi,IN,Seller,Generated
0c3705f9-3205-4c5c-b827-1a2ef815c053,Owner 2419,+91XXXXXXXXXX,,London,IN,Seller,Generated
19b40d01-f086-41e7-9e4b-1eb682b1f2ed,Owner 3987,+91XXXXXXXXXX,,London,IN,Seller,Generated
5b57e0c6-2105-44af-87a9-8d242d1a4f87,Owner 5629,+91XXXXXXXXXX,,Mumbai,IN,Seller,Generated
f9205138-46a8-4585-b30a-e8c506bd93fc,Owner 7370,+91XXXXXXXXXX,,Delhi,IN,Seller,Generated
1ac1d995-2cde-42f3-aaab-c55e23c8ec8a,Owner 6512,+91XXXXXXXXXX,,London,IN,Seller,Generated
f6ba0377-95b6-4ecd-acae-b4ba2eb6c542,Owner 4885,+91XXXXXXXXXX,,Delhi,IN,Seller,Generated
42755f87-447b-43b5-bfb5-0db737d74f9e,Owner 5671,+91XXXXXXXXXX,,New York,IN,Seller,Generated
314eeb19-ddc6-4703-8582-b18cbc102a3b,Owner 6358,+91XXXXXXXXXX,,New York,IN,Seller,Generated
1fd7bc81-dcac-447b-8bd0-e9224c0f30d7,Owner 9551,+91XXXXXXXXXX,,London,IN,Seller,Generated
c84cc330-9a6d-4149-a7cf-8710effc883f,Owner 6821,+91XXXXXXXXXX,,New York,IN,Seller,Generated
ca83df6c-575f-4123-991c-7f89788ac7e0,Owner 4474,+91XXXXXXXXXX,,London,IN,Seller,Generated
c575817f-c8b4-4bb6-9418-01029bfc20c3,Owner 7740,+91XXXXXXXXXX,,New York,IN,Seller,Generated
24f9e1d9-78c5-4034-bf47-ee280b0bea11,Owner 8712,+91XXXXXXXXXX,,Mumbai,IN,Seller,Generated
62068471-2027-43ec-8aac-5efc95b8c544,Owner 1260,+91XXXXXXXXXX,,London,IN,Seller,Generated
f33a2d78-642d-47da-a87d-857f8fdd3dcc,Owner 3357,+91XXXXXXXXXX,,Delhi,IN,Seller,Generated
ea3b1a0f-0283-46cb-baef-2c777768a1af,Owner 7966,+91XXXXXXXXXX,,Mumbai,IN,Seller,Generated
