lead_id,name,phone,email,city,country,type,notes
3b745932-b0c2-46ae-98ab-e1d810bb3606,Owner 9522,+91XXXXXXXXXX,,Mumbai,IN,Seller,Generated
9b810ff3-98fc-4074-9974-2818df5954eb,Owner 9451,+91XXXXXXXXXX,,Delhi,IN,Seller,Generated
f7bea02b-429c-450d-b5d6-473fece6d7c6,Owner 5092,+91XXXXXXXXXX,,London,IN,Seller,Generated
5b9a6fa5-3ad3-43b9-9fc0-cbca1d744bc1,Owner 4130,+91XXXXXXXXXX,,New York,IN,Seller,Generated
6c73c287-2bd2-4fa2-add8-db7bedd7722c,Owner 4123,+91XXXXXXXXXX,,New York,IN,Seller,Generated
7abc262f-fdb4-42ae-aeb5-122d2e6e8637,Owner 3377,+91XXXXXXXXXX,,Mumbai,IN,Seller,Generated
d9b444a5-5dac-46c6-8196-6abfb72b4569,Owner 1622,+91XXXXXXXXXX,,Mumbai,IN,Seller,Generated
52191848-6d6c-40da-8e70-7344015f28e2,Owner 5705,+91XXXXXXXXXX,,Mumbai,IN,Seller,Generated
150c101c-cda4-45bf-b5ae-17ed75891477,Owner 1831,+91XXXXXXXXXX,,New York,IN,Seller,Generated
709d99cf-fc1a-4afc-abce-c2a2f52b8901,Owner 7565,+91XXXXXXXXXX,,New York,IN,Seller,Generated
7fb33f57-7452-45a5-b06d-767c16772745,Owner 2206,+91XXXXXXXXXX,,New York,IN,Seller,Generated
f72e8df4-0980-4f08-ac26-2fc389382772,Owner 3478,+91XXXXXXXXXX,,London,IN,Seller,Generated
c9cd0374-8800-4ec2-86c1-d0828ba98083,Owner 1685,+91XXXXXXXXXX,,New York,IN,Seller,Generated
83e23de3-7b5f-4959-a604-b421bed734b3,Owner 1289,+91XXXXXXXXXX,,Mumbai,IN,Seller,Generated
e38e6948-1a6f-48f4-bfdb-ce4a62c093ab,Owner 3663,+91XXXXXXXXXX,,Mumbai,IN,Seller,Generated
17250f4b-d5a1-486f-b70d-8fa6a6eb9e06,Owner 3450,+91XXXXXXXXXX,,New York,IN,Seller,Generated
e06b5fef-0ed7-4506-bcaa-c046be5fcf59,Owner 8719,+91XXXXXXXXXX,,London,IN,Seller,Generated
de311b16-e84e-439e-a599-4802b4b47d86,Owner 3231,+91XXXXXXXXXX,,London,IN,Seller,Generated
b775de4a-9b34-4e32-be2c-692cc79dd53e,Owner 7851,+91XXXXXXXXXX,,Delhi,IN,Seller,Generated
25b55a28-7471-41ad-a72c-0ea5cb703ce9,Owner 1107,+91XXXXXXXXXX,,Delhi,IN,Seller,Generated
fccd4b18-1745-4537-ac47-623a71b9edec,Owner 1337,+91XXXXXXXXXX,,New York,IN,Seller,Generated
317883ff-6421-45ff-9444-20060631e149,Owner 9645,+91XXXXXXXXXX,,London,IN,Seller,Generated
ebf37c94-d13a-447e-b376-e4ca8812cc96,Owner 6950,+91XXXXXXXXXX,,New York,IN,Seller,Generated
ebe9b377-0507-4e0a-b8b1-30631d88b24c,Owner 5010,+91XXXXXXXXXX,,Mumbai,IN,Seller,Generated
7da3a823-3da2-4cd3-b631-8c584cc2460c,Owner 9331,+91XXXXXXXXXX,,Mumbai,IN,Seller,Generated
14f99c34-8f27-447d-87e8-c4a072424f0b,Owner 7095,+91XXXXXXXXXX,,Mumbai,IN,Seller,Generated
26e9cff9-7d45-4b8d-86d2-bd7d04c1c77a,Owner 9194,+91XXXXXXXXXX,,New York,IN,Seller,Generated
1c415e70-cc68-4c7e-be25-329437da1d94,Owner 775,+91XXXXXXXXXX,,Mumbai,IN,Seller,Generated
8e4fd8e6-bb06-459e-8893-466c89ef1cb7,Owner 5838,+91XXXXXXXXXX,,Mumbai,IN,Seller,Generated
04bd8bd9-781d-4b8b-9d52-fbe67884502c,Owner 121,+91XXXXXXXXXX,,Delhi,IN,Seller,Generated
b99edcc9-4921-45a8-85c2-33b34931a02e,Owner 5384,+91XXXXXXXXXX,,Mumbai,IN,Seller,Generated
4fa36b74-0f25-4ce6-9214-662749a7e2f4,Owner 9880,+91XXXXXXXXXX,,Mumbai,IN,Seller,Generated
b0c8f201-3c16-40ec-9337-6eb99e8f58a1,Owner 4582,+91XXXXXXXXXX,,Mumbai,IN,Seller,Generated
9d8bde9f-b8ca-410e-b712-9bb0abb50027,Owner 8843,+91XXXXXXXXXX,,New York,IN,Seller,Generated
e0e4b9d1-9c51-4826-875a-62d2f2e22b47,Owner 3696,+91XXXXXXXXXX,,Delhi,IN,Seller,Generated
fc1d37fa-2bb6-4189-bc6e-87c58c3c5ce2,Owner 896,+91XXXXXXXXXX,,New York,IN,Seller,Generated
433fdd3c-0364-4b5d-bcab-f0b8dcf4402b,Owner 300,+91XXXXXXXXXX,,Delhi,IN,Seller,Generated
117947d2-ddc3-46a4-a949-63d31519c916,Owner 5282,+91XXXXXXXXXX,,London,IN,Seller,Generated
bf580746-2aa9-4473-bae8-ff5f82e018b8,Owner 6265,+91XXXXXXXXXX,,Delhi,IN,Seller,Generated
19f1baeb-7c3d-44b4-97bd-8039aba2a184,Owner 2784,+91XXXXXXXXXX,,London,IN,Seller,Generated
8acbeab2-e0f5-4576-87dc-d6d7062d326e,Owner 1486,+91XXXXXXXXXX,,New York,IN,Seller,Generated
0656b2a3-f91a-4615-8f4a-0e179292efe8,Owner 8629,+91XXXXXXXXXX,,Mumbai,IN,Seller,Generated
643cae72-b9af-4681-b006-44d56365bf35,Owner 7685,+91XXXXXXXXXX,,New York,IN,Seller,Generated
68577108-6a4f-4f4f-b436-2c09efaaae33,Owner 6629,+91XXXXXXXXXX,,New York,IN,Seller,Generated
add9d1b3-30b8-4ceb-a12b-e17eda253437,Owner 7435,+91XXXXXXXXXX,,Delhi,IN,Seller,Generated
8dad828e-ce07-44c1-b6a3-ebeb3b77c147,Owner 2451,+91XXXXXXXXXX,,Mumbai,IN,Seller,Generated
acf5d8f1-e049-4db5-8ef1-1837f8ed1ca2,Owner 7866,+91XXXXXXXXXX,,Delhi,IN,Seller,Generated
7f7e55a9-386f-4577-b9e8-34454384009d,Owner 8849,+91XXXXXXXXXX,,Delhi,IN,Seller,Generated
55899015-bb8a-4a8f-83a9-f785f362664b,Owner 1540,+91XXXXXXXXXX,,Delhi,IN,Seller,Generated
bd55b474-35de-4d25-b9cd-744e9e45916a,Owner 2482,+91XXXXXXXXXX,,London,IN,Seller,Generated
bc87a2d0-58db-4494-b507-740dc7bc12b8,Owner 6532,+91XXXXXXXXXX,,New York,IN,Seller,Generated
2ca71b23-77a8-4789-b132-b0a3b7e65848,Owner 5167,+91XXXXXXXXXX,,New York,IN,Seller,Generated
9879efe6-0297-40bd-86d8-80a17a54a96f,Owner 8153,+91XXXXXXXXXX,,London,IN,Seller,Generated
34c862d4-fbaa-410a-a58f-bc2d9c945819,Owner 2780,+91XXXXXXXXXX,,Mumbai,IN,Seller,Generated
b7a4e029-09b5-4bed-95a9-d52cd1416359,Owner 2809,+91XXXXXXXXXX,,New York,IN,Seller,Generated
7a1b0acb-20d5-420f-b06b-3c52a5962078,Owner 1846,+91XXXXXXXXXX,,Delhi,IN,Seller,Generated
01c7eb81-0213-4468-ab5d-1e60585bde9e,Owner 3058,+91XXXXXXXXXX,,London,IN,Seller,Generated
ada1eea8-5cce-40a9-9839-37d851ee159d,Owner 8695,+91XXXXXXXXXX,,New York,IN,Seller,Generated
81486799-23c0-4af2-a726-4585a5f41748,Owner 105,+91XXXXXXXXXX,,Delhi,IN,Seller,Generated
7a65df48-c559-4c0c-856c-f805a9a94b0e,Owner 5442,+91XXXXXXXXXX,,New York,IN,Seller,Generated
9c2a69fb-1cd1-4ec0-93b4-e810c032e916,Owner 9326,+91XXXXXXXXXX,,London,IN,Seller,Generated
0917b43b-11e9-476b-83ca-a85d49b3beb6,Owner 7726,+91XXXXXXXXXX,,Mumbai,IN,Seller,Generated
8d54495c-9509-42a5-8090-cfbf58a071a5,Owner 1812,+91XXXXXXXXXX,,Mumbai,IN,Seller,Generated
5834c67e-be9e-48d0-b44e-cab8956bb057,Owner 319,+91XXXXXXXXXX,,Mumbai,IN,Seller,Generated
352d1af3-af57-4d15-9e39-f06fc4f3e4c5,Owner 32,+91XXXXXXXXXX,,New York,IN,Seller,Generated
9eb2183e-3d70-47b6-b3ff-d095339eb81d,Owner 1929,+91XXXXXXXXXX,,London,IN,Seller,Generated
5c1b0fdf-ba5f-4927-a641-ed904962dfff,Owner 7595,+91XXXXXXXXXX,,Delhi,IN,Seller,Generated
2b2efcfb-11b7-4fed-afc7-c19c8dcdfeaa,Owner 364,+91XXXXXXXXXX,,London,IN,Seller,Generated
b7323d2a-5044-4c82-93c5-b8a8cc3dbb71,Owner 3931,+91XXXXXXXXXX,,London,IN,Seller,Generated
642f4db2-6ba3-407f-ab72-9e47fdf2f616,Owner 4696,+91XXXXXXXXXX,,Delhi,IN,Seller,Generated
c1f2c16c-f695-4ce2-b96d-42f8938ceb0d,Owner 5012,+91XXXXXXXXXX,,London,IN,Seller,Generated
57e7cc47-827e-48d4-b545-c59d83b5b072,Owner 4199,+91XXXXXXXXXX,,New York,IN,Seller,Generated
7f32de14-9a65-40ca-ae8d-b25528efa0d5,Owner 3406,+91XXXXXXXXXX,,Delhi,IN,Seller,Generated
5610b292-fa11-4227-b294-ccb3daa2e4cc,Owner 6492,+91XXXXXXXXXX,,Delhi,IN,Seller,Generated
b4b3a25e-a66f-44c9-9891-2000eb39db2d,Owner 608,+91XXXXXXXXXX,,Mumbai,IN,Seller,Generated
337f4f0b-e448-4d87-ad8d-570ef1755cc8,Owner 4172,+91XXXXXXXXXX,,Delhi,IN,Seller,Generated
bd84f0cf-ce0e-49c6-b84a-cb639696a68f,Owner 5470,+91XXXXXXXXXX,,Mumbai,IN,Seller,Generated
90679192-3b30-4f34-b7ef-8791ccd13034,Owner 8594,+91XXXXXXXXXX,,London,IN,Seller,Generated
9ce6d6e9-7e63-4adf-b0e0-afb1a5fc640e,Owner 2810,+91XXXXXXXXXX,,Delhi,IN,Seller,Generated
5a5c33a8-59f9-4208-ab76-0c4065f973c4,Owner 5628,+91XXXXXXXXXX,,London,IN,Seller,Generated
f904c57d-ad8d-49b4-8a51-5f0307ab07e1,Owner 1519,+91XXXXXXXXXX,,London,IN,Seller,Generated
a5a72acb-b51d-48a9-8a35-53f318b698b1,Owner 7174,+91XXXXXXXXXX,,New York,IN,Seller,Generated
5ef42d6d-d943-4f59-850b-0659056d95b4,Owner 78,+91XXXXXXXXXX,,New York,IN,Seller,Generated
7a12d067-47cc-46e2-8650-94e53c43469c,Owner 5658,+91XXXXXXXXXX,,Delhi,IN,Seller,Generated
bcdf9ee1-5028-426e-83ae-24aefe861e20,Owner 5610,+91XXXXXXXXXX,,Delhi,IN,Seller,Generated
fedbcb8b-52cf-4a57-abfc-dcdb423175d7,Owner 8548,+91XXXXXXXXXX,,Delhi,IN,Seller,Generated
32fa4503-745f-4915-a9af-72ccbee03de9,Owner 8259,+91XXXXXXXXXX,,New York,IN,Seller,Generated
6fe91109-2527-4a4a-8726-5e13036d3cb0,Owner 3308,+91XXXXXXXXXX,,New York,IN,Seller,Generated
6486e13f-5ab0-4a67-87e7-ee3a51d74723,Owner 3931,+91XXXXXXXXXX,,Delhi,IN,Seller,Generated
6662dad7-0040-4c74-914c-0631685651a0,Owner 7511,+91XXXXXXXXXX,,Delhi,IN,Seller,Generated
ce3cbe98-7b81-41f6-b511-0807d5414042,Owner 627,+91XXXXXXXXXX,,London,IN,Seller,Generated
5b290939-6c0a-45db-b129-45ee195a6a2c,Owner 6394,+91XXXXXXXXXX,,Mumbai,IN,Seller,Generated
b22dfa3b-c969-4a9d-9ced-ffae8378e3ec,Owner 6543,+91XXXXXXXXXX,,London,IN,Seller,Generated
26f2ee85-2ec7-4ec7-b36d-bcba8f046ce7,Owner 9734,+91XXXXXXXXXX,,Mumbai,IN,Seller,Generated
fa9281b6-2c5d-431e-94ed-b3b60c103191,Owner 2025,+91XXXXXXXXXX,,Mumbai,IN,Seller,Generated
8d2149db-331e-4bbd-8e6b-b493fac47c24,Owner 9258,+91XXXXXXXXXX,,Delhi,IN,Seller,Generated
9a05ba38-7b60-43e0-a357-6979b093000b,Owner 3377,+91XXXXXXXXXX,,Mumbai,IN,Seller,Generated
b8769797-7a25-4b6b-b683-6fdcf75dcf82,Owner 1819,+91XXXXXXXXXX,,Delhi,IN,Seller,Generated
98e45d26-9f3c-4e84-bfa2-b551352aac68,Owner 7170,+91XXXXXXXXXX,,New York,IN,Seller,Generated
7902adb3-14c6-4832-b110-1f4a68f084da,Owner 8200,+91XXXXXXXXXX,,Mumbai,IN,Seller,Generated
dcd4e626-bc5e-4a97-8c2b-29864beac7ab,Owner 6412,+91XXXXXXXXXX,,Mumbai,IN,Seller,Generated
1bda9b09-16a9-4667-9bc0-dc8457020562,Owner 1461,+91XXXXXXXXXX,,London,IN,Seller,Generated
c805650e-8b8e-4de1-a8d4-4145056dccaa,Owner 8343,+91XXXXXXXXXX,,London,IN,Seller,Generated
8d8e615f-1d41-451c-9f90-5b5d6c7408e6,Owner 9213,+91XXXXXXXXXX,,New York,IN,Seller,Generated
38b2e0bb-e3c1-40a6-aa19-eb86dfea8833,Owner 7697,+91XXXXXXXXXX,,London,IN,Seller,Generated
257b2e77-4949-4b76-94df-f63ef36ccb42,Owner 9370,+91XXXXXXXXXX,,London,IN,Seller,Generated
c9c373d1-353b-4a7f-8ee9-98fed3349e18,Owner 3863,+91XXXXXXXXXX,,London,IN,Seller,Generated
5ea29578-17d3-4ecd-bb2d-f17f91328596,Owner 8170,+91XXXXXXXXXX,,Delhi,IN,Seller,Generated
ef1c4613-e15d-488a-a28a-90d5ba957dea,Owner 9135,+91XXXXXXXXXX,,London,IN,Seller,Generated
580c1a59-6e27-4907-a831-c67d7c4e2bdc,Owner 9897,+91XXXXXXXXXX,,London,IN,Seller,Generated
db4ddd99-9ae7-4eb8-bfec-8ee117e1b412,Owner 7725,+91XXXXXXXXXX,,Delhi,IN,Seller,Generated
f014ff95-7723-4f70-afba-03a5d36ed276,Owner 5987,+91XXXXXXXXXX,,Delhi,IN,Seller,Generated
af974d94-9f33-4c38-8f14-295d0bfe4f53,Owner 3242,+91XXXXXXXXXX,,New York,IN,Seller,Generated
0b3b480f-4cdc-4aeb-8688-2261fb29416c,Owner 1358,+91XXXXXXXXXX,,Mumbai,IN,Seller,Generated
6af807ca-fb9a-440f-8d4a-1853ea2f0fe5,Owner 3612,+91XXXXXXXXXX,,New York,IN,Seller,Generated
21c3cc16-5687-41be-a00b-bc62e92e3c5f,Owner 3979,+91XXXXXXXXXX,,London,IN,Seller,Generated
1795b3f1-b6ec-4c58-b3b1-09ac9f4fcbe7,Owner 8165,+91XXXXXXXXXX,,Delhi,IN,Seller,Generated
40e2844f-a5e4-4f8f-8e97-743448a1f62a,Owner 8108,+91XXXXXXXXXX,,New York,IN,Seller,Generated
5449b321-b3ad-4bb1-8628-135226ac06fb,Owner 2716,+91XXXXXXXXXX,,New York,IN,Seller,Generated
ea00d687-b500-4e25-b9b9-5a4dcf3a9fd4,Owner 6289,+91XXXXXXXXXX,,Mumbai,IN,Seller,Generated
ac4bf6f0-fdde-4a59-acbc-3b8c2ad03bb6,Owner 7405,+91XXXXXXXXXX,,Mumbai,IN,Seller,Generated
57bae5ad-757b-467a-b877-02f43305bd5b,Owner 7049,+91XXXXXXXXXX,,Mumbai,IN,Seller,Generated
c7bdd271-f444-487e-a155-a66e99617042,Owner 5848,+91XXXXXXXXXX,,New York,IN,Seller,Generated
cb75e3bd-9802-4001-8931-08a93de5040f,Owner 1409,+91XXXXXXXXXX,,Delhi,IN,Seller,Generated
7807a26b-6618-4b03-97dd-b9c72a3f36f0,Owner 4439,+91XXXXXXXXXX,,London,IN,Seller,Generated
1d2cba5a-4874-4f69-9a68-184afa770daa,Owner 2733,+91XXXXXXXXXX,,Mumbai,IN,Seller,Generated
d03f025b-bd00-4d07-b61a-a36271d22364,Owner 1208,+91XXXXXXXXXX,,Delhi,IN,Seller,Generated
a67bbe6a-88e3-4245-9262-4d726d502b65,Owner 6532,+91XXXXXXXXXX,,Mumbai,IN,Seller,Generated
eb23ce92-ffdc-45e3-93c0-f5d883c6e909,Owner 8983,+91XXXXXXXXXX,,Mumbai,IN,Seller,Generated
fa7f6ca2-ec85-4222-89a6-6a84d7813d14,Owner 2143,+91XXXXXXXXXX,,Delhi,IN,Seller,Generated
31a77df7-0a50-4e90-bcc6-38f6e851d620,Owner 5046,+91XXXXXXXXXX,,Mumbai,IN,Seller,Generated
c892b3a2-6a48-4b82-a1fb-308c344b7f31,Owner 993,+91XXXXXXXXXX,,Delhi,IN,Seller,Generated
d9576092-1dbc-42a9-977c-29feedf222c0,Owner 5882,+91XXXXXXXXXX,,Mumbai,IN,Seller,Generated
7f3fb212-6da4-4011-8638-c7619b433731,Owner 5944,+91XXXXXXXXXX,,New York,IN,Seller,Generated
c8bcec08-1782-4d32-8404-29c8d9931c96,Owner 5335,+91XXXXXXXXXX,,Delhi,IN,Seller,Generated
caffc340-e63b-4dc5-83a4-1b104ce20fc4,Owner 9508,+91XXXXXXXXXX,,New York,IN,Seller,Generated
187fbdea-48ff-46f2-bb63-840ebd527f31,Owner 9580,+91XXXXXXXXXX,,Mumbai,IN,Seller,Generated
d1ef8ba7-6f9a-4661-ab24-2c3ef7337081,Owner 1831,+91XXXXXXXXXX,,London,IN,Seller,Generated
3dabf2bf-f29f-4c81-ac14-fd75ce6eb254,Owner 6701,+91XXXXXXXXXX,,Delhi,IN,Seller,Generated
6d46307a-a495-4eb3-9040-d36a4e3f2ee5,Owner 5336,+91XXXXXXXXXX,,Mumbai,IN,Seller,Generated
f268f574-b540-4ef3-bf62-da4ce91c9f6a,Owner 8341,+91XXXXXXXXXX,,London,IN,Seller,Generated
f094c3fc-865d-4449-9d1e-02ca99109935,Owner 7211,+91XXXXXXXXXX,,London,IN,Seller,Generated
1ab3a1fe-b76a-4bab-8f86-2a9fe9fabd92,Owner 9069,+91XXXXXXXXXX,,Mumbai,IN,Seller,Generated
41ce7398-2432-4c08-b87c-1bf68b5bb650,Owner 5837,+91XXXXXXXXXX,,New York,IN,Seller,Generated
28ab96e8-7f18-4151-91a8-c05d58ede7c2,Owner 7763,+91XXXXXXXXXX,,London,IN,Seller,Generated
b84148b1-5113-420a-a3c1-59e1d591bbef,Owner 8866,+91XXXXXXXXXX,,Delhi,IN,Seller,Generated
d3c065c3-6695-4e95-8ef6-fb51efb229ad,Owner 6048,+91XXXXXXXXXX,,Mumbai,IN,Seller,Generated
0da839ce-4f15-4cc3-bed5-9f4e804ed4fe,Owner 9652,+91XXXXXXXXXX,,Mumbai,IN,Seller,Generated
054adbd2-966e-40a4-8980-83d4230688d3,Owner 3873,+91XXXXXXXXXX,,Mumbai,IN,Seller,Generated
d87d13f9-dfa6-40d5-8825-402b653bf499,Owner 7689,+91XXXXXXXXXX,,New York,IN,Seller,Generated
8e3f20c3-4aad-4951-ac0f-bcd8bcbdb1ba,Owner 5833,+91XXXXXXXXXX,,London,IN,Seller,Generated
c57cb5c5-3acf-439d-9158-cebde392f6c2,Owner 3739,+91XXXXXXXXXX,,London,IN,Seller,Generated
fdd61069-1f5b-4406-ad31-9fb4252869fc,Owner 5077,+91XXXXXXXXXX,,Delhi,IN,Seller,Generated
7e55b4c7-79c9-40de-8a2e-c1383eb213fb,Owner 4694,+91XXXXXXXXXX,,Mumbai,IN,Seller,Generated
8b98c645-7efb-4abf-86ff-f1d9ed0ad3b2,Owner 5603,+91XXXXXXXXXX,,Delhi,IN,Seller,Generated
ba30b949-6fb0-47b0-8237-b4880c41447e,Owner 3890,+91XXXXXXXXXX,,New York,IN,Seller,Generated
20ff3790-dcf0-4328-8f46-c933dd767928,Owner 3479,+91XXXXXXXXXX,,Delhi,IN,Seller,Generated
2bf4d8f7-28f0-4cab-8b8e-8dd5c3ab2041,Owner 9937,+91XXXXXXXXXX,,Delhi,IN,Seller,Generated
f1b166e2-d590-4081-a099-822c808101f9,Owner 8080,+91XXXXXXXXXX,,New York,IN,Seller,Generated
5fee22bc-5ae4-4e2c-b718-2051bfcfeccc,Owner 9832,+91XXXXXXXXXX,,Mumbai,IN,Seller,Generated
0cd497ca-7669-40f9-886f-c1eef54eccc8,Owner 6636,+91XXXXXXXXXX,,New York,IN,Seller,Generated
a6352a84-98a1-4bdc-89d4-3d6fdf507f39,Owner 9649,+91XXXXXXXXXX,,Mumbai,IN,Seller,Generated
8252b47c-710e-4d4b-ae2c-acf6360eea18,Owner 3046,+91XXXXXXXXXX,,Mumbai,IN,Seller,Generated
8bb9857e-55e5-410e-aef9-8f8d176bfcde,Owner 684,+91XXXXXXXXXX,,Delhi,IN,Seller,Generated
3a01e147-6267-4391-a2b6-3999f779a4ca,Owner 3499,+91XXXXXXXXXX,,Delhi,IN,Seller,Generated
12efc770-4f97-46b1-b4e7-a194a12fee7f,Owner 2957,+91XXXXXXXXXX,,London,IN,Seller,Generated
cce4fef3-0b29-499f-ab34-ab81c3789e11,Owner 9053,+91XXXXXXXXXX,,Delhi,IN,Seller,Generated
7e3eed7f-24fe-47fb-aa59-138ff86caf3a,Owner 8531,+91XXXXXXXXXX,,Mumbai,IN,Seller,Generated
fcc83489-f4f5-4d56-8c1e-4a1f993434cb,Owner 4294,+91XXXXXXXXXX,,Delhi,IN,Seller,Generated
6bdddf05-c77e-48f3-b2cb-abce5d8addbf,Owner 4132,+91XXXXXXXXXX,,London,IN,Seller,Generated
a2742315-e0ce-46fb-aed4-368a4c0e3ed0,Owner 6454,+91XXXXXXXXXX,,Delhi,IN,Seller,Generated
9b5bf819-e618-4a1a-8aa4-708b9923ee46,Owner 4308,+91XXXXXXXXXX,,Delhi,IN,Seller,Generated
1ac81cbf-6148-4995-8995-880f01329348,Owner 671,+91XXXXXXXXXX,,New York,IN,Seller,Generated
49a9d176-3fab-499f-b7b0-2f9957cd0130,Owner 6201,+91XXXXXXXXXX,,Mumbai,IN,Seller,Generated
47f3d533-864b-4274-807b-7e237ab0ff38,Owner 7566,+91XXXXXXXXXX,,Mumbai,IN,Seller,Generated
9d183840-7fb7-4eaa-9a16-1d225793e969,Owner 6915,+91XXXXXXXXXX,,Mumbai,IN,Seller,Generated
c2deb0dc-8d35-4045-8c32-fd5f1a930a50,Owner 4362,+91XXXXXXXXXX,,Delhi,IN,Seller,Generated
3108d1ba-6607-4519-8d64-797585640c25,Owner 9163,+91XXXXXXXXXX,,New York,IN,Seller,Generated
01219ce5-333a-4216-b108-331bc4297ca8,Owner 2703,+91XXXXXXXXXX,,Mumbai,IN,Seller,Generated
e6e58417-461e-4b16-a308-dfa36ecaa311,Owner 3194,+91XXXXXXXXXX,,Mumbai,IN,Seller,Generated
dc60230d-c24a-4f1a-90e9-79475f54a832,Owner 7536,+91XXXXXXXXXX,,New York,IN,Seller,Generated
178f0c1e-a751-4199-b08a-afa2e53f1417,Owner 7320,+91XXXXXXXXXX,,Mumbai,IN,Seller,Generated
3c010058-fa4f-4176-9381-1eda9895c566,Owner 1229,+91XXXXXXXXXX,,Delhi,IN,Seller,Generated
ada1d069-f6e4-41c4-85fb-c6e6818e2833,Owner 1125,+91XXXXXXXXXX,,New York,IN,Seller,Generated
2617be12-f879-4f23-8a55-8acc4ea4c468,Owner 8157,+91XXXXXXXXXX,,London,IN,Seller,Generated
e82e10a3-3665-4c2a-a261-fe41ad618f26,Owner 5539,+91XXXXXXXXXX,,London,IN,Seller,Generated
1ac80f87-68f1-4d11-83e1-935e6a7696a4,Owner 1667,+91XXXXXXXXXX,,London,IN,Seller,Generated
de3e3779-e8b5-41b4-914c-99a36a6877d7,Owner 5354,+91XXXXXXXXXX,,London,IN,Seller,Generated
a040f8a6-957d-4620-9f77-64cfd68bd4a8,Owner 4937,+91XXXXXXXXXX,,Mumbai,IN,Seller,Generated
26ecff0e-113e-4dca-bb0f-790b7778efdb,Owner 3012,+91XXXXXXXXXX,,London,IN,Seller,Generated
ae51d8d3-52d0-450f-bbdd-5c5ca8d806fd,Owner 450,+91XXXXXXXXXX,,London,IN,Seller,Generated
da153cf3-56e9-4f2a-ae59-47aac14d73d0,Owner 8884,+91XXXXXXXXXX,,Delhi,IN,Seller,Generated
6fb70808-9d80-4230-94a6-8c6fe0861e52,Owner 3141,+91XXXXXXXXXX,,Mumbai,IN,Seller,Generated
7bcce44b-ef02-4df5-a7a1-b4e59931b903,Owner 1633,+91XXXXXXXXXX,,London,IN,Seller,Generated
b4fed096-9b58-4e3f-be8c-bb876c927ff1,Owner 891,+91XXXXXXXXXX,,New York,IN,Seller,Generated
af62ce19-e29b-4624-9054-73901f1d9175,Owner 2994,+91XXXXXXXXXX,,Mumbai,IN,Seller,Generated
8a6caec0-393c-45dd-9129-654d43046264,Owner 2758,+91XXXXXXXXXX,,Delhi,IN,Seller,Generated
d615a5ab-1c8c-4545-8e86-919e210312d9,Owner 5129,+91XXXXXXXXXX,,Delhi,IN,Seller,Generated
903fab74-9f28-4489-a105-9144bf57ff77,Owner 6785,+91XXXXXXXXXX,,Mumbai,IN,Seller,Generated
d18605c9-0c33-4f89-8e86-adae947eab81,Owner 7871,+91XXXXXXXXXX,,London,IN,Seller,Generated
6751e905-7c8e-42e6-a886-c1a9a6dd154f,Owner 4454,+91XXXXXXXXXX,,Mumbai,IN,Seller,Generated
d4c30389-6fdc-446f-97ea-93608dd6b087,Owner 5900,+91XXXXXXXXXX,,Mumbai,IN,Seller,Generated
17030161-d1c3-41e7-9fc2-c7a8b5ff6390,Owner 2140,+91XXXXXXXXXX,,Delhi,IN,Seller,Generated
6843ce31-745f-472a-8355-ea84b88912ab,Owner 3540,+91XXXXXXXXXX,,Delhi,IN,Seller,Generated
9aac7409-8b13-407b-b840-88b286348218,Owner 1484,+91XXXXXXXXXX,,Mumbai,IN,Seller,Generated
3d2cbbcb-8190-4237-b662-3d29539e22d5,Owner 9966,+91XXXXXXXXXX,,Delhi,IN,Seller,Generated
bc8b9e75-4d32-432f-a35f-f9da1c33a2f6,Owner 7610,+91XXXXXXXXXX,,Delhi,IN,Seller,Generated
cec80397-b7ad-480f-915d-6d3ce755ffcb,Owner 3404,+91XXXXXXXXXX,,Delhi,IN,Seller,Generated
9817aa03-1947-4d1a-ae4c-0141ed1d3226,Owner 9916,+91XXXXXXXXXX,,Mumbai,IN,Seller,Generated
c64aad5f-9944-4b18-9afe-24f867e64d2d,Owner 5134,+91XXXXXXXXXX,,Mumbai,IN,Seller,Generated
35c9fb40-1b60-4f76-9ff0-a19167e08a89,Owner 2122,+91XXXXXXXXXX,,London,IN,Seller,Generated
23c419f7-0ebc-4bbc-b42b-c3d35efe1cfb,Owner 3423,+91XXXXXXXXXX,,Delhi,IN,Seller,Generated
2441c79b-ab0e-4f1f-9a97-6cb22199cd42,Owner 3079,+91XXXXXXXXXX,,Delhi,IN,Seller,Generated
bd255ac5-6288-4340-b1d5-a36b547e9a60,Owner 5402,+91XXXXXXXXXX,,London,IN,Seller,Generated
dc2db22b-bfca-4d39-827a-ef650d4f6df7,Owner 5346,+91XXXXXXXXXX,,Delhi,IN,Seller,Generated
3cda9fac-8073-47b9-9319-8b479a3eeaae,Owner 6714,+91XXXXXXXXXX,,New York,IN,Seller,Generated
26ea2e2b-af89-47f2-a480-f46a5fb9dee3,Owner 7799,+91XXXXXXXXXX,,Mumbai,IN,Seller,Generated
6d986e22-7b65-44ce-a162-2a3405ea50b2,Owner 3856,+91XXXXXXXXXX,,Delhi,IN,Seller,Generated
a577b6d0-3a9e-48ee-82b1-91b7f598642d,Owner 9694,+91XXXXXXXXXX,,New York,IN,Seller,Generated
21c5c1d2-3d79-4292-97db-446328f7a17d,Owner 755,+91XXXXXXXXXX,,Mumbai,IN,Seller,Generated
d597227d-ec7b-43a9-921b-e9862ce2d44d,Owner 1881,+91XXXXXXXXXX,,Mumbai,IN,Seller,Generated
2a203831-ca70-41a4-a516-e478116624f3,Owner 9878,+91XXXXXXXXXX,,Delhi,IN,Seller,Generated
0285e230-d054-458a-ad83-89686faa7f15,Owner 4184,+91XXXXXXXXXX,,Delhi,IN,Seller,Generated
44690c11-e222-4add-a816-bf92483dafe5,Owner 402,+91XXXXXXXXXX,,London,IN,Seller,Generated
d048d272-ef84-4b9e-b47f-9eb17d33dd73,Owner 9163,+91XXXXXXXXXX,,Mumbai,IN,Seller,Generated
8790e0e2-dd23-4c18-b4ab-640131e34cc8,Owner 3760,+91XXXXXXXXXX,,New York,IN,Seller,Generated
3e8bedf0-5d54-4125-9b08-d2002f7c319a,Owner 8502,+91XXXXXXXXXX,,London,IN,Seller,Generated
fcb0ba6e-cdd6-4b75-822e-13aba934b9be,Owner 6074,+91XXXXXXXXXX,,Mumbai,IN,Seller,Generated
b90e0977-bc05-476a-a849-4e94ad7281eb,Owner 2835,+91XXXXXXXXXX,,London,IN,Seller,Generated
98942125-69c7-4ef5-b571-377e7087379f,Owner 4574,+91XXXXXXXXXX,,New York,IN,Seller,Generated
4a2442a8-ec8b-4ceb-bede-b7c603500f87,Owner 2005,+91XXXXXXXXXX,,Delhi,IN,Seller,Generated
e10e954c-abc6-47b7-ab7c-4808c2f0796d,Owner 7702,+91XXXXXXXXXX,,Delhi,IN,Seller,Generated
3b5fc17d-9436-442e-94ec-b055843e08a9,Owner 8823,+91XXXXXXXXXX,,Delhi,IN,Seller,Generated
a56fd6a4-1096-47c3-963a-9b9909ac909c,Owner 8252,+91XXXXXXXXXX,,London,IN,Seller,Generated
d9f1b0db-59dc-458a-9635-81a60b23a1af,Owner 6535,+91XXXXXXXXXX,,Delhi,IN,Seller,Generated
b5ee563d-ed2b-4da3-8963-b0fb5a02abd2,Owner 9922,+91XXXXXXXXXX,,Delhi,IN,Seller,Generated
d10a7f8d-5c6c-4d2e-8c8d-937a44c2df7c,Owner 8799,+91XXXXXXXXXX,,New York,IN,Seller,Generated
0156e1a3-b9a1-4943-83cf-a8611c039106,Owner 5460,+91XXXXXXXXXX,,London,IN,Seller,Generated
8eeb5952-b09e-485d-952b-03d3c2db25b7,Owner 5450,+91XXXXXXXXXX,,Mumbai,IN,Seller,Generated
060d3c12-bd3c-4da6-9e5c-0d7c62af8599,Owner 108,+91XXXXXXXXXX,,New York,IN,Seller,Generated
a83b16ae-c904-4180-8574-628d5b2299fc,Owner 5667,+91XXXXXXXXXX,,Delhi,IN,Seller,Generated
4a749d31-daa3-498f-a042-7a447885146b,Owner 1174,+91XXXXXXXXXX,,Delhi,IN,Seller,Generated
351257a3-5bc1-4119-9499-05897de37069,Owner 6071,+91XXXXXXXXXX,,Mumbai,IN,Seller,Generated
aa2569cf-4e3c-4eaa-9322-2b1f6d988091,Owner 8749,+91XXXXXXXXXX,,New York,IN,Seller,Generated
fc83b87d-5661-4e82-8856-15b996093fc7,Owner 9970,+91XXXXXXXXXX,,London,IN,Seller,Generated
8236b1fa-a871-4a11-ac47-d66dae2b548b,Owner 3918,+91XXXXXXXXXX,,New York,IN,Seller,Generated
ca384010-7894-4319-aca3-aca5c0facce1,Owner 8806,+91XXXXXXXXXX,,New York,IN,Seller,Generated
f82bf078-ac64-4581-9437-55c7978d9eba,Owner 82,+91XXXXXXXXXX,,New York,IN,Seller,Generated
eda4ef47-2fb5-4f4f-802f-5e3f629acc22,Owner 4751,+91XXXXXXXXXX,,Mumbai,IN,Seller,Generated
74490477-0697-4295-8a01-09fad07d741a,Owner 258,+91XXXXXXXXXX,,Mumbai,IN,Seller,Generated
b2f9b847-9e01-4714-86ee-7550126e42c8,Owner 1965,+91XXXXXXXXXX,,New York,IN,Seller,Generated
0be44f2b-fc0d-4eb3-9797-148954be6d8c,Owner 3823,+91XXXXXXXXXX,,Mumbai,IN,Seller,Generated
6b87214d-dc7a-4868-8cfd-e629210ff9ad,Owner 7952,+91XXXXXXXXXX,,Delhi,IN,Seller,Generated
78d1daff-beed-44fa-87f7-42684d9ed3e7,Owner 5566,+91XXXXXXXXXX,,London,IN,Seller,Generated
6b4e6489-131b-4d32-939d-65f609868d50,Owner 770,+91XXXXXXXXXX,,Mumbai,IN,Seller,Generated
532ae05e-1a2c-47a5-8dca-5a923f3b2d46,Owner 7984,+91XXXXXXXXXX,,London,IN,Seller,Generated
b6db98b4-2401-47f2-9a99-3a4b33efa02e,Owner 6338,+91XXXXXXXXXX,,London,IN,Seller,Generated
3f0d5938-a4c8-48a8-98e6-109c5cfc39dc,Owner 3317,+91XXXXXXXXXX,,London,IN,Seller,Generated
39c9bde5-2ed3-487a-b15c-670e9db8b3a2,Owner 2596,+91XXXXXXXXXX,,Mumbai,IN,Seller,Generated
a5a53b5d-39d6-46a9-b076-542506c53591,Owner 4762,+91XXXXXXXXXX,,London,IN,Seller,Generated
918185c2-e9ad-4a2f-9836-09d2f2c5e9c2,Owner 2830,+91XXXXXXXXXX,,Mumbai,IN,Seller,Generated
842b6d0f-325a-41bb-9220-589f69a3d572,Owner 6154,+91XXXXXXXXXX,,London,IN,Seller,Generated
cf018baa-97f7-45b8-98c2-159b0f59f3b8,Owner 4212,+91XXXXXXXXXX,,New York,IN,Seller,Generated
17ec35b8-9deb-4d06-b38f-28af56420671,Owner 9544,+91XXXXXXXXXX,,Mumbai,IN,Seller,Generated
c30b5aee-8efa-45ad-b603-38d225355f40,Owner 3746,+91XXXXXXXXXX,,New York,IN,Seller,Generated
54789480-fd09-44e4-998d-7724653dc25d,Owner 4391,+91XXXXXXXXXX,,Delhi,IN,Seller,Generated
059c1e87-1fa4-44c9-b631-3da97bc08908,Owner 7938,+91XXXXXXXXXX,,New York,IN,Seller,Generated
9daca17b-4483-43df-a629-70afa5bab0f5,Owner 4605,+91XXXXXXXXXX,,New York,IN,Seller,Generated
21cb5ebc-40af-45c9-86e6-71b166911f80,Owner 2672,+91XXXXXXXXXX,,Delhi,IN,Seller,Generated
65fcd752-1f00-4bdc-b21d-9d394f104ca9,Owner 4923,+91XXXXXXXXXX,,Delhi,IN,Seller,Generated
d4aa838a-01ec-40e6-84c9-c6b193c6936f,Owner 5423,+91XXXXXXXXXX,,Mumbai,IN,Seller,Generated
340d03e6-c031-46a0-a178-9d44ee9e196b,Owner 4442,+91XXXXXXXXXX,,New York,IN,Seller,Generated
e197820b-db33-4297-b57d-37c6598743cf,Owner 4315,+91XXXXXXXXXX,,London,IN,Seller,Generated
0bd35335-12ef-48c9-8761-fa443d73a2ff,Owner 3662,+91XXXXXXXXXX,,Delhi,IN,Seller,Generated
a40d89d0-db1a-43ec-ba4c-cd463e1b47dc,Owner 6973,+91XXXXXXXXXX,,London,IN,Seller,Generated
90d63a5e-589f-45cc-8844-c4f819b4207c,Owner 8425,+91XXXXXXXXXX,,New York,IN,Seller,Generated
70b80df9-3abc-471e-ab7f-1899c2ba0dcb,Owner 5122,+91XXXXXXXXXX,,London,IN,Seller,Generated
a8bdebe8-ded4-4445-bfe9-04c248ded053,Owner 2648,+91XXXXXXXXXX,,New York,IN,Seller,Generated
e7352876-e76c-411b-b828-7afc731ee6e8,Owner 2314,+91XXXXXXXXXX,,Mumbai,IN,Seller,Generated
0da4a602-02a6-4b97-b2b4-266be05bfe9f,Owner 4065,+91XXXXXXXXXX,,Delhi,IN,Seller,Generated
281874b0-33bc-4200-803d-e0def86d3e22,Owner 5008,+91XXXXXXXXXX,,Mumbai,IN,Seller,Generated
e38d326f-41f9-4ffa-8804-43a8cb06af6b,Owner 8766,+91XXXXXXXXXX,,New York,IN,Seller,Generated
df167079-626e-4fa6-a53c-6725a05e8b75,Owner 9192,+91XXXXXXXXXX,,Delhi,IN,Seller,Generated
1b61e59f-4bbc-44d3-90aa-d3145e0ceb49,Owner 9011,+91XXXXXXXXXX,,New York,IN,Seller,Generated
bfdfca14-cbee-404b-8772-02e11422a7e8,Owner 9963,+91XXXXXXXXXX,,New York,IN,Seller,Generated
6b8574a5-5712-4f30-a8d6-8a59f39df63f,Owner 119,+91XXXXXXXXXX,,Mumbai,IN,Seller,Generated
2347e10e-eeca-4d85-b86e-2ce70bee0385,Owner 8952,+91XXXXXXXXXX,,Delhi,IN,Seller,Generated
d5619cd2-73df-436c-9c10-517c0e259945,Owner 4027,+91XXXXXXXXXX,,Mumbai,IN,Seller,Generated
d1f58b52-4104-4793-bb92-a009a671b30d,Owner 9978,+91XXXXXXXXXX,,London,IN,Seller,Generated
38122d96-377c-49ed-85fe-bd6512d52d3b,Owner 1204,+91XXXXXXXXXX,,London,IN,Seller,Generated
b703b728-d970-4362-a6a2-5d097357a390,Owner 9348,+91XXXXXXXXXX,,New York,IN,Seller,Generated
fc8c696e-12fd-47da-a432-25507560e15c,Owner 2143,+91XXXXXXXXXX,,Delhi,IN,Seller,Generated
95de74ff-e7d9-4fd0-8675-2065ca00150d,Owner 5715,+91XXXXXXXXXX,,Delhi,IN,Seller,Generated
3361eb9d-8a74-42e1-9d4d-0931f523b8d3,Owner 9517,+91XXXXXXXXXX,,New York,IN,Seller,Generated
5e00c8f1-89cf-4fce-90f7-961ee713d7a7,Owner 6509,+91XXXXXXXXXX,,Mumbai,IN,Seller,Generated
08d33391-ecca-42e5-b29f-168471dc3add,Owner 9470,+91XXXXXXXXXX,,London,IN,Seller,Generated
a1151d7b-56ce-4032-8708-943604224b00,Owner 5109,+91XXXXXXXXXX,,New York,IN,Seller,Generated
4e93f45c-990a-4975-8326-6a86d423f371,Owner 9368,+91XXXXXXXXXX,,Mumbai,IN,Seller,Generated
69a6917b-e699-4dc5-86f7-6a70cfca5ce5,Owner 3849,+91XXXXXXXXXX,,London,IN,Seller,Generated
768037b6-92d4-4982-8a46-1143468be157,Owner 3426,+91XXXXXXXXXX,,Delhi,IN,Seller,Generated
e38f1db2-0aa3-4383-9cb7-3710d64962b2,Owner 288,+91XXXXXXXXXX,,London,IN,Seller,Generated
e87ec4c1-fa5a-4758-ba53-780637026b3b,Owner 8739,+91XXXXXXXXXX,,New York,IN,Seller,Generated
bd061eef-f803-40ae-8d2b-c0efe2e297bb,Owner 3205,+91XXXXXXXXXX,,New York,IN,Seller,Generated
25dee043-9538-4180-a575-75520203e24c,Owner 4603,+91XXXXXXXXXX,,Delhi,IN,Seller,Generated
035996e4-6837-4ec5-94ac-7ef9e81e929c,Owner 3694,+91XXXXXXXXXX,,Delhi,IN,Seller,Generated
fa542fde-c850-4085-9ec1-c15886d9129c,Owner 3760,+91XXXXXXXXXX,,Mumbai,IN,Seller,Generated
9e64a1d3-f654-49f3-9053-17c55a4f3802,Owner 3878,+91XXXXXXXXXX,,Mumbai,IN,Seller,Generated
fcd420ba-dda2-4951-8a30-bf7065075976,Owner 3722,+91XXXXXXXXXX,,Delhi,IN,Seller,Generated
f822e8a3-615a-4815-b1c9-69b512458c67,Owner 905,+91XXXXXXXXXX,,London,IN,Seller,Generated
5bad190c-22b5-441b-9f48-0b2eb8a7715c,Owner 1437,+91XXXXXXXXXX,,Delhi,IN,Seller,Generated
d5443c7d-8dec-46d8-b4da-a9c8eed8594c,Owner 4387,+91XXXXXXXXXX,,New York,IN,Seller,Generated
897d3142-4f7b-4fa6-992c-80c4c60c279c,Owner 126,+91XXXXXXXXXX,,New York,IN,Seller,Generated
dbe7d813-69b4-461d-8ea0-05a3823b1aa6,Owner 9498,+91XXXXXXXXXX,,London,IN,Seller,Generated
3d3abcb6-f2b3-4736-a898-6ca123566335,Owner 856,+91XXXXXXXXXX,,Mumbai,IN,Seller,Generated
1a74bab7-c17a-4a4e-8e64-2b628868e406,Owner 5197,+91XXXXXXXXXX,,London,IN,Seller,Generated
154e85d6-abca-4da9-93f9-b6db5661edc8,Owner 3920,+91XXXXXXXXXX,,New York,IN,Seller,Generated
63eb457b-a2ab-4134-9675-610a0da13bca,Owner 2642,+91XXXXXXXXXX,,Delhi,IN,Seller,Generated
0355a963-8b26-4290-8304-7926279f9e10,Owner 73,+91XXXXXXXXXX,,London,IN,Seller,Generated
17d8ff51-be09-407b-bfea-ae374e8aa3bc,Owner 9276,+91XXXXXXXXXX,,London,IN,Seller,Generated
4e8372aa-a403-40e6-ba39-5bc2ffe26abc,Owner 6187,+91XXXXXXXXXX,,Delhi,IN,Seller,Generated
16c9590c-3e52-4df7-a650-b864269af8a8,Owner 9841,+91XXXXXXXXXX,,Delhi,IN,Seller,Generated
d7319a57-bac7-4496-b5aa-637ee4b5ad31,Owner 2947,+91XXXXXXXXXX,,London,IN,Seller,Generated
a100802e-d70b-452c-b7bc-9c7989b00e7a,Owner 4896,+91XXXXXXXXXX,,Mumbai,IN,Seller,Generated
1c80f28c-1295-4404-918c-5c74b57d2f00,Owner 3597,+91XXXXXXXXXX,,London,IN,Seller,Generated
afd12f44-80e8-425f-bc07-d5d75ccab54c,Owner 7265,+91XXXXXXXXXX,,London,IN,Seller,Generated
eeeb1643-38ae-46b1-a4c2-a29397232be6,Owner 8817,+91XXXXXXXXXX,,New York,IN,Seller,Generated
5c803ff6-f2fa-4c92-a79c-90d20e6395cb,Owner 8502,+91XXXXXXXXXX,,Mumbai,IN,Seller,Generated
ecc5bb7e-5c77-4a83-8a89-4c3855f963bb,Owner 9085,+91XXXXXXXXXX,,Mumbai,IN,Seller,Generated
21d74021-72cc-4949-9244-3dd6969d5988,Owner 4231,+91XXXXXXXXXX,,Mumbai,IN,Seller,Generated
f1b0860e-68ae-48d6-b0f7-6d804651e479,Owner 9491,+91XXXXXXXXXX,,Mumbai,IN,Seller,Generated
0c512fc0-3b07-4f12-8230-73a55b0c5bcc,Owner 896,+91XXXXXXXXXX,,London,IN,Seller,Generated
170446e0-c6a9-4c89-844f-556d847d16c1,Owner 2933,+91XXXXXXXXXX,,New York,IN,Seller,Generated
d52e5d52-9373-4b5c-9f4a-4c987da2d3e7,Owner 1383,+91XXXXXXXXXX,,Delhi,IN,Seller,Generated
5425a2a0-5452-4c36-b355-fcdcf3d851d5,Owner 6630,+91XXXXXXXXXX,,London,IN,Seller,Generated
74b14737-56a4-4c67-ad50-7ef290ef36b3,Owner 7920,+91XXXXXXXXXX,,Mumbai,IN,Seller,Generated
4fc9d670-9539-4b21-ab97-f458aa08ce86,Owner 1549,+91XXXXXXXXXX,,London,IN,Seller,Generated
aecb478c-0611-4da1-90e9-d98b5c53905d,Owner 7058,+91XXXXXXXXXX,,Delhi,IN,Seller,Generated
40d05444-635c-4f94-9869-b7ab58f16298,Owner 9794,+91XXXXXXXXXX,,Mumbai,IN,Seller,Generated
c8b179a9-2506-490f-b710-257872bd57da,Owner 5876,+91XXXXXXXXXX,,Delhi,IN,Seller,Generated
0e6100cd-af91-42f7-b065-ca206ee2c42b,Owner 7768,+91XXXXXXXXXX,,Mumbai,IN,Seller,Generated
068816a7-b336-4984-bc27-ca31f8b56ff4,Owner 9148,+91XXXXXXXXXX,,Mumbai,IN,Seller,Generated
d3b3000c-7d8e-4be3-96f5-a0a97c9e7e46,Owner 4443,+91XXXXXXXXXX,,New York,IN,Seller,Generated
01083df3-bcc5-49c9-b66b-4af30efaf038,Owner 9725,+91XXXXXXXXXX,,New York,IN,Seller,Generated
91c91516-af75-46c7-92fd-68f9ccf884ff,Owner 5481,+91XXXXXXXXXX,,Mumbai,IN,Seller,Generated
0f072c9e-9d06-44f2-a3ea-49a59596cd48,Owner 2888,+91XXXXXXXXXX,,London,IN,Seller,Generated
b6278bba-fbbf-4c3b-b3c0-88abb4f3be28,Owner 6059,+91XXXXXXXXXX,,Mumbai,IN,Seller,Generated
751a8281-b7b9-4c1e-b52d-3eeb7054ed6a,Owner 2568,+91XXXXXXXXXX,,Mumbai,IN,Seller,Generated
29ff5474-bfb1-47e1-b53e-eee792bfaa43,Owner 4713,+91XXXXXXXXXX,,Mumbai,IN,Seller,Generated
9aa95bd0-64e9-438d-8478-6c9abe723ef6,Owner 8734,+91XXXXXXXXXX,,New York,IN,Seller,Generated
46c7d810-e7e8-4c60-9a5b-d0df79d8fcd2,Owner 4400,+91XXXXXXXXXX,,Mumbai,IN,Seller,Generated
3997feb4-f80b-4caf-90ab-f2627d311cc4,Owner 316,+91XXXXXXXXXX,,Mumbai,IN,Seller,Generated
373ef15d-ed9f-4255-9c5d-e027e7fd407a,Owner 6574,+91XXXXXXXXXX,,Mumbai,IN,Seller,Generated
def90548-c8f2-4120-a809-8da8fa99891f,Owner 2947,+91XXXXXXXXXX,,Delhi,IN,Seller,Generated
79b7e0a2-7bf4-4b8a-a3c2-8b34ffb8b6f2,Owner 1232,+91XXXXXXXXXX,,Mumbai,IN,Seller,Generated
5d79f485-dffb-4a50-93a3-ceae736f3104,Owner 9667,+91XXXXXXXXXX,,Mumbai,IN,Seller,Generated
78759795-f0d3-40df-b4ef-7205647491d6,Owner 9776,+91XXXXXXXXXX,,New York,IN,Seller,Generated
09e51ac5-4bf1-41cb-b4e5-25a6a89c4b39,Owner 6308,+91XXXXXXXXXX,,London,IN,Seller,Generated
e0c8baf5-7dda-4963-9562-59bfdfc4bac7,Owner 2930,+91XXXXXXXXXX,,Delhi,IN,Seller,Generated
65f507b1-b720-495a-a9c7-b8ca82aa8f3c,Owner 1560,+91XXXXXXXXXX,,Delhi,IN,Seller,Generated
f0c3913f-378e-495e-a464-887f745a1e7e,Owner 7167,+91XXXXXXXXXX,,Delhi,IN,Seller,Generated
4ca99e60-7a7f-4168-9fe9-1b873d059edf,Owner 4568,+91XXXXXXXXXX,,Mumbai,IN,Seller,Generated
086e8e7c-4a28-450e-ab89-d56bebbddd0a,Owner 6174,+91XXXXXXXXXX,,Mumbai,IN,Seller,Generated
f3701bc1-14de-47b4-9393-b00b501cd16b,Owner 1413,+91XXXXXXXXXX,,London,IN,Seller,Generated
0fa51f27-60a5-4fd6-9ab3-87d847c36af2,Owner 2381,+91XXXXXXXXXX,,Mumbai,IN,Seller,Generated
a42f0fbf-761c-49b9-812a-dad06b798128,Owner 9849,+91XXXXXXXXXX,,London,IN,Seller,Generated
cc60cddf-3b55-4210-ad7f-51f294f39c6d,Owner 8930,+91XXXXXXXXXX,,New York,IN,Seller,Generated
4ab3a825-690e-4144-955a-05331854b786,Owner 4228,+91XXXXXXXXXX,,New York,IN,Seller,Generated
f6bb2445-1102-49db-a27d-3b0538725171,Owner 4880,+91XXXXXXXXXX,,New York,IN,Seller,Generated
7602d380-a324-485a-a3ef-ca27e21410d1,Owner 5717,+91XXXXXXXXXX,,London,IN,Seller,Generated
c0b1a8ad-81c9-4799-a0a1-bf6350bb69b2,Owner 7673,+91XXXXXXXXXX,,New York,IN,Seller,Generated
23f421d8-ec98-4172-8234-2ea5f5352678,Owner 823,+91XXXXXXXXXX,,New York,IN,Seller,Generated
a15f0960-e920-4d58-b660-b2f111e29d54,Owner 1249,+91XXXXXXXXXX,,Mumbai,IN,Seller,Generated
8f94249e-ca70-4976-a440-ab326d8c0fcf,Owner 5330,+91XXXXXXXXXX,,Mumbai,IN,Seller,Generated
56c2338f-dcc0-40fa-837d-3b23092d3a7b,Owner 6506,+91XXXXXXXXXX,,New York,IN,Seller,Generated
f650c27d-fd87-469e-bbd9-64334814c9fd,Owner 9800,+91XXXXXXXXXX,,Delhi,IN,Seller,Generated
16501f76-ad6e-4711-b7a8-4c1aab085925,Owner 2066,+91XXXXXXXXXX,,New York,IN,Seller,Generated
8933a438-2f95-4141-8fee-7464710f70ca,Owner 1689,+91XXXXXXXXXX,,Mumbai,IN,Seller,Generated
bca96792-b697-415d-b270-37548aeaef98,Owner 6561,+91XXXXXXXXXX,,Delhi,IN,Seller,Generated
72aa4742-d32f-4745-becb-e56401fe18e8,Owner 99,+91XXXXXXXXXX,,Mumbai,IN,Seller,Generated
3cdc0076-2195-4aa5-9b42-266d557a70cf,Owner 5921,+91XXXXXXXXXX,,Delhi,IN,Seller,Generated
3e566402-2b46-4cf4-921f-6dd5f016b6ca,Owner 1747,+91XXXXXXXXXX,,Delhi,IN,Seller,Generated
f9bea7f7-1d6b-483a-84c8-34bb7457e590,Owner 9088,+91XXXXXXXXXX,,Delhi,IN,Seller,Generated
b4fc7e5d-6337-4cae-8204-447a9cbc98f3,Owner 1855,+91XXXXXXXXXX,,New York,IN,Seller,Generated
ce9dca75-3370-40d5-8ee6-f9097f9593ec,Owner 2240,+91XXXXXXXXXX,,Delhi,IN,Seller,Generated
450869e3-78a6-4031-aae8-75db74cad738,Owner 812,+91XXXXXXXXXX,,Mumbai,IN,Seller,Generated
2d5baecc-3f02-4f06-9fc3-84dd83687991,Owner 4935,+91XXXXXXXXXX,,Delhi,IN,Seller,Generated
008e9a55-4544-4a71-8060-6254512f45b7,Owner 2610,+91XXXXXXXXXX,,Mumbai,IN,Seller,Generated
ba01e69f-53e5-4c5b-98ef-1003cd339767,Owner 4028,+91XXXXXXXXXX,,Delhi,IN,Seller,Generated
f37b7e79-7cc4-4586-b597-915b17c8b19e,Owner 8375,+91XXXXXXXXXX,,Delhi,IN,Seller,Generated
20d3a485-9040-4381-a8fc-42b6de7cefb0,Owner 943,+91XXXXXXXXXX,,London,IN,Seller,Generated
a40ff38e-2af8-401d-93dd-121b7d10974f,Owner 253,+91XXXXXXXXXX,,Delhi,IN,Seller,Generated
b256abf9-682e-483f-aeb7-c62df2193631,Owner 6927,+91XXXXXXXXXX,,New York,IN,Seller,Generated
acd12c06-9d51-4c57-b5fd-c338074d5957,Owner 1903,+91XXXXXXXXXX,,New York,IN,Seller,Generated
a93ddf66-8dcf-4009-a295-825a3362569b,Owner 1127,+91XXXXXXXXXX,,New York,IN,Seller,Generated
deee038f-4060-4382-9843-0f1f76b1c5b2,Owner 4672,+91XXXXXXXXXX,,Delhi,IN,Seller,Generated
7b7198b0-0bfc-4373-bbd8-cfe5cada2d6e,Owner 208,+91XXXXXXXXXX,,Mumbai,IN,Seller,Generated
28d3f365-440f-446c-9a95-6dde7a186587,Owner 4728,+91XXXXXXXXXX,,London,IN,Seller,Generated
b5341165-9c3e-4310-ba3a-b9066e87058b,Owner 4877,+91XXXXXXXXXX,,Mumbai,IN,Seller,Generated
86a08e11-2c75-46f7-b8db-3466bbe93223,Owner 3180,+91XXXXXXXXXX,,London,IN,Seller,Generated
03d10ba3-3e85-4ae1-8b7f-fc425f182303,Owner 1973,+91XXXXXXXXXX,,Delhi,IN,Seller,Generated
c5b55533-f9a6-4421-8438-067e9ba58a66,Owner 4566,+91XXXXXXXXXX,,London,IN,Seller,Generated
9d765ad9-42cb-450a-bf63-963da685c068,Owner 5232,+91XXXXXXXXXX,,Mumbai,IN,Seller,Generated
3f3d42c1-cf25-412d-9745-8411930db028,Owner 2764,+91XXXXXXXXXX,,Delhi,IN,Seller,Generated
f04e61b8-6f30-4953-846e-9c300f9ad6d1,Owner 9555,+91XXXXXXXXXX,,New York,IN,Seller,Generated
d4e9e29c-7397-49f8-8125-6da5969ec29d,Owner 4487,+91XXXXXXXXXX,,Delhi,IN,Seller,Generated
f1f7a5b7-46f0-4459-a72e-c554afd0e492,Owner 8327,+91XXXXXXXXXX,,Mumbai,IN,Seller,Generated
877a050c-8d61-42f7-8d67-fe23552bdadf,Owner 2488,+91XXXXXXXXXX,,London,IN,Seller,Generated
05d76d35-1cf1-4543-8723-a157d58e74d5,Owner 4553,+91XXXXXXXXXX,,New York,IN,Seller,Generated
24b175bc-9b42-460d-95da-457e654fcd3b,Owner 5216,+91XXXXXXXXXX,,London,IN,Seller,Generated
7625fe14-f5f0-4fc8-8506-6240327a1eb2,Owner 4784,+91XXXXXXXXXX,,Delhi,IN,Seller,Generated
5bffe8e4-7b58-4391-941d-187889e5ccb7,Owner 8640,+91XXXXXXXXXX,,New York,IN,Seller,Generated
fe94ac3b-57ba-443e-abaf-4a9dffba537d,Owner 8264,+91XXXXXXXXXX,,New York,IN,Seller,Generated
40117db0-194a-4f0a-9d9c-8d1dc6b31152,Owner 4344,+91XXXXXXXXXX,,Mumbai,IN,Seller,Generated
81551cd6-160d-4a8b-a55f-ccdaf7fdb41d,Owner 2630,+91XXXXXXXXXX,,Delhi,IN,Seller,Generated
933dc4d7-11af-41d5-a405-9bfd150290bb,Owner 4849,+91XXXXXXXXXX,,London,IN,Seller,Generated
4a526729-f075-4d21-83e5-d5c6427f7494,Owner 9794,+91XXXXXXXXXX,,Delhi,IN,Seller,Generated
7cd7e365-3777-4082-9c3a-124df64b0916,Owner 2538,+91XXXXXXXXXX,,Mumbai,IN,Seller,Generated
1dd33343-dc80-4458-bd61-ae755e7e8abb,Owner 9678,+91XXXXXXXXXX,,London,IN,Seller,Generated
ce69fab5-f2cc-4902-82bc-b799c75d83b6,Owner 3474,+91XXXXXXXXXX,,London,IN,Seller,Generated
155b4c51-d53d-494c-b7df-8e324331364f,Owner 1599,+91XXXXXXXXXX,,Mumbai,IN,Seller,Generated
09609693-d20d-4f91-b891-43ac2e0ba1d8,Owner 2747,+91XXXXXXXXXX,,Mumbai,IN,Seller,Generated
112fc561-a210-41cb-b333-2a6d0b9bbe40,Owner 4800,+91XXXXXXXXXX,,Mumbai,IN,Seller,Generated
66474f67-0379-4694-8330-6aa4f08792ad,Owner 1921,+91XXXXXXXXXX,,New York,IN,Seller,Generated
bbbbb77d-0c22-45e2-8f0b-e941f98bb4fc,Owner 562,+91XXXXXXXXXX,,London,IN,Seller,Generated
2eb776f9-d049-4627-b532-e159348a89e4,Owner 4238,+91XXXXXXXXXX,,New York,IN,Seller,Generated
3ede336b-9b60-46a4-9638-51d6553be75f,Owner 7305,+91XXXXXXXXXX,,Delhi,IN,Seller,Generated
64a94f50-4783-4dd1-817c-3f2b73537705,Owner 1552,+91XXXXXXXXXX,,London,IN,Seller,Generated
2ea24c59-8ec1-4300-a9b3-a3c8117b98f9,Owner 7927,+91XXXXXXXXXX,,Delhi,IN,Seller,Generated
c838e187-e390-46f1-899f-36a61f7711fc,Owner 8922,+91XXXXXXXXXX,,New York,IN,Seller,Generated
37d8d482-8f12-422f-ae9f-2fbd9219e3c1,Owner 1274,+91XXXXXXXXXX,,London,IN,Seller,Generated
1836f252-6bbb-4d4b-92ca-5f377eadc94d,Owner 4891,+91XXXXXXXXXX,,Mumbai,IN,Seller,Generated
6faf4baa-0c97-47c4-b6d2-fa5ede665f89,Owner 9481,+91XXXXXXXXXX,,London,IN,Seller,Generated
78a629d1-01e7-44f8-8b32-ddc615e9c592,Owner 7466,+91XXXXXXXXXX,,London,IN,Seller,Generated
7434d78e-90c2-4907-9ddf-cfb5ee7c066e,Owner 4494,+91XXXXXXXXXX,,London,IN,Seller,Generated
44edb9fc-f85b-4741-a58d-a82354074490,Owner 6751,+91XXXXXXXXXX,,New York,IN,Seller,Generated
feb75c73-3175-4055-b627-017068c28135,Owner 3728,+91XXXXXXXXXX,,New York,IN,Seller,Generated
5bd62734-dcd9-49dc-89cc-452e82ab4a21,Owner 1019,+91XXXXXXXXXX,,London,IN,Seller,Generated
5561020e-1a1c-4a3d-9112-df189e0ea9c8,Owner 2349,+91XXXXXXXXXX,,Mumbai,IN,Seller,Generated
6d5a91e8-6c40-42f2-b599-4dac8a01d4d7,Owner 7369,+91XXXXXXXXXX,,Mumbai,IN,Seller,Generated
08ed60e8-44d2-4542-8f60-8b98543d3d19,Owner 1551,+91XXXXXXXXXX,,New York,IN,Seller,Generated
d972641d-7b5c-446b-9aa5-fbbb27917ac5,Owner 2167,+91XXXXXXXXXX,,Delhi,IN,Seller,Generated
b7e17e9c-abfa-40a5-a49a-6b31d620f600,Owner 622,+91XXXXXXXXXX,,Mumbai,IN,Seller,Generated
70eb38fc-195f-4ea6-ab2d-34d810f03635,Owner 2837,+91XXXXXXXXXX,,Mumbai,IN,Seller,Generated
cd8f9f57-309f-45b2-a0a1-af2820934399,Owner 4685,+91XXXXXXXXXX,,Mumbai,IN,Seller,Generated
d2e72381-8b50-49fd-938b-06c514570c4c,Owner 5342,+91XXXXXXXXXX,,Delhi,IN,Seller,Generated
05f0ff1f-dbae-4674-83be-f516523bac2d,Owner 9010,+91XXXXXXXXXX,,Mumbai,IN,Seller,Generated
730a763d-bd6f-41f8-9694-bec498e0599c,Owner 4525,+91XXXXXXXXXX,,London,IN,Seller,Generated
15bfb3a1-41ff-4a75-a135-11eb46b8647d,Owner 90,+91XXXXXXXXXX,,Mumbai,IN,Seller,Generated
cc687c6f-7764-4fc0-b6d2-e619e4e3bcbe,Owner 8573,+91XXXXXXXXXX,,New York,IN,Seller,Generated
09ace34f-09df-41b6-83b0-6dec5b70ea86,Owner 9260,+91XXXXXXXXXX,,London,IN,Seller,Generated
7abcd140-036f-4901-97ff-2db40ab53364,Owner 2689,+91XXXXXXXXXX,,Delhi,IN,Seller,Generated
cddc5993-4bdb-43bf-9cd8-371d7c5deb8b,Owner 2350,+91XXXXXXXXXX,,New York,IN,Seller,Generated
4ad0ff86-9e82-4a82-a4a2-009057824e34,Owner 7664,+91XXXXXXXXXX,,Delhi,IN,Seller,Generated
4a15e999-6428-4887-b240-33ed8cc174e1,Owner 2698,+91XXXXXXXXXX,,New York,IN,Seller,Generated
573ac7ca-e2a3-40d6-af63-c816dc21a605,Owner 9189,+91XXXXXXXXXX,,Mumbai,IN,Seller,Generated
a48b5b43-772a-4918-91d9-5eacb474c6b1,Owner 3746,+91XXXXXXXXXX,,New York,IN,Seller,Generated
338f2fed-474e-404c-b646-7b6f66332aa0,Owner 9781,+91XXXXXXXXXX,,New York,IN,Seller,Generated
f1674652-68b9-447d-ab57-22efbee775ea,Owner 2331,+91XXXXXXXXXX,,London,IN,Seller,Generated
fe2bff9f-c63c-4495-83e8-35e23d39d90b,Owner 3447,+91XXXXXXXXXX,,New York,IN,Seller,Generated
b3bc54e3-13ec-4164-abf0-3d792394cbe0,Owner 3862,+91XXXXXXXXXX,,Delhi,IN,Seller,Generated
d0a72d57-6787-46de-aadb-5c7df6c3087a,Owner 8961,+91XXXXXXXXXX,,Delhi,IN,Seller,Generated
fff3781f-fb89-413c-aa5a-caa15e4bfc8b,Owner 1564,+91XXXXXXXXXX,,New York,IN,Seller,Generated
3bf237e3-4ed7-4aa8-9e85-3b69c8f1fb32,Owner 6553,+91XXXXXXXXXX,,Delhi,IN,Seller,Generated
1c7d6f3a-0d76-4aa7-8821-a6ca13663b32,Owner 9115,+91XXXXXXXXXX,,Delhi,IN,Seller,Generated
b83add42-bfcd-4d6f-ae4f-71f9d6f38e49,Owner 3111,+91XXXXXXXXXX,,Delhi,IN,Seller,Generated
da141c5f-5285-499f-9f1b-f026a25d0e8b,Owner 9265,+91XXXXXXXXXX,,Mumbai,IN,Seller,Generated
e36866b5-8b64-4e8b-b464-b2760dbd4f03,Owner 7343,+91XXXXXXXXXX,,Delhi,IN,Seller,Generated
3fef582f-0085-4c56-8715-e6d586a483aa,Owner 3653,+91XXXXXXXXXX,,Delhi,IN,Seller,Generated
1ef8dd08-7bd7-4aca-8a67-e72cdf811c41,Owner 3866,+91XXXXXXXXXX,,London,IN,Seller,Generated
740cf9c6-cbc9-4110-8763-ca61b22dd7b2,Owner 8630,+91XXXXXXXXXX,,Delhi,IN,Seller,Generated
9d61f286-1fcc-4213-aed8-783f01e0cde8,Owner 6655,+91XXXXXXXXXX,,Delhi,IN,Seller,Generated
d53b2868-cf9d-4527-90b3-a7d42b9b2f06,Owner 1985,+91XXXXXXXXXX,,London,IN,Seller,Generated
d60b059a-69d6-4997-9939-9b466da1c19d,Owner 2691,+91XXXXXXXXXX,,Delhi,IN,Seller,Generated
69c201f6-bce9-47b5-a7b1-15712897b5ec,Owner 5791,+91XXXXXXXXXX,,New York,IN,Seller,Generated
388ca99b-be3c-40d8-ae31-a6f8a17b86cb,Owner 7391,+91XXXXXXXXXX,,New York,IN,Seller,Generated
b07f4af0-2ab7-412e-97c5-c0a81a2a9bce,Owner 3004,+91XXXXXXXXXX,,New York,IN,Seller,Generated
b99cd331-951e-4a8b-8990-82792e7ca568,Owner 6854,+91XXXXXXXXXX,,London,IN,Seller,Generated
f374fb5f-b2b5-4998-8a7e-1207fc15573f,Owner 9164,+91XXXXXXXXXX,,Mumbai,IN,Seller,Generated
d0a6df83-6730-4917-ad9a-f3eae81e7840,Owner 2610,+91XXXXXXXXXX,,Mumbai,IN,Seller,Generated
b3d1b21c-ad11-459e-b93f-b368b7e831df,Owner 2797,+91XXXXXXXXXX,,Mumbai,IN,Seller,Generated
6cd55d54-098f-4d46-bb0d-022ab3c7e614,Owner 9067,+91XXXXXXXXXX,,London,IN,Seller,Generated
2228d4c9-a9c9-45f3-9926-7e4e1ff68ccf,Owner 1856,+91XXXXXXXXXX,,Mumbai,IN,Seller,Generated
8f97bd0a-da7e-4328-bf90-54c7a6caef9a,Owner 234,+91XXXXXXXXXX,,New York,IN,Seller,Generated
70565062-0886-4b96-b60c-247797c165c0,Owner 8067,+91XXXXXXXXXX,,London,IN,Seller,Generated
0c010980-f8ec-4ad1-a45a-a8361358f7c2,Owner 6441,+91XXXXXXXXXX,,Mumbai,IN,Seller,Generated
a54c7487-40d6-4c8d-92dc-e9d4e87e96e9,Owner 9015,+91XXXXXXXXXX,,New York,IN,Seller,Generated
82771546-dd49-4ef1-9364-78f084c2931e,Owner 7310,+91XXXXXXXXXX,,London,IN,Seller,Generated
d5c72875-e17e-4b1e-a6d7-d9f2c2221663,Owner 5074,+91XXXXXXXXXX,,Mumbai,IN,Seller,Generated
148bd3e0-32a2-41a5-9527-6552acd8ad88,Owner 4645,+91XXXXXXXXXX,,London,IN,Seller,Generated
cdb97e66-0547-406b-9e2f-471f1e60cc1c,Owner 8009,+91XXXXXXXXXX,,Delhi,IN,Seller,Generated
677f657a-11cd-4bad-9f53-0b716c3397f4,Owner 622,+91XXXXXXXXXX,,Mumbai,IN,Seller,Generated
25a260c4-189d-45f1-9c81-274ac3189cf5,Owner 2588,+91XXXXXXXXXX,,Delhi,IN,Seller,Generated
f3d5a920-2d84-4d18-add6-e447ff05e809,Owner 4105,+91XXXXXXXXXX,,London,IN,Seller,Generated
adb37919-eca7-4136-a8d5-b9daae2119f5,Owner 6258,+91XXXXXXXXXX,,London,IN,Seller,Generated
fe4d194a-8f91-44e8-b387-bf36458561a1,Owner 5085,+91XXXXXXXXXX,,London,IN,Seller,Generated
642a4c96-384c-4772-8bd5-1d0e3dd876cf,Owner 561,+91XXXXXXXXXX,,Mumbai,IN,Seller,Generated
0b949b76-cb73-476a-87d9-128053219599,Owner 2803,+91XXXXXXXXXX,,Delhi,IN,Seller,Generated
19a682e3-11c5-43b6-999e-cddb4b973cfa,Owner 6448,+91XXXXXXXXXX,,New York,IN,Seller,Generated
3befd4cf-6d2e-44d3-a50c-af4cac3bbd0c,Owner 3066,+91XXXXXXXXXX,,Delhi,IN,Seller,Generated
4b4726f0-845f-4089-85ae-b42be10bbfcb,Owner 6884,+91XXXXXXXXXX,,New York,IN,Seller,Generated
