lead_id,name,phone,email,city,country,type,notes
84fdc793-d340-4fc3-b340-f3376a1d903e,Owner 485,+91XXXXXXXXXX,,New York,IN,Seller,Generated
23d408b0-03af-495f-a125-941ce6893a6b,Owner 7795,+91XXXXXXXXXX,,London,IN,Seller,Generated
a7ba4bdf-9901-4d92-b96b-94ec2ffafdb5,Owner 4551,+91XXXXXXXXXX,,New York,IN,Seller,Generated
4abfbf8e-49e3-43e8-9a9e-ade40e00869d,Owner 8940,+91XXXXXXXXXX,,Delhi,IN,Seller,Generated
e1ed2d13-f293-48e8-9059-e5baf9968f19,Owner 6330,+91XXXXXXXXXX,,New York,IN,Seller,Generated
f1401aec-81f7-41a4-a9e4-ababe3ecefe0,Owner 7217,+91XXXXXXXXXX,,Delhi,IN,Seller,Generated
10d07a00-bebe-45a8-9c6c-d496b02b92df,Owner 250,+91XXXXXXXXXX,,New York,IN,Seller,Generated
9d9949f7-ed6e-4d35-a0c1-904f31577286,Owner 8929,+91XXXXXXXXXX,,Delhi,IN,Seller,Generated
298cbdaa-cecf-444e-897f-33f12d1817ab,Owner 903,+91XXXXXXXXXX,,London,IN,Seller,Generated
1b876b84-694b-4166-8820-c3cad74b6fde,Owner 8770,+91XXXXXXXXXX,,New York,IN,Seller,Generated
28a2173c-fa30-426c-b3b4-ab9ca68e4aa1,Owner 1091,+91XXXXXXXXXX,,London,IN,Seller,Generated
81da25f3-4c54-4e33-8526-eddd71b93f9a,Owner 3599,+91XXXXXXXXXX,,London,IN,Seller,Generated
57e30ab0-72d2-4f70-b439-048670f89ba9,Owner 3148,+91XXXXXXXXXX,,New York,IN,Seller,Generated
2930b89a-647a-457b-896b-3f0a53f6d27c,Owner 8065,+91XXXXXXXXXX,,Delhi,IN,Seller,Generated
4b351c57-9df1-4b68-95e9-f2d0be29d5d1,Owner 9577,+91XXXXXXXXXX,,Delhi,IN,Seller,Generated
52ac8704-94e4-4d13-bfac-e8d211ba83c9,Owner 5115,+91XXXXXXXXXX,,Mumbai,IN,Seller,Generated
592a191e-7851-4d7f-896a-8806e9758689,Owner 8692,+91XXXXXXXXXX,,Delhi,IN,Seller,Generated
601b5602-2342-4ee6-88cd-7cd6f15c9af1,Owner 6411,+91XXXXXXXXXX,,Mumbai,IN,Seller,Generated
462b399b-710f-4d41-9ee7-c73172d4db2c,Owner 3383,+91XXXXXXXXXX,,Delhi,IN,Seller,Generated
d264bc54-26c9-479b-abee-70992b3fd9b3,Owner 4798,+91XXXXXXXXXX,,Delhi,IN,Seller,Generated
e202adf4-a697-48e0-9d44-7bf50bd1d839,Owner 7138,+91XXXXXXXXXX,,New York,IN,Seller,Generated
ae3b112b-bea9-46dd-a11d-43117182b578,Owner 8879,+91XXXXXXXXXX,,London,IN,Seller,Generated
685af1bb-8e90-4599-98e7-86a662eee7bc,Owner 3847,+91XXXXXXXXXX,,London,IN,Seller,Generated
41cf796a-e173-4163-8006-663ea17f79e8,Owner 5821,+91XXXXXXXXXX,,New York,IN,Seller,Generated
9ecce275-2ba5-4943-a1d8-6d09f5a1f01a,Owner 1885,+91XXXXXXXXXX,,London,IN,Seller,Generated
509f3f3e-0629-4f86-8b3c-f89f5b2a0822,Owner 451,+91XXXXXXXXXX,,New York,IN,Seller,Generated
1ca33af5-44f2-4e5b-89c1-fb329becab28,Owner 6610,+91XXXXXXXXXX,,Delhi,IN,Seller,Generated
e2560985-af73-4494-b6fa-0ec32e2070d5,Owner 5651,+91XXXXXXXXXX,,Mumbai,IN,Seller,Generated
3b0fb32d-10f3-4336-904d-aab25978ce6e,Owner 4985,+91XXXXXXXXXX,,Mumbai,IN,Seller,Generated
dc7377a8-e292-4aa1-813f-51600d2901b1,Owner 7277,+91XXXXXXXXXX,,Mumbai,IN,Seller,Generated
34573492-d779-46da-a076-95b4778b6f73,Owner 5573,+91XXXXXXXXXX,,Delhi,IN,Seller,Generated
6db01e10-18f6-4964-ab54-60fb765c7f80,Owner 7314,+91XXXXXXXXXX,,Mumbai,IN,Seller,Generated
76aaa53a-b783-48fe-8e49-e245a082e069,Owner 6909,+91XXXXXXXXXX,,London,IN,Seller,Generated
b526a5a4-95e8-4120-a0ce-0fc498e80015,Owner 7460,+91XXXXXXXXXX,,Mumbai,IN,Seller,Generated
b864de53-6976-4fd1-bea5-e5ba7d847950,Owner 4727,+91XXXXXXXXXX,,London,IN,Seller,Generated
1d0e0846-3746-45ae-8a3a-25159d651b5e,Owner 9115,+91XXXXXXXXXX,,Delhi,IN,Seller,Generated
3bfb660f-2dd1-4d0c-a3b2-45e24fe11c9f,Owner 9177,+91XXXXXXXXXX,,Mumbai,IN,Seller,Generated
f42cac10-70e9-4100-b3be-921130f0fc7d,Owner 1643,+91XXXXXXXXXX,,London,IN,Seller,Generated
08de5d19-23b3-4b36-ac74-0e93d676b720,Owner 5306,+91XXXXXXXXXX,,Delhi,IN,Seller,Generated
a8315c1b-65e9-42a5-ade2-cc618ddd7a69,Owner 1467,+91XXXXXXXXXX,,Delhi,IN,Seller,Generated
d95c51b9-7f3b-44a9-b130-c3192ee35e5b,Owner 7376,+91XXXXXXXXXX,,London,IN,Seller,Generated
856f974d-c734-4c8b-86cd-c59ac661ab69,Owner 7180,+91XXXXXXXXXX,,London,IN,Seller,Generated
6ee8cf6b-ff44-4e10-a4c0-63dcae31862c,Owner 1999,+91XXXXXXXXXX,,London,IN,Seller,Generated
d5558e19-484e-4566-b28b-47772325ed77,Owner 5222,+91XXXXXXXXXX,,Mumbai,IN,Seller,Generated
c4b1f1cc-21ae-4e1a-a9bb-204b1b389162,Owner 5047,+91XXXXXXXXXX,,Mumbai,IN,Seller,Generated
208ea54c-863d-4ae7-92b3-23e96e86aa39,Owner 5543,+91XXXXXXXXXX,,New York,IN,Seller,Generated
b4497fd5-0e5a-4009-8f35-a7e4141d3a87,Owner 1995,+91XXXXXXXXXX,,New York,IN,Seller,Generated
7a63a313-9c0b-4c09-86c3-65a06f24219f,Owner 6728,+91XXXXXXXXXX,,London,IN,Seller,Generated
6801fa37-83f3-40fb-9b27-01bc77264ded,Owner 9041,+91XXXXXXXXXX,,London,IN,Seller,Generated
b6bfdf14-137d-4535-be10-7bef483c1b95,Owner 8227,+91XXXXXXXXXX,,Delhi,IN,Seller,Generated
e35731a4-b302-4c4a-b469-a006cf0c6e8b,Owner 133,+91XXXXXXXXXX,,Delhi,IN,Seller,Generated
18450401-bb02-4423-a126-b92575cb1fab,Owner 5953,+91XXXXXXXXXX,,New York,IN,Seller,Generated
581421d6-62eb-413b-90c9-1246fe6cb5df,Owner 8253,+91XXXXXXXXXX,,New York,IN,Seller,Generated
27193ef1-3a43-4c7b-a03e-db866f2da488,Owner 6426,+91XXXXXXXXXX,,New York,IN,Seller,Generated
6e4edfb7-3f4b-4b41-8b87-e59fad4b6685,Owner 9314,+91XXXXXXXXXX,,New York,IN,Seller,Generated
b6c28bbc-4d02-4fa8-802b-ce9944b2d83b,Owner 7981,+91XXXXXXXXXX,,Delhi,IN,Seller,Generated
7025ec99-367c-48bb-952d-cf317fad0e8c,Owner 9945,+91XXXXXXXXXX,,London,IN,Seller,Generated
5c4ae456-6682-417a-87a2-e77d264252fb,Owner 6840,+91XXXXXXXXXX,,Delhi,IN,Seller,Generated
7fd2d4b3-7d70-47df-9453-ef5505762f3e,Owner 5867,+91XXXXXXXXXX,,New York,IN,Seller,Generated
7b329820-f269-416b-957e-5e3a2dc97318,Owner 1722,+91XXXXXXXXXX,,Mumbai,IN,Seller,Generated
e7c14dd6-5003-453f-923f-61f8fe9a887d,Owner 4907,+91XXXXXXXXXX,,Delhi,IN,Seller,Generated
f196e5b9-0d34-4f49-8c5a-4fe36d79c325,Owner 332,+91XXXXXXXXXX,,New York,IN,Seller,Generated
66609df4-100a-4ec6-b0f7-404b7ebf11ff,Owner 1436,+91XXXXXXXXXX,,Mumbai,IN,Seller,Generated
7626bf63-db5e-4c7f-adcc-709f92daf877,Owner 2638,+91XXXXXXXXXX,,Delhi,IN,Seller,Generated
286ab9ed-23ca-4c28-a3c9-0246ecbf06e5,Owner 7515,+91XXXXXXXXXX,,London,IN,Seller,Generated
4f5e3110-328e-444f-8f93-2a5334592033,Owner 5542,+91XXXXXXXXXX,,Delhi,IN,Seller,Generated
6c671e95-2e9e-4ec5-86b3-6a10024e5657,Owner 3149,+91XXXXXXXXXX,,New York,IN,Seller,Generated
6e83156e-4915-489b-a3f6-cdba0eb35122,Owner 3072,+91XXXXXXXXXX,,London,IN,Seller,Generated
aa5cce05-1d74-4a22-95ea-6302490b6a59,Owner 2773,+91XXXXXXXXXX,,New York,IN,Seller,Generated
ac8f75f9-cdb9-45cb-a121-53075ae25e75,Owner 4109,+91XXXXXXXXXX,,Mumbai,IN,Seller,Generated
0018d7cb-2323-49b0-a1f7-2325b8d69214,Owner 4479,+91XXXXXXXXXX,,London,IN,Seller,Generated
11fd7776-992d-4d2b-a740-1b84df6455ee,Owner 3072,+91XXXXXXXXXX,,London,IN,Seller,Generated
8b850f93-9303-4313-a30a-f28562b24f9a,Owner 7573,+91XXXXXXXXXX,,Delhi,IN,Seller,Generated
eed39831-4c70-435c-8853-0a4eb878f0dd,Owner 7381,+91XXXXXXXXXX,,London,IN,Seller,Generated
85ff2e08-d25a-4870-838e-cfe24b5170b6,Owner 6764,+91XXXXXXXXXX,,New York,IN,Seller,Generated
dc93c79b-0a58-4d47-b51e-d0bb22788f58,Owner 7669,+91XXXXXXXXXX,,New York,IN,Seller,Generated
191c4a17-757b-45a6-8c06-b9e8f7071dd5,Owner 8280,+91XXXXXXXXXX,,London,IN,Seller,Generated
1757bc37-2bf2-4622-9702-c9afc5206a96,Owner 3997,+91XXXXXXXXXX,,New York,IN,Seller,Generated
99618509-1681-4c66-8bfc-f4e5c6d2af51,Owner 5994,+91XXXXXXXXXX,,New York,IN,Seller,Generated
d199671f-de3e-4a0d-a688-0e167183c0a4,Owner 239,+91XXXXXXXXXX,,London,IN,Seller,Generated
2dec4316-747c-4dfa-829e-236a02cbadc9,Owner 9239,+91XXXXXXXXXX,,Mumbai,IN,Seller,Generated
c605a5db-d023-4e55-920b-16c90b2a507d,Owner 4795,+91XXXXXXXXXX,,New York,IN,Seller,Generated
f7f1088b-fc74-4a46-9bdd-63dfe0fe0e35,Owner 3239,+91XXXXXXXXXX,,London,IN,Seller,Generated
a35c245c-598d-4f3e-ad5a-4eec02a0b05e,Owner 9400,+91XXXXXXXXXX,,Delhi,IN,Seller,Generated
2e7aadb1-a4ba-467d-b11d-324f857ad715,Owner 6310,+91XXXXXXXXXX,,London,IN,Seller,Generated
e52d7b61-a92e-4533-902e-28f5fb1f4b6d,Owner 294,+91XXXXXXXXXX,,Delhi,IN,Seller,Generated
9fee9dd9-a95b-4eff-8151-95a83b84ffce,Owner 7304,+91XXXXXXXXXX,,London,IN,Seller,Generated
80f249dd-b0c5-4f04-b7f0-fb28952f0490,Owner 6269,+91XXXXXXXXXX,,London,IN,Seller,Generated
f10ecaf0-92d5-4788-8f62-40ab4b2142ba,Owner 3420,+91XXXXXXXXXX,,Delhi,IN,Seller,Generated
aab345d2-ad38-4b12-ac46-8963b5800a99,Owner 3193,+91XXXXXXXXXX,,London,IN,Seller,Generated
40f120c7-84d1-4fd2-b3b7-4d1dca71ae31,Owner 357,+91XXXXXXXXXX,,New York,IN,Seller,Generated
a1832b25-ecd8-40d2-844a-59944099936c,Owner 158,+91XXXXXXXXXX,,New York,IN,Seller,Generated
cc33f4da-3fc2-4eca-ab4e-6caeb4174974,Owner 7588,+91XXXXXXXXXX,,Mumbai,IN,Seller,Generated
607214c2-dbb9-44f6-87fb-1c1f7a7048e9,Owner 5592,+91XXXXXXXXXX,,Mumbai,IN,Seller,Generated
66c08a54-96f6-47d7-af28-88e75adbb857,Owner 8140,+91XXXXXXXXXX,,Mumbai,IN,Seller,Generated
6d572303-7509-4975-a33f-32b7c5a80399,Owner 7385,+91XXXXXXXXXX,,London,IN,Seller,Generated
4e216b9b-e5d7-46e1-8c10-3eebd34a20b2,Owner 8979,+91XXXXXXXXXX,,Delhi,IN,Seller,Generated
00ca6095-3665-46de-bf1e-82d330166d05,Owner 4176,+91XXXXXXXXXX,,Mumbai,IN,Seller,Generated
a80a1ae9-5f26-4ba0-91c5-b74deaf457a7,Owner 7212,+91XXXXXXXXXX,,New York,IN,Seller,Generated
c2c682e2-7fb6-4a22-bf64-925547226ba9,Owner 6742,+91XXXXXXXXXX,,New York,IN,Seller,Generated
7ad768de-9907-4c1d-ae39-ba55bde4130d,Owner 1020,+91XXXXXXXXXX,,New York,IN,Seller,Generated
2230191c-6b69-4526-a0fa-9bd4611cc185,Owner 2985,+91XXXXXXXXXX,,London,IN,Seller,Generated
084021a2-19b3-4f33-a468-e3be1d41a0b6,Owner 8901,+91XXXXXXXXXX,,New York,IN,Seller,Generated
97bb7592-6a46-492e-91f3-7fb05752c836,Owner 9362,+91XXXXXXXXXX,,New York,IN,Seller,Generated
1c47bc17-cabc-4735-870a-04d0bb6eb2c6,Owner 9357,+91XXXXXXXXXX,,Mumbai,IN,Seller,Generated
fed77423-8002-4ff4-a1d6-27b4d059e584,Owner 4356,+91XXXXXXXXXX,,London,IN,Seller,Generated
876d1c07-48fb-4984-87aa-44deeefdf5dd,Owner 5039,+91XXXXXXXXXX,,Delhi,IN,Seller,Generated
1e7634d5-19d1-4c57-8e57-f875061a75ad,Owner 2085,+91XXXXXXXXXX,,Delhi,IN,Seller,Generated
27a70f20-1346-42a2-baa2-c58d7d05c46c,Owner 2387,+91XXXXXXXXXX,,Mumbai,IN,Seller,Generated
0c36996a-7a8a-47f8-911c-d179468b10e9,Owner 3668,+91XXXXXXXXXX,,New York,IN,Seller,Generated
5c69674f-85d4-4ab3-bc10-b99317a4f59c,Owner 2085,+91XXXXXXXXXX,,New York,IN,Seller,Generated
323de0ce-5c8f-4938-941e-13b1f410cb2c,Owner 4524,+91XXXXXXXXXX,,Delhi,IN,Seller,Generated
e1745eaf-df94-4494-a9bb-5af90a7d8251,Owner 5877,+91XXXXXXXXXX,,Mumbai,IN,Seller,Generated
40b13e2d-2838-4ddd-b12a-10e8c22791bc,Owner 4156,+91XXXXXXXXXX,,Delhi,IN,Seller,Generated
50c648d5-586e-43f5-a768-1dca1df83ee7,Owner 9754,+91XXXXXXXXXX,,Delhi,IN,Seller,Generated
4392aa60-b574-46e0-9c9e-d797c261a682,Owner 7006,+91XXXXXXXXXX,,London,IN,Seller,Generated
749a43c1-31d2-47f1-83b2-bb01423c5a60,Owner 1421,+91XXXXXXXXXX,,Mumbai,IN,Seller,Generated
73dd35ba-d097-45e7-bd4a-4494df754fe2,Owner 7360,+91XXXXXXXXXX,,New York,IN,Seller,Generated
81d18c27-b2f6-4720-86af-14c820111c29,Owner 4538,+91XXXXXXXXXX,,New York,IN,Seller,Generated
0df1f53d-bd5f-49df-9c8e-f78a3af9378a,Owner 6318,+91XXXXXXXXXX,,New York,IN,Seller,Generated
9d17099a-e682-416a-9079-fc9b83dc9811,Owner 7532,+91XXXXXXXXXX,,Mumbai,IN,Seller,Generated
f5453c51-75c2-4969-accf-64e551eb1f91,Owner 3830,+91XXXXXXXXXX,,London,IN,Seller,Generated
93f48a63-bf30-48ee-9311-9aa721584d13,Owner 7311,+91XXXXXXXXXX,,New York,IN,Seller,Generated
c049d8a7-3816-4df1-beda-b7034a03167c,Owner 1185,+91XXXXXXXXXX,,London,IN,Seller,Generated
732c5e08-3359-4957-9277-54e6f9fe74da,Owner 7958,+91XXXXXXXXXX,,New York,IN,Seller,Generated
9918546f-ebb0-4f9c-a48e-f80619cc799d,Owner 5586,+91XXXXXXXXXX,,Mumbai,IN,Seller,Generated
f46f18b3-6ec6-49fd-8c80-f0882beea1ee,Owner 9944,+91XXXXXXXXXX,,London,IN,Seller,Generated
d3a8d149-1954-4224-bc87-18f82c291bff,Owner 1015,+91XXXXXXXXXX,,New York,IN,Seller,Generated
2fe5abe7-78b6-473b-89cc-516c16be7b99,Owner 4281,+91XXXXXXXXXX,,London,IN,Seller,Generated
1e11bc41-1c75-44fe-8e04-776daf03ed15,Owner 571,+91XXXXXXXXXX,,Delhi,IN,Seller,Generated
42c8fac2-546d-4eb1-b1d4-56aeb45c610a,Owner 4395,+91XXXXXXXXXX,,Delhi,IN,Seller,Generated
78ed45da-2906-4692-8367-4362439943be,Owner 6047,+91XXXXXXXXXX,,Mumbai,IN,Seller,Generated
930e22bf-135a-4006-bfe9-a9078dbfeddd,Owner 9791,+91XXXXXXXXXX,,New York,IN,Seller,Generated
9440ff93-6557-41f9-a1f7-f936f5eff3f7,Owner 9932,+91XXXXXXXXXX,,New York,IN,Seller,Generated
c03f87ef-ebef-4921-b2dd-e31dbe2bdd00,Owner 9226,+91XXXXXXXXXX,,New York,IN,Seller,Generated
2caf4c79-7588-4b14-803c-c1bfd8a00eda,Owner 3013,+91XXXXXXXXXX,,Delhi,IN,Seller,Generated
a682bb51-fe40-468a-8551-62710483c0fd,Owner 2593,+91XXXXXXXXXX,,New York,IN,Seller,Generated
969c2f72-5a5b-4203-896a-fa42c8487ad6,Owner 5563,+91XXXXXXXXXX,,Delhi,IN,Seller,Generated
92668bf2-2a1b-434c-8c4e-f3edd14cac39,Owner 6854,+91XXXXXXXXXX,,London,IN,Seller,Generated
22ce4d19-a9a1-4bf0-a72b-34968bc1ed8d,Owner 6533,+91XXXXXXXXXX,,Mumbai,IN,Seller,Generated
6542e7b6-d882-43d4-9c0e-7a495ca47380,Owner 9949,+91XXXXXXXXXX,,Delhi,IN,Seller,Generated
343a9bff-7492-4c2e-8d49-577a005bdd7a,Owner 5177,+91XXXXXXXXXX,,Mumbai,IN,Seller,Generated
cee814b3-eae8-44ae-98ec-89319d449060,Owner 4057,+91XXXXXXXXXX,,London,IN,Seller,Generated
6720451f-b877-4de9-a25a-b0f06e8a3f85,Owner 6281,+91XXXXXXXXXX,,New York,IN,Seller,Generated
3fcae92e-76cf-49f3-b24c-d83395b965b7,Owner 3403,+91XXXXXXXXXX,,Mumbai,IN,Seller,Generated
d3a43e44-c819-4d67-9b82-27da053007b9,Owner 4853,+91XXXXXXXXXX,,London,IN,Seller,Generated
4868cd4b-a6f3-4b50-83d1-8c42da4ea46e,Owner 3654,+91XXXXXXXXXX,,Delhi,IN,Seller,Generated
7ce51b51-3578-4ec7-b152-10d783d687c5,Owner 304,+91XXXXXXXXXX,,Delhi,IN,Seller,Generated
d575c326-b408-4adb-925a-15f540b84685,Owner 6466,+91XXXXXXXXXX,,London,IN,Seller,Generated
69fa11c9-699e-4715-8f38-e6e4412f378a,Owner 4608,+91XXXXXXXXXX,,Delhi,IN,Seller,Generated
6fae8c49-e01b-475f-a1aa-f25999fde4fa,Owner 3485,+91XXXXXXXXXX,,Mumbai,IN,Seller,Generated
79870628-97ac-442d-94b6-83509f1fac2b,Owner 8529,+91XXXXXXXXXX,,Delhi,IN,Seller,Generated
e5479ff8-fdb7-4709-9a01-06a4f5e47de3,Owner 1269,+91XXXXXXXXXX,,Delhi,IN,Seller,Generated
41afaad1-8a39-4b14-8e54-dcc303199bc0,Owner 9305,+91XXXXXXXXXX,,New York,IN,Seller,Generated
7f5102b4-d873-424e-bb05-5c60baa68202,Owner 6905,+91XXXXXXXXXX,,Mumbai,IN,Seller,Generated
fcfb2f58-4511-40cf-804b-40a206497b04,Owner 7352,+91XXXXXXXXXX,,Mumbai,IN,Seller,Generated
7fe9a6ae-4e97-46d7-9e03-d14521f7bafa,Owner 5893,+91XXXXXXXXXX,,Delhi,IN,Seller,Generated
95b728a7-dba2-4395-b5ec-18a73f01b7f1,Owner 4308,+91XXXXXXXXXX,,New York,IN,Seller,Generated
04b52547-53e6-483e-a613-dc50c728bc20,Owner 3442,+91XXXXXXXXXX,,New York,IN,Seller,Generated
5eab5b95-91a9-4ac9-b6f4-0899e96f0c86,Owner 7892,+91XXXXXXXXXX,,Mumbai,IN,Seller,Generated
53313b6a-c960-4565-b54f-58114972252b,Owner 8263,+91XXXXXXXXXX,,Mumbai,IN,Seller,Generated
ccd9b66d-3e32-4202-8168-da061f73220a,Owner 7105,+91XXXXXXXXXX,,London,IN,Seller,Generated
9d8cbc76-9d3f-405f-9ff0-39a7560937da,Owner 2579,+91XXXXXXXXXX,,Delhi,IN,Seller,Generated
74a1f561-5f46-4549-9447-fd0f566d6156,Owner 1516,+91XXXXXXXXXX,,London,IN,Seller,Generated
d3532598-7187-4001-be45-6c91ea3b486d,Owner 3635,+91XXXXXXXXXX,,New York,IN,Seller,Generated
8c72b8fd-e854-40f0-a131-7c459fdddfdc,Owner 7141,+91XXXXXXXXXX,,New York,IN,Seller,Generated
b90f70ab-c5a5-49d3-affc-1f034d978002,Owner 7978,+91XXXXXXXXXX,,Mumbai,IN,Seller,Generated
96df3192-cc12-4652-89ac-a33c81a97340,Owner 3047,+91XXXXXXXXXX,,London,IN,Seller,Generated
5900ce03-e228-4ffc-8814-901437b2f184,Owner 6517,+91XXXXXXXXXX,,London,IN,Seller,Generated
296726d0-d4cc-430d-8b7e-40ba18b478ba,Owner 726,+91XXXXXXXXXX,,New York,IN,Seller,Generated
cce5d622-cf00-4b36-b8a3-079e85a1482e,Owner 6378,+91XXXXXXXXXX,,Mumbai,IN,Seller,Generated
a22db8a0-074f-4248-aa02-9b852d443bbd,Owner 4000,+91XXXXXXXXXX,,Delhi,IN,Seller,Generated
2f7f2615-60c6-4a92-a787-d90d0cf902af,Owner 7274,+91XXXXXXXXXX,,New York,IN,Seller,Generated
c0f2fd24-b54f-4338-a03c-35861951202e,Owner 3247,+91XXXXXXXXXX,,Mumbai,IN,Seller,Generated
d2d68ea2-44a7-4eea-9b0e-305bf839ffaf,Owner 6256,+91XXXXXXXXXX,,London,IN,Seller,Generated
4f50b708-df35-4544-be27-b9a684cc0d29,Owner 3532,+91XXXXXXXXXX,,London,IN,Seller,Generated
1b966cf0-3875-4006-985f-fad3108fd2a5,Owner 3960,+91XXXXXXXXXX,,Mumbai,IN,Seller,Generated
540a31ad-c01b-4456-8942-de6f74e85eeb,Owner 6618,+91XXXXXXXXXX,,London,IN,Seller,Generated
87f61565-1dea-4fb0-a4ac-d08a2c6b1414,Owner 1275,+91XXXXXXXXXX,,Delhi,IN,Seller,Generated
22b8c879-53e5-4da4-a555-9defaa2a87e9,Owner 8967,+91XXXXXXXXXX,,Delhi,IN,Seller,Generated
b2429ef0-d8dc-4385-a8ad-abe7bb75e302,Owner 9530,+91XXXXXXXXXX,,New York,IN,Seller,Generated
5db753ee-d234-463b-8a77-4a7adb8e8b1d,Owner 6271,+91XXXXXXXXXX,,Delhi,IN,Seller,Generated
fd94a04c-b66c-447d-bfef-391504546047,Owner 9316,+91XXXXXXXXXX,,New York,IN,Seller,Generated
a1b84278-49c4-4e4c-b7c6-b5de5269956f,Owner 7579,+91XXXXXXXXXX,,London,IN,Seller,Generated
cbfe3e7a-5f78-4dd9-8665-b9483aeb703e,Owner 2911,+91XXXXXXXXXX,,Mumbai,IN,Seller,Generated
b397170f-197b-40cd-b905-e3742a9d84c6,Owner 5322,+91XXXXXXXXXX,,Mumbai,IN,Seller,Generated
1261d063-4aed-4c6d-83d8-31ebd29d70cd,Owner 6764,+91XXXXXXXXXX,,Mumbai,IN,Seller,Generated
f7a7938a-63cd-4a5c-a192-34f53e8ff28f,Owner 418,+91XXXXXXXXXX,,New York,IN,Seller,Generated
8bb99a31-688f-4de3-bbc0-981d31df1b70,Owner 4544,+91XXXXXXXXXX,,Delhi,IN,Seller,Generated
4d46f734-9dbc-4315-9686-35df6f841f53,Owner 5650,+91XXXXXXXXXX,,Mumbai,IN,Seller,Generated
3b02de43-d014-4055-ba89-409f173f7bdd,Owner 4583,+91XXXXXXXXXX,,Delhi,IN,Seller,Generated
f98a55dd-2dec-41bf-9851-698525a7d978,Owner 1316,+91XXXXXXXXXX,,Delhi,IN,Seller,Generated
a9d3ac0c-2506-4ea7-ae4d-48d52044c5b4,Owner 2149,+91XXXXXXXXXX,,London,IN,Seller,Generated
437bdb72-30a7-4746-9a5f-11cbfc54e866,Owner 238,+91XXXXXXXXXX,,New York,IN,Seller,Generated
573bfa18-269f-4706-a580-44ef90a6e2a2,Owner 7183,+91XXXXXXXXXX,,New York,IN,Seller,Generated
34228d0c-e463-4870-a304-a166a0b1db4d,Owner 627,+91XXXXXXXXXX,,New York,IN,Seller,Generated
662e9a56-7995-4f4f-b0ed-8d2ab20eb13e,Owner 5530,+91XXXXXXXXXX,,New York,IN,Seller,Generated
793b40b2-4b59-4fef-b111-0b3fef91edce,Owner 3641,+91XXXXXXXXXX,,New York,IN,Seller,Generated
fb4dfb1d-13c8-49eb-b157-a050b505f3d1,Owner 3242,+91XXXXXXXXXX,,London,IN,Seller,Generated
26ffe9d9-9a5c-4ec6-bc69-5cc5d2263042,Owner 7686,+91XXXXXXXXXX,,Mumbai,IN,Seller,Generated
cb05bf40-d30a-4064-ab22-1c99a4fc2d6a,Owner 4897,+91XXXXXXXXXX,,New York,IN,Seller,Generated
a89ca638-d1da-4cef-b4c1-9e818d21fd58,Owner 9274,+91XXXXXXXXXX,,Mumbai,IN,Seller,Generated
b2e2400a-91c5-4139-84ff-10ffc10167f1,Owner 2632,+91XXXXXXXXXX,,London,IN,Seller,Generated
3585e571-3bda-4aa8-a069-0b1c9fe5875f,Owner 2656,+91XXXXXXXXXX,,New York,IN,Seller,Generated
1af914b0-03e7-46d5-9aa0-276893f83489,Owner 4681,+91XXXXXXXXXX,,Delhi,IN,Seller,Generated
73209062-1149-4b35-b934-38576a039c27,Owner 2251,+91XXXXXXXXXX,,Delhi,IN,Seller,Generated
6117ee29-77f1-4437-b6a1-89ee4830a474,Owner 4093,+91XXXXXXXXXX,,New York,IN,Seller,Generated
bd534fa3-a40d-4241-b759-b5a33abb95ca,Owner 5552,+91XXXXXXXXXX,,Delhi,IN,Seller,Generated
e68636cf-18d1-40e6-9110-7a94e30becd7,Owner 2577,+91XXXXXXXXXX,,New York,IN,Seller,Generated
c898d6af-1b8a-404f-ba08-f80994cc83ca,Owner 8895,+91XXXXXXXXXX,,Delhi,IN,Seller,Generated
affe51b2-eaf4-43b2-98dd-85c7b9475d17,Owner 7259,+91XXXXXXXXXX,,New York,IN,Seller,Generated
1a9de12a-998a-4d9f-90ba-f7b8df4f42dd,Owner 9610,+91XXXXXXXXXX,,New York,IN,Seller,Generated
4534e404-e156-4c91-a9fd-a86b7fc13474,Owner 3916,+91XXXXXXXXXX,,Delhi,IN,Seller,Generated
d14a3c80-e2d9-41b1-bf55-d24261abb51d,Owner 8186,+91XXXXXXXXXX,,New York,IN,Seller,Generated
6db60f35-48e5-4d4c-9986-eddab1dd7458,Owner 4695,+91XXXXXXXXXX,,Delhi,IN,Seller,Generated
21f83512-04c8-493a-8f6a-505621ce887c,Owner 2222,+91XXXXXXXXXX,,London,IN,Seller,Generated
c9797aa2-12ac-42ba-a503-cee06c06e617,Owner 4515,+91XXXXXXXXXX,,New York,IN,Seller,Generated
f204b710-9f4c-4a8e-a801-d45dc40da5af,Owner 2593,+91XXXXXXXXXX,,New York,IN,Seller,Generated
f6c8779b-2af9-4347-9190-6425084a2618,Owner 7100,+91XXXXXXXXXX,,Mumbai,IN,Seller,Generated
fac5091a-9727-405e-8ae0-33b431d6750f,Owner 7395,+91XXXXXXXXXX,,London,IN,Seller,Generated
44ad8a1f-712d-4788-9f2b-ca5ed8d1ef2e,Owner 1689,+91XXXXXXXXXX,,London,IN,Seller,Generated
b815ce13-75bf-4d23-83d0-282ee4674996,Owner 7676,+91XXXXXXXXXX,,New York,IN,Seller,Generated
e52ab769-f654-4a3e-80cb-8efa09c38852,Owner 2685,+91XXXXXXXXXX,,New York,IN,Seller,Generated
f950ca08-d976-4f12-b250-2374a2a44f8c,Owner 5251,+91XXXXXXXXXX,,New York,IN,Seller,Generated
1e508c5a-dfd0-4ff0-9bed-6fe3220c613a,Owner 4829,+91XXXXXXXXXX,,New York,IN,Seller,Generated
11b38b24-c7b4-4ef9-b715-fce772b1e2b9,Owner 6439,+91XXXXXXXXXX,,Mumbai,IN,Seller,Generated
9408bb16-8962-4533-b4de-127584d6f92a,Owner 6451,+91XXXXXXXXXX,,London,IN,Seller,Generated
35a3a03a-0dfb-4f2b-9679-b05462f07d26,Owner 5198,+91XXXXXXXXXX,,Delhi,IN,Seller,Generated
45cf4397-91c7-4fb8-9074-e89d835a3035,Owner 4827,+91XXXXXXXXXX,,New York,IN,Seller,Generated
51e6c542-ae4f-4b0d-baaa-08a023951799,Owner 1619,+91XXXXXXXXXX,,Mumbai,IN,Seller,Generated
24368e8e-e5c0-4673-9f89-577568595340,Owner 1435,+91XXXXXXXXXX,,Mumbai,IN,Seller,Generated
8511f4b8-dd57-45d1-83fe-469855b90827,Owner 8752,+91XXXXXXXXXX,,London,IN,Seller,Generated
e443a49c-0fad-42fb-844d-6b0e976c6b99,Owner 6865,+91XXXXXXXXXX,,New York,IN,Seller,Generated
8a1c1105-6d86-477c-84af-f263ac377360,Owner 2258,+91XXXXXXXXXX,,Delhi,IN,Seller,Generated
a4eccfc0-b1f7-418c-aeea-b7844239c61f,Owner 3194,+91XXXXXXXXXX,,Mumbai,IN,Seller,Generated
bfb1901a-6fdb-46c8-bb5d-95e31437a5ea,Owner 1050,+91XXXXXXXXXX,,Delhi,IN,Seller,Generated
b0cd3987-a676-4734-9c4d-e0ea0a1b717a,Owner 3073,+91XXXXXXXXXX,,Delhi,IN,Seller,Generated
1e83520b-4e6b-4356-8a23-3dfa72c43ebb,Owner 795,+91XXXXXXXXXX,,New York,IN,Seller,Generated
a20bc4d6-9f54-470a-8db1-ae0bd1dad211,Owner 9573,+91XXXXXXXXXX,,Mumbai,IN,Seller,Generated
1fbad534-4bb2-474e-b7e8-b52e104ff67f,Owner 9807,+91XXXXXXXXXX,,Mumbai,IN,Seller,Generated
c095e15e-248d-4a3d-89a4-307ff529d5a0,Owner 4816,+91XXXXXXXXXX,,London,IN,Seller,Generated
24d81c65-8739-467c-b3a3-963f8f975f81,Owner 5093,+91XXXXXXXXXX,,New York,IN,Seller,Generated
45443129-907c-4a9f-9f48-eb6f22d9e0ec,Owner 7168,+91XXXXXXXXXX,,Delhi,IN,Seller,Generated
08ba4310-7413-4a88-84be-32b9675f07d3,Owner 4476,+91XXXXXXXXXX,,Mumbai,IN,Seller,Generated
a83be2e7-bca9-4f43-ba0f-781d8f492217,Owner 4827,+91XXXXXXXXXX,,Mumbai,IN,Seller,Generated
ebea85c8-39f2-4c09-a7a2-72eb8fc2e69d,Owner 3880,+91XXXXXXXXXX,,New York,IN,Seller,Generated
81e6a6b4-743f-4704-88be-249b543777a0,Owner 5773,+91XXXXXXXXXX,,Delhi,IN,Seller,Generated
b0feebb5-d3a6-4e02-b774-04c7eb7e66d8,Owner 446,+91XXXXXXXXXX,,London,IN,Seller,Generated
3e213e30-5e06-44af-a8a4-bf91eb80cb16,Owner 9481,+91XXXXXXXXXX,,Delhi,IN,Seller,Generated
dc7d08aa-f58b-438a-a43e-9c99dd804d08,Owner 4364,+91XXXXXXXXXX,,London,IN,Seller,Generated
ca411a21-e950-488c-a402-129842d18409,Owner 7014,+91XXXXXXXXXX,,Delhi,IN,Seller,Generated
cbe2f507-c235-4ed2-9a3d-4e8da48827b2,Owner 1816,+91XXXXXXXXXX,,New York,IN,Seller,Generated
e2125edb-73f7-4b22-9ff4-f31d268637e1,Owner 745,+91XXXXXXXXXX,,New York,IN,Seller,Generated
3fe7c452-77a8-4894-8e3f-6342374dd1ed,Owner 2846,+91XXXXXXXXXX,,Mumbai,IN,Seller,Generated
fce00e9d-292e-42c4-b653-d1d27023c194,Owner 9487,+91XXXXXXXXXX,,London,IN,Seller,Generated
e43eda18-0d31-423d-b445-f4272d2a917e,Owner 5076,+91XXXXXXXXXX,,Mumbai,IN,Seller,Generated
07829197-44b0-41e9-842d-2ca2e4334a93,Owner 4478,+91XXXXXXXXXX,,Delhi,IN,Seller,Generated
279afc34-a43e-4b91-8f5e-35816d96ff30,Owner 5543,+91XXXXXXXXXX,,New York,IN,Seller,Generated
a8ac1238-91a4-4c29-a7a7-3714da34c1fc,Owner 4684,+91XXXXXXXXXX,,Delhi,IN,Seller,Generated
b59eec89-7627-4479-bc8d-0dfcc7c6af67,Owner 42,+91XXXXXXXXXX,,London,IN,Seller,Generated
b714834b-15df-4d75-9269-446d8b13f6c1,Owner 3495,+91XXXXXXXXXX,,New York,IN,Seller,Generated
784cb980-c158-418b-a421-65e1166560ac,Owner 6184,+91XXXXXXXXXX,,London,IN,Seller,Generated
9adf46bc-7350-4dbf-9d46-57a245e7d5cd,Owner 5651,+91XXXXXXXXXX,,New York,IN,Seller,Generated
a2556094-8d85-4b6c-b4b0-6a4acc32cba1,Owner 2144,+91XXXXXXXXXX,,New York,IN,Seller,Generated
fb3612b7-2b7c-48e5-a2a0-5469ee23c71d,Owner 9493,+91XXXXXXXXXX,,London,IN,Seller,Generated
49f405c5-09c2-4d2a-b8c3-d23baa03798e,Owner 101,+91XXXXXXXXXX,,Mumbai,IN,Seller,Generated
c6c229dc-bd77-40b7-a17d-3c0134833967,Owner 6096,+91XXXXXXXXXX,,Mumbai,IN,Seller,Generated
71abe4e8-c693-4058-8d6a-ec336f036655,Owner 4212,+91XXXXXXXXXX,,Mumbai,IN,Seller,Generated
9677f506-4a63-4201-b3d6-2965a1f3261b,Owner 9937,+91XXXXXXXXXX,,Mumbai,IN,Seller,Generated
fb103130-af23-49e9-b78a-66f9ae6e53a6,Owner 7303,+91XXXXXXXXXX,,London,IN,Seller,Generated
8e1cae94-d0bc-4491-954d-9ef8933be5bb,Owner 9641,+91XXXXXXXXXX,,New York,IN,Seller,Generated
dc8075b4-da91-47f4-be98-2c500aa6aac4,Owner 7522,+91XXXXXXXXXX,,New York,IN,Seller,Generated
f26d6476-ca61-4b9a-92b1-138ac8a5eef4,Owner 512,+91XXXXXXXXXX,,Mumbai,IN,Seller,Generated
d3838051-37fe-4034-9ab2-62ea717788a6,Owner 2645,+91XXXXXXXXXX,,London,IN,Seller,Generated
c4d3563f-c78f-4e31-9e9c-db55df968584,Owner 2234,+91XXXXXXXXXX,,Delhi,IN,Seller,Generated
4f1e00eb-ab22-42d5-a2d5-73efe0888776,Owner 4428,+91XXXXXXXXXX,,London,IN,Seller,Generated
f99ec2c4-ee3f-472a-a216-341a512b4f26,Owner 4102,+91XXXXXXXXXX,,Delhi,IN,Seller,Generated
8ee63d0d-d219-44fa-baf4-18264f926030,Owner 9210,+91XXXXXXXXXX,,Delhi,IN,Seller,Generated
c924c52c-1b23-43cc-b13f-8804aadc7eb8,Owner 8394,+91XXXXXXXXXX,,Delhi,IN,Seller,Generated
4c47739e-eb81-45ea-8e3e-1172a3cbe609,Owner 229,+91XXXXXXXXXX,,New York,IN,Seller,Generated
ffcf02a1-68db-4706-83bc-e14251fd48f2,Owner 4102,+91XXXXXXXXXX,,London,IN,Seller,Generated
20fc80bf-1506-4f91-bba3-257e4cd71a3a,Owner 4851,+91XXXXXXXXXX,,Mumbai,IN,Seller,Generated
48a6a727-9c37-405c-88e7-62c0c5f93fb7,Owner 6213,+91XXXXXXXXXX,,Delhi,IN,Seller,Generated
25f54eba-cc57-4964-a8d6-484a60e0a9b2,Owner 5491,+91XXXXXXXXXX,,Delhi,IN,Seller,Generated
0887d6e2-be13-4ab6-87d2-537a5b718d52,Owner 4336,+91XXXXXXXXXX,,Delhi,IN,Seller,Generated
b9c76645-c72e-4843-a4ce-720df8dba4c4,Owner 4047,+91XXXXXXXXXX,,Mumbai,IN,Seller,Generated
ad899014-d37f-4aa4-9e72-ac7d4c48bd35,Owner 7732,+91XXXXXXXXXX,,Delhi,IN,Seller,Generated
9a4ddc7f-1b13-48f0-a076-d7a73ebab209,Owner 4758,+91XXXXXXXXXX,,London,IN,Seller,Generated
df8b6a6d-7121-422d-8c6b-781ebaf37d40,Owner 2635,+91XXXXXXXXXX,,Delhi,IN,Seller,Generated
4a4cb46c-fe95-4b73-8090-4f6af306c624,Owner 9045,+91XXXXXXXXXX,,New York,IN,Seller,Generated
11d243d8-8453-42a5-a65a-38d80f8010f7,Owner 5054,+91XXXXXXXXXX,,Mumbai,IN,Seller,Generated
da700574-7db9-44a1-946e-c26b8a44dc7c,Owner 9349,+91XXXXXXXXXX,,London,IN,Seller,Generated
87284fba-04a1-48b7-8277-4226b59a0dcf,Owner 2069,+91XXXXXXXXXX,,Delhi,IN,Seller,Generated
32f6ee4e-706b-4e94-9d65-af99dcc33fad,Owner 3839,+91XXXXXXXXXX,,Delhi,IN,Seller,Generated
c0d1de62-99c0-485d-ba0c-56a89749b64d,Owner 4745,+91XXXXXXXXXX,,Mumbai,IN,Seller,Generated
0b05ac5e-741f-400c-a2fb-33f31a78073a,Owner 4456,+91XXXXXXXXXX,,London,IN,Seller,Generated
99a6c600-706e-412d-ab3c-2f7813bcac13,Owner 8711,+91XXXXXXXXXX,,Delhi,IN,Seller,Generated
e489722d-b9c0-422c-bfa1-e2a4556b2813,Owner 984,+91XXXXXXXXXX,,London,IN,Seller,Generated
8b141f21-2d8a-4ea3-a952-55598519efe7,Owner 4898,+91XXXXXXXXXX,,Delhi,IN,Seller,Generated
6b80dd78-7e6e-4562-afa9-a6321ff39bc2,Owner 5219,+91XXXXXXXXXX,,Delhi,IN,Seller,Generated
d1622a97-eb77-4162-8623-38f5dafea206,Owner 2389,+91XXXXXXXXXX,,London,IN,Seller,Generated
ad77ab64-711b-4a56-a592-5a24d761cbd5,Owner 2520,+91XXXXXXXXXX,,Delhi,IN,Seller,Generated
de9cb08c-4b9d-4f60-b449-a254f61c9b67,Owner 6245,+91XXXXXXXXXX,,Mumbai,IN,Seller,Generated
3842175e-612d-4008-aa19-53c4500da11e,Owner 8338,+91XXXXXXXXXX,,London,IN,Seller,Generated
665c2048-d138-4ca9-ae92-70e62f7d84a6,Owner 8930,+91XXXXXXXXXX,,London,IN,Seller,Generated
2f5b3708-6ff6-43cf-b132-1fd924796a07,Owner 6380,+91XXXXXXXXXX,,London,IN,Seller,Generated
09ed9f31-a730-416e-a721-bd77f4711b9b,Owner 7553,+91XXXXXXXXXX,,Delhi,IN,Seller,Generated
108b82a3-1375-49c0-aa5e-dafdcc193d32,Owner 1448,+91XXXXXXXXXX,,London,IN,Seller,Generated
559c0eec-5be8-4ee9-8866-a62055069640,Owner 3588,+91XXXXXXXXXX,,Delhi,IN,Seller,Generated
f567f3f9-1ef9-4dd0-a306-968625928eee,Owner 7804,+91XXXXXXXXXX,,Delhi,IN,Seller,Generated
943a531c-6942-4945-a737-02dd29f75db3,Owner 7287,+91XXXXXXXXXX,,New York,IN,Seller,Generated
9496077d-3664-49e8-8d9f-bf092d4843c9,Owner 5141,+91XXXXXXXXXX,,Mumbai,IN,Seller,Generated
81e3120b-8328-4b4c-85d2-7d14a2acfc0c,Owner 9339,+91XXXXXXXXXX,,New York,IN,Seller,Generated
5b357be9-d30f-402f-87ac-ad109f25ffed,Owner 849,+91XXXXXXXXXX,,London,IN,Seller,Generated
4d439533-c449-47ef-9f8c-1dc9adb72999,Owner 4900,+91XXXXXXXXXX,,London,IN,Seller,Generated
19365427-bb88-4b70-b12f-a11597614e11,Owner 5818,+91XXXXXXXXXX,,New York,IN,Seller,Generated
453cf607-e237-48e6-bf56-2c6005495427,Owner 842,+91XXXXXXXXXX,,Delhi,IN,Seller,Generated
0e21bcee-e721-48c0-ac63-340282e6549f,Owner 3342,+91XXXXXXXXXX,,Delhi,IN,Seller,Generated
b817aaf2-7b51-4244-bd1b-98afbf8c2485,Owner 507,+91XXXXXXXXXX,,Mumbai,IN,Seller,Generated
354587b0-0d23-41ef-a512-d78d49701ef8,Owner 2422,+91XXXXXXXXXX,,Mumbai,IN,Seller,Generated
0f18bea2-4caf-4a54-97ae-38589328adcd,Owner 8474,+91XXXXXXXXXX,,New York,IN,Seller,Generated
27612a4d-6d25-4510-b4ce-725399c786aa,Owner 690,+91XXXXXXXXXX,,Mumbai,IN,Seller,Generated
f19ff64e-7eb2-4500-bf98-9d5c1c9ffb86,Owner 8648,+91XXXXXXXXXX,,New York,IN,Seller,Generated
f0461282-1a0b-44a3-8deb-ed91a2e5dbb3,Owner 9145,+91XXXXXXXXXX,,New York,IN,Seller,Generated
870dda53-4c37-4bbd-8454-be1229db78ca,Owner 9438,+91XXXXXXXXXX,,Mumbai,IN,Seller,Generated
0fbc9417-7de9-4cc5-b563-0f5ac2fd27ed,Owner 914,+91XXXXXXXXXX,,New York,IN,Seller,Generated
152bcdc0-380f-497a-999d-2672a8d04098,Owner 6799,+91XXXXXXXXXX,,London,IN,Seller,Generated
a720fdef-571a-439f-b76e-62a9bd620a06,Owner 6662,+91XXXXXXXXXX,,London,IN,Seller,Generated
c7186a2a-e05a-47cc-8579-557e5eda8876,Owner 384,+91XXXXXXXXXX,,Mumbai,IN,Seller,Generated
054c9731-76d8-41e2-a13b-0407e0ff10fa,Owner 4265,+91XXXXXXXXXX,,London,IN,Seller,Generated
93f5f239-3657-4446-a5a3-be41dd2012d7,Owner 9652,+91XXXXXXXXXX,,Mumbai,IN,Seller,Generated
9a287f15-f58f-4789-94c7-d87c8cfaf949,Owner 7974,+91XXXXXXXXXX,,Delhi,IN,Seller,Generated
3d512b6a-fccb-41a7-9522-ee264168a252,Owner 5263,+91XXXXXXXXXX,,New York,IN,Seller,Generated
d6329468-cdcb-4cd6-aa46-3f3a9b2acb3f,Owner 2534,+91XXXXXXXXXX,,Delhi,IN,Seller,Generated
d40e92ab-684a-4b24-94dc-cc0733affc05,Owner 8714,+91XXXXXXXXXX,,Mumbai,IN,Seller,Generated
946b87c1-c67b-4b7e-a579-0f92c083c1a2,Owner 3273,+91XXXXXXXXXX,,London,IN,Seller,Generated
43c8fc12-6136-4dfe-b0e7-8b92cca97d76,Owner 8798,+91XXXXXXXXXX,,Delhi,IN,Seller,Generated
324ea52b-3db2-47aa-90d5-099de29fa1cf,Owner 2861,+91XXXXXXXXXX,,London,IN,Seller,Generated
cef4ba9b-5036-4f44-90b8-7cb4164b270c,Owner 1431,+91XXXXXXXXXX,,Mumbai,IN,Seller,Generated
bb443e44-9cdb-4e33-a292-07ab328f7eb5,Owner 981,+91XXXXXXXXXX,,New York,IN,Seller,Generated
f5d42a21-9fce-4f44-ba23-e37029aa010f,Owner 1463,+91XXXXXXXXXX,,Mumbai,IN,Seller,Generated
6dd37aac-3507-4e50-9474-809b5b1c57cd,Owner 2887,+91XXXXXXXXXX,,Mumbai,IN,Seller,Generated
a9f314f8-d68b-4b4d-9605-79b2e120e6a2,Owner 3714,+91XXXXXXXXXX,,New York,IN,Seller,Generated
14f0bfd5-a6c8-4011-a8fc-3ff08921242c,Owner 3947,+91XXXXXXXXXX,,New York,IN,Seller,Generated
e711e371-719a-40f7-bb1e-0200376c2ae8,Owner 1418,+91XXXXXXXXXX,,London,IN,Seller,Generated
7e2a03eb-b153-4ec1-94dd-83ca9d8b2c55,Owner 5063,+91XXXXXXXXXX,,Mumbai,IN,Seller,Generated
814d5123-9914-4f01-a2c6-b19235f7a295,Owner 8293,+91XXXXXXXXXX,,London,IN,Seller,Generated
223df541-6198-44d6-a5c9-00f9f591adba,Owner 3546,+91XXXXXXXXXX,,Delhi,IN,Seller,Generated
68995f96-66f8-4d85-b68e-ea74a0ac5e67,Owner 3608,+91XXXXXXXXXX,,New York,IN,Seller,Generated
aa260cd0-6d18-4239-88b2-9994926875c4,Owner 5184,+91XXXXXXXXXX,,New York,IN,Seller,Generated
0aff3921-5ee4-478a-b685-7491f07628f8,Owner 945,+91XXXXXXXXXX,,London,IN,Seller,Generated
083b48e5-bc49-4b2a-af83-06d0e85e6638,Owner 7129,+91XXXXXXXXXX,,Delhi,IN,Seller,Generated
5dabb482-476b-4b66-9de9-3ccebb366032,Owner 8164,+91XXXXXXXXXX,,Mumbai,IN,Seller,Generated
24769052-c340-4353-9d0a-8a04701e6424,Owner 2636,+91XXXXXXXXXX,,Delhi,IN,Seller,Generated
35b4a03e-a8c1-44b4-913c-cf8f6757c9c0,Owner 2057,+91XXXXXXXXXX,,Delhi,IN,Seller,Generated
cbb5a1e3-dc35-4c72-ab60-2a461542a8ea,Owner 9490,+91XXXXXXXXXX,,Mumbai,IN,Seller,Generated
ebc3497c-ad91-4ff6-b0a2-4f6c9338775b,Owner 8270,+91XXXXXXXXXX,,Mumbai,IN,Seller,Generated
7892e621-258f-4f53-9f81-1282ce518a66,Owner 1574,+91XXXXXXXXXX,,Delhi,IN,Seller,Generated
d2f3b94c-6f8f-47e2-86aa-799148689a48,Owner 6215,+91XXXXXXXXXX,,New York,IN,Seller,Generated
7e903707-89f1-4f69-b264-72b8871a3257,Owner 3541,+91XXXXXXXXXX,,New York,IN,Seller,Generated
6b3b6d15-4b63-45d8-a813-b11d46629f8c,Owner 4617,+91XXXXXXXXXX,,Delhi,IN,Seller,Generated
9ea134dc-0691-40fb-995f-4e1871342f8c,Owner 3570,+91XXXXXXXXXX,,Mumbai,IN,Seller,Generated
cc9d42a8-d31f-41a3-b015-b9b330679788,Owner 4858,+91XXXXXXXXXX,,London,IN,Seller,Generated
14b5a349-f3fa-435a-af38-752c8eb8f363,Owner 7286,+91XXXXXXXXXX,,Delhi,IN,Seller,Generated
65f3d932-c262-4eeb-829c-5a929ac866d4,Owner 4375,+91XXXXXXXXXX,,New York,IN,Seller,Generated
48189e04-42cc-4b1a-93d8-6a56b1d7d137,Owner 2636,+91XXXXXXXXXX,,New York,IN,Seller,Generated
bec3b761-5761-46b0-8702-4a5dd39adde0,Owner 5174,+91XXXXXXXXXX,,Mumbai,IN,Seller,Generated
40fd5b41-58e0-485c-9bef-326377b5f7df,Owner 9497,+91XXXXXXXXXX,,Delhi,IN,Seller,Generated
0d519848-90d6-4c8d-8f55-669135f0672c,Owner 700,+91XXXXXXXXXX,,New York,IN,Seller,Generated
0b2cb3f3-74de-475e-b44c-a1aae4fc059e,Owner 7223,+91XXXXXXXXXX,,Mumbai,IN,Seller,Generated
4009c494-2b8f-401f-a977-d363b4d2e28c,Owner 2605,+91XXXXXXXXXX,,Mumbai,IN,Seller,Generated
83a2faa8-b7d7-49b7-b2f7-f3c59bf097e6,Owner 4377,+91XXXXXXXXXX,,London,IN,Seller,Generated
5c810e8b-343b-4f70-9514-ff936ee425d3,Owner 7430,+91XXXXXXXXXX,,Mumbai,IN,Seller,Generated
3784b591-df0d-4a8f-afc4-b7d09ac34518,Owner 9636,+91XXXXXXXXXX,,Mumbai,IN,Seller,Generated
4259dd46-fabf-41ca-ab20-ad990c37e150,Owner 3108,+91XXXXXXXXXX,,Mumbai,IN,Seller,Generated
756fc25a-bda1-4538-96a4-b8dff08ad8f1,Owner 3887,+91XXXXXXXXXX,,Delhi,IN,Seller,Generated
0be0a1b7-a0ff-428b-a06b-a8d7d76815ee,Owner 1393,+91XXXXXXXXXX,,Delhi,IN,Seller,Generated
afd6610a-cffe-4f34-9706-c46d4ce58a35,Owner 5665,+91XXXXXXXXXX,,London,IN,Seller,Generated
4298f5bc-6316-4d8e-b053-d0af61922c32,Owner 7785,+91XXXXXXXXXX,,Mumbai,IN,Seller,Generated
95a8d34e-daa6-43ab-bc6d-6c46b9ec4c75,Owner 6230,+91XXXXXXXXXX,,Delhi,IN,Seller,Generated
db4b5ba3-5b3d-479a-8798-435142ef883a,Owner 7994,+91XXXXXXXXXX,,Mumbai,IN,Seller,Generated
475f6e6a-0494-4042-aaa1-df2888f38ace,Owner 4725,+91XXXXXXXXXX,,Mumbai,IN,Seller,Generated
e3fb553a-c4cc-4eeb-846d-d173871ebddb,Owner 854,+91XXXXXXXXXX,,Delhi,IN,Seller,Generated
134f26ae-ad87-4864-9dff-1c7c14048d22,Owner 8114,+91XXXXXXXXXX,,New York,IN,Seller,Generated
8b5151a4-5786-4015-b5a5-6fd0b1557874,Owner 7016,+91XXXXXXXXXX,,New York,IN,Seller,Generated
cab7b2a5-f29b-4769-8fdc-103bb09cf100,Owner 1014,+91XXXXXXXXXX,,London,IN,Seller,Generated
91c13b2e-3a06-42ad-927f-0ed58f4bf1c2,Owner 3346,+91XXXXXXXXXX,,Delhi,IN,Seller,Generated
600f6ef4-19d3-4bfa-85b6-cdfacdce05c4,Owner 1393,+91XXXXXXXXXX,,New York,IN,Seller,Generated
84aad0be-1858-43ac-b326-e6ef711562f6,Owner 4827,+91XXXXXXXXXX,,Mumbai,IN,Seller,Generated
6b2f48ef-cc93-4a14-adc4-6607f58be85a,Owner 4045,+91XXXXXXXXXX,,London,IN,Seller,Generated
4baf9cb1-34d8-434f-87a8-b8ac1dc385c9,Owner 25,+91XXXXXXXXXX,,London,IN,Seller,Generated
d3dea7cc-83af-499f-ac6a-48afaff851fd,Owner 4381,+91XXXXXXXXXX,,Delhi,IN,Seller,Generated
d378c003-e91b-491c-9e10-14c802b427b1,Owner 9589,+91XXXXXXXXXX,,New York,IN,Seller,Generated
2120209b-faab-4eab-abcc-11dc7c87dc17,Owner 9484,+91XXXXXXXXXX,,New York,IN,Seller,Generated
583c002f-646c-4b5b-af09-b71a8a389c63,Owner 4153,+91XXXXXXXXXX,,Mumbai,IN,Seller,Generated
af1a5c87-7135-43cf-92a4-055efe77ac35,Owner 9255,+91XXXXXXXXXX,,Mumbai,IN,Seller,Generated
c0c27953-0358-4ff7-acf5-d4eb5847a4ca,Owner 9017,+91XXXXXXXXXX,,New York,IN,Seller,Generated
2393c45a-acf8-4ca2-a14c-b1c420d6f6de,Owner 9658,+91XXXXXXXXXX,,London,IN,Seller,Generated
fbe06f32-9b28-455b-968f-8c5d41fec5d3,Owner 6108,+91XXXXXXXXXX,,Mumbai,IN,Seller,Generated
7a220386-597c-49ac-a8af-50359c91df29,Owner 6321,+91XXXXXXXXXX,,New York,IN,Seller,Generated
89646a64-f001-460d-84fe-67a9b62be01a,Owner 2604,+91XXXXXXXXXX,,Mumbai,IN,Seller,Generated
f357af63-95ef-4612-a005-7ddd4a7f0950,Owner 5420,+91XXXXXXXXXX,,London,IN,Seller,Generated
3b9d858f-9c19-46d9-8ab6-b7aec8b40bff,Owner 4652,+91XXXXXXXXXX,,Mumbai,IN,Seller,Generated
cb97d0cf-3fa8-405b-bb93-cfbb099e76ab,Owner 8568,+91XXXXXXXXXX,,Delhi,IN,Seller,Generated
efa80397-b2e8-463f-876a-9a700fcbf53e,Owner 6088,+91XXXXXXXXXX,,Delhi,IN,Seller,Generated
437a651a-9574-49c2-8363-411a64ab59e5,Owner 3318,+91XXXXXXXXXX,,London,IN,Seller,Generated
c74c164e-88f7-408a-bb9d-33d2ae9b53be,Owner 9967,+91XXXXXXXXXX,,Mumbai,IN,Seller,Generated
181a9e4d-7963-41da-983d-da78af0b8ec7,Owner 2719,+91XXXXXXXXXX,,London,IN,Seller,Generated
2b220fc3-6da7-4f3f-8086-c69c4c6a68cf,Owner 9509,+91XXXXXXXXXX,,London,IN,Seller,Generated
d2863c19-365b-4e27-81e8-38065f01b618,Owner 9463,+91XXXXXXXXXX,,New York,IN,Seller,Generated
08673d09-dbfa-4818-aa2f-9f91831f9b59,Owner 816,+91XXXXXXXXXX,,New York,IN,Seller,Generated
fefec712-84f7-4f61-8839-b00719125f4e,Owner 6966,+91XXXXXXXXXX,,Delhi,IN,Seller,Generated
2311af91-79f2-4f06-a908-b7f1e8e58711,Owner 9949,+91XXXXXXXXXX,,Delhi,IN,Seller,Generated
4e9ef658-7c04-40e8-a0f9-64782d2a0325,Owner 8066,+91XXXXXXXXXX,,Mumbai,IN,Seller,Generated
72db18f7-a0cf-4539-ab1d-74f3bfb531d4,Owner 6329,+91XXXXXXXXXX,,Delhi,IN,Seller,Generated
edf7eb2a-b4ac-403b-a7bd-e5089a4ab22a,Owner 3879,+91XXXXXXXXXX,,New York,IN,Seller,Generated
6a85fb34-2ffa-40a9-bbe7-97aeaa266803,Owner 6699,+91XXXXXXXXXX,,London,IN,Seller,Generated
d4371a84-6153-4183-ab0c-24a0c540c5c1,Owner 7458,+91XXXXXXXXXX,,Mumbai,IN,Seller,Generated
8b2b0b76-5c07-4ae4-9584-280ec5c2c972,Owner 6325,+91XXXXXXXXXX,,Delhi,IN,Seller,Generated
9711447d-bf9b-4cee-97c0-40b91cf0fd7b,Owner 3607,+91XXXXXXXXXX,,London,IN,Seller,Generated
4e9c2504-46c0-4b8c-a37e-40b3c0ca12e7,Owner 8387,+91XXXXXXXXXX,,London,IN,Seller,Generated
cbe08904-e62a-44a0-a717-8196d9e784f4,Owner 3102,+91XXXXXXXXXX,,Delhi,IN,Seller,Generated
42654651-8736-4c1d-92a2-357b7cd662c7,Owner 3718,+91XXXXXXXXXX,,London,IN,Seller,Generated
c6c31d71-97e2-48d9-8a6a-2c6f792aa6ba,Owner 4236,+91XXXXXXXXXX,,London,IN,Seller,Generated
f9d193fb-123a-4f68-a02b-6c3fd5176ec3,Owner 244,+91XXXXXXXXXX,,Delhi,IN,Seller,Generated
4f3a67e9-b417-4fd1-80de-3080d7158165,Owner 3550,+91XXXXXXXXXX,,New York,IN,Seller,Generated
5df46cac-c330-49d3-8c30-e9ed8cf345ef,Owner 5872,+91XXXXXXXXXX,,New York,IN,Seller,Generated
94bab6e8-a8d6-42da-b8cf-e42c588603db,Owner 2431,+91XXXXXXXXXX,,Mumbai,IN,Seller,Generated
2300aa94-926f-4109-acab-6534c4a380a9,Owner 7110,+91XXXXXXXXXX,,New York,IN,Seller,Generated
a92c66bf-33f2-40f0-a7f3-0c22830d18af,Owner 6771,+91XXXXXXXXXX,,Mumbai,IN,Seller,Generated
3ec48db6-be3c-4c75-be82-5f94753a0936,Owner 2697,+91XXXXXXXXXX,,Delhi,IN,Seller,Generated
972d38a8-01df-4ec4-9633-c33caeb421a0,Owner 895,+91XXXXXXXXXX,,Mumbai,IN,Seller,Generated
3f4f54b6-210d-4725-8dfb-6f3216041f1c,Owner 6841,+91XXXXXXXXXX,,Mumbai,IN,Seller,Generated
77d95786-7e96-4dde-972e-4150a28c4429,Owner 9949,+91XXXXXXXXXX,,Mumbai,IN,Seller,Generated
4221bf45-d1a6-4687-b58d-afc8cc23f661,Owner 438,+91XXXXXXXXXX,,Mumbai,IN,Seller,Generated
3d78a673-218e-4649-9376-46b3832a4b99,Owner 293,+91XXXXXXXXXX,,London,IN,Seller,Generated
050fa407-be43-4ff2-a26a-ad68e292c14e,Owner 5853,+91XXXXXXXXXX,,Mumbai,IN,Seller,Generated
297e80fb-3b32-4a01-a7fc-a13e4dd1d24f,Owner 6706,+91XXXXXXXXXX,,Delhi,IN,Seller,Generated
75e63c89-440f-4eb6-8605-d4c27f3b5b6f,Owner 3673,+91XXXXXXXXXX,,London,IN,Seller,Generated
ee6282e2-602a-4c15-a0cd-b4222d747174,Owner 4491,+91XXXXXXXXXX,,Mumbai,IN,Seller,Generated
8b5d31d3-d1fb-4b63-8260-f4d369c29788,Owner 3821,+91XXXXXXXXXX,,London,IN,Seller,Generated
a18b0cb1-94c4-4cb1-aeec-c0878f182786,Owner 1968,+91XXXXXXXXXX,,London,IN,Seller,Generated
01464913-2882-48d0-ac16-e45d89660a4c,Owner 1276,+91XXXXXXXXXX,,New York,IN,Seller,Generated
6ead3cfa-01a0-4623-8a40-07124467543c,Owner 8756,+91XXXXXXXXXX,,London,IN,Seller,Generated
38e4b61c-2b1e-446f-b0c8-04950077b85b,Owner 3957,+91XXXXXXXXXX,,Mumbai,IN,Seller,Generated
0b63cdb6-42a2-42a8-a2ca-cef43d4b518a,Owner 4531,+91XXXXXXXXXX,,New York,IN,Seller,Generated
ded18edb-0561-44b9-96b9-9b6f8c1a02b6,Owner 3145,+91XXXXXXXXXX,,New York,IN,Seller,Generated
c4e110a0-b466-49d7-b2b1-ef0233e1e16a,Owner 5326,+91XXXXXXXXXX,,New York,IN,Seller,Generated
93aaf794-a03b-40ae-9a59-bb2650d50c5b,Owner 7939,+91XXXXXXXXXX,,London,IN,Seller,Generated
efead05b-f810-47f1-a3a9-04cd0b749c90,Owner 9731,+91XXXXXXXXXX,,Delhi,IN,Seller,Generated
069d7100-0e80-4cbc-8f0c-7a0cfd80964c,Owner 5576,+91XXXXXXXXXX,,Mumbai,IN,Seller,Generated
022700b3-4f9a-4e39-89ab-cf019d2c8f20,Owner 913,+91XXXXXXXXXX,,Delhi,IN,Seller,Generated
fbb1a26e-ea76-4345-8992-852794537794,Owner 5367,+91XXXXXXXXXX,,Delhi,IN,Seller,Generated
55c3703b-8ced-4c74-85a7-24715b9ac606,Owner 2005,+91XXXXXXXXXX,,New York,IN,Seller,Generated
ef3ed7f9-e2d3-4c66-babb-b61685b270dd,Owner 7466,+91XXXXXXXXXX,,London,IN,Seller,Generated
bc959329-2363-40dd-88e5-5473d73111c6,Owner 4310,+91XXXXXXXXXX,,Delhi,IN,Seller,Generated
cd08a0cf-3cb9-4112-bdb4-cb1ea38cf8e6,Owner 3513,+91XXXXXXXXXX,,Delhi,IN,Seller,Generated
2dba1820-08d3-42d9-9087-62753887d6e6,Owner 799,+91XXXXXXXXXX,,London,IN,Seller,Generated
9cda4d2c-ac23-4115-8ec3-851545af3c56,Owner 4551,+91XXXXXXXXXX,,New York,IN,Seller,Generated
15319c42-1246-4643-be2d-1dc5f51b5ce1,Owner 9009,+91XXXXXXXXXX,,Mumbai,IN,Seller,Generated
92420e21-4f39-4aef-8107-2ede446690d7,Owner 549,+91XXXXXXXXXX,,Mumbai,IN,Seller,Generated
beb31d7b-a37a-4632-b09a-b4ece04fe45a,Owner 6914,+91XXXXXXXXXX,,Delhi,IN,Seller,Generated
5a5cf13b-7fb1-4113-88f9-9db253cea9e3,Owner 4497,+91XXXXXXXXXX,,Mumbai,IN,Seller,Generated
e9fe32d4-86c5-4548-b5d5-62838d795b64,Owner 9145,+91XXXXXXXXXX,,London,IN,Seller,Generated
24a0b603-0544-414a-84e4-487f408f4441,Owner 273,+91XXXXXXXXXX,,New York,IN,Seller,Generated
0fd51558-3818-42cd-a165-0852c0d5c420,Owner 4481,+91XXXXXXXXXX,,London,IN,Seller,Generated
64fd7e3f-21d8-4783-a17a-fe3335bb4acf,Owner 7776,+91XXXXXXXXXX,,Mumbai,IN,Seller,Generated
86a15f92-128c-4484-a287-ed54638b11ae,Owner 4568,+91XXXXXXXXXX,,Delhi,IN,Seller,Generated
8e1033c8-c2e1-4997-b7d9-839b5c0badb1,Owner 1069,+91XXXXXXXXXX,,New York,IN,Seller,Generated
1cafc241-a659-4ba5-a471-94ddae832f98,Owner 4060,+91XXXXXXXXXX,,Mumbai,IN,Seller,Generated
8ed4613c-c875-4e0f-b9b3-6afa122fa9fb,Owner 6106,+91XXXXXXXXXX,,London,IN,Seller,Generated
52d715ad-7898-4a18-9c60-a0ccc8130a44,Owner 2874,+91XXXXXXXXXX,,Delhi,IN,Seller,Generated
f0cdf821-6513-4c0d-8511-32939620c7c7,Owner 6067,+91XXXXXXXXXX,,Mumbai,IN,Seller,Generated
c618b5e9-e91e-4870-9ceb-5d47d83169a9,Owner 53,+91XXXXXXXXXX,,New York,IN,Seller,Generated
dd183890-ea45-4733-8365-d62e036ff27e,Owner 8851,+91XXXXXXXXXX,,London,IN,Seller,Generated
13f5dc93-555d-41af-8976-718489b0155a,Owner 3402,+91XXXXXXXXXX,,London,IN,Seller,Generated
6826ee6b-637a-4430-a5b2-970dc978c245,Owner 864,+91XXXXXXXXXX,,Delhi,IN,Seller,Generated
f0607138-5278-4334-bd63-8db198a22e36,Owner 2152,+91XXXXXXXXXX,,Mumbai,IN,Seller,Generated
e9683eff-6d51-43c2-ba8b-1ce63c613d3e,Owner 8451,+91XXXXXXXXXX,,Delhi,IN,Seller,Generated
d5702af2-ddb6-49ab-876e-76e560c1e3da,Owner 5496,+91XXXXXXXXXX,,Mumbai,IN,Seller,Generated
c75a969b-fcfa-4297-92b1-8d85c60ddf9a,Owner 8735,+91XXXXXXXXXX,,London,IN,Seller,Generated
7610fedf-65ab-4569-a151-b7575ab14991,Owner 3496,+91XXXXXXXXXX,,London,IN,Seller,Generated
6650d73c-1e85-4522-b9af-0f1eb249015f,Owner 5085,+91XXXXXXXXXX,,Mumbai,IN,Seller,Generated
b5836782-fe52-4b88-bd53-97c841381916,Owner 5809,+91XXXXXXXXXX,,Delhi,IN,Seller,Generated
bc251f94-b651-4fca-9bdc-bd126f7861ae,Owner 5341,+91XXXXXXXXXX,,New York,IN,Seller,Generated
1facd457-3d37-4a6d-a64d-50f65dee8545,Owner 4559,+91XXXXXXXXXX,,New York,IN,Seller,Generated
4c3ee761-d39b-45ee-9e06-8385e00c1ba3,Owner 3963,+91XXXXXXXXXX,,New York,IN,Seller,Generated
6c68399a-8b04-47be-8062-7606e5164fac,Owner 1063,+91XXXXXXXXXX,,New York,IN,Seller,Generated
bf3c8c29-1276-41b7-bff2-8937218501f4,Owner 5047,+91XXXXXXXXXX,,Mumbai,IN,Seller,Generated
7fc91729-ef25-479e-995c-ee054591132f,Owner 9828,+91XXXXXXXXXX,,London,IN,Seller,Generated
44f19c64-bc62-4ae3-9d63-74b284a718a5,Owner 7274,+91XXXXXXXXXX,,Delhi,IN,Seller,Generated
1aa06059-b986-47fa-8229-2a3ae4e6cd13,Owner 7642,+91XXXXXXXXXX,,Delhi,IN,Seller,Generated
bb8cf1c6-c3f0-4b8f-b073-5f66a8e18f9e,Owner 207,+91XXXXXXXXXX,,Delhi,IN,Seller,Generated
cdd5fa8c-7da3-4bfd-8b5b-3a8464b0e821,Owner 1368,+91XXXXXXXXXX,,New York,IN,Seller,Generated
ca27c8b6-d2f3-4543-99b4-ca29d7077d92,Owner 751,+91XXXXXXXXXX,,London,IN,Seller,Generated
d0f27ff1-73cd-4740-a95b-878381200594,Owner 9771,+91XXXXXXXXXX,,New York,IN,Seller,Generated
d50eb356-159a-481e-819a-c4a42f920324,Owner 1516,+91XXXXXXXXXX,,New York,IN,Seller,Generated
091782e8-6b0e-4052-8db7-7edc2db6bfb2,Owner 3863,+91XXXXXXXXXX,,New York,IN,Seller,Generated
08adebcb-e43b-44c2-895a-b3ea5e9452eb,Owner 9430,+91XXXXXXXXXX,,New York,IN,Seller,Generated
e9bfc015-4f6b-492a-9fcc-cbc0908d35cc,Owner 5814,+91XXXXXXXXXX,,New York,IN,Seller,Generated
