lead_id,name,phone,email,city,country,type,notes
62d4842e-58e6-420e-84c2-f9dabebc9997,Owner 3977,+91XXXXXXXXXX,,New York,IN,Seller,Generated
d0a76db1-90c1-486c-93a5-f7cd2e174b29,Owner 1389,+91XXXXXXXXXX,,London,IN,Seller,Generated
c8437275-85e1-407c-810f-e45d2da02dc0,Owner 9113,+91XXXXXXXXXX,,Delhi,IN,Seller,Generated
d9d1ee42-1a25-4839-98eb-2cfd0fa29075,Owner 1159,+91XXXXXXXXXX,,Delhi,IN,Seller,Generated
f739aad6-d8e4-4164-b92b-5d78170bdfdd,Owner 9086,+91XXXXXXXXXX,,Delhi,IN,Seller,Generated
fbab0787-68fc-4534-bdb4-791e7e059c96,Owner 501,+91XXXXXXXXXX,,Delhi,IN,Seller,Generated
9f0400f3-74b3-4cf5-8bdd-0a9805672511,Owner 7250,+91XXXXXXXXXX,,New York,IN,Seller,Generated
cd496bc8-940a-4e72-a2d4-68ad00c3b02b,Owner 7151,+91XXXXXXXXXX,,Delhi,IN,Seller,Generated
ba9fcf51-c60b-4b8d-b030-8194c00a3e75,Owner 6017,+91XXXXXXXXXX,,New York,IN,Seller,Generated
be495261-71b4-4336-9c0e-51f76fc831e3,Owner 7591,+91XXXXXXXXXX,,London,IN,Seller,Generated
1997c6ab-7353-4f34-bd00-5d61b8e8375d,Owner 2637,+91XXXXXXXXXX,,Mumbai,IN,Seller,Generated
8a06b5db-2964-4e77-8be8-19b4621330b9,Owner 3863,+91XXXXXXXXXX,,New York,IN,Seller,Generated
454790e2-cfdf-417f-87f3-b47c8837063a,Owner 9078,+91XXXXXXXXXX,,New York,IN,Seller,Generated
51d3e97c-4df2-4475-b3dd-cb0418e222c1,Owner 5374,+91XXXXXXXXXX,,New York,IN,Seller,Generated
737dd7b5-c7cd-4af2-937c-cc805ac81b37,Owner 61,+91XXXXXXXXXX,,New York,IN,Seller,Generated
85f02d7c-dc18-4990-b8d1-2ffb5d39c41b,Owner 1098,+91XXXXXXXXXX,,Mumbai,IN,Seller,Generated
9fc10082-a666-4619-a8eb-48067da8ec4d,Owner 8019,+91XXXXXXXXXX,,New York,IN,Seller,Generated
fb86fd76-39e8-44c7-ab86-f9e71dac7c77,Owner 8387,+91XXXXXXXXXX,,Mumbai,IN,Seller,Generated
d5e88da5-32f2-4fbc-80f3-5761a92c19d1,Owner 8247,+91XXXXXXXXXX,,London,IN,Seller,Generated
74608021-f5f8-4232-8e5c-33497b25bcb0,Owner 5981,+91XXXXXXXXXX,,London,IN,Seller,Generated
f8856690-71fb-4642-b47f-1e3b96aded3d,Owner 6018,+91XXXXXXXXXX,,Mumbai,IN,Seller,Generated
c308fd15-6a80-4a97-9f85-3d8716910821,Owner 637,+91XXXXXXXXXX,,London,IN,Seller,Generated
c50d95b8-a378-41b6-877e-3cda4628dc50,Owner 8244,+91XXXXXXXXXX,,New York,IN,Seller,Generated
454e17bc-639f-481f-bac0-4034321be8b2,Owner 761,+91XXXXXXXXXX,,London,IN,Seller,Generated
da512506-9d91-4b99-aedc-3938e626934d,Owner 570,+91XXXXXXXXXX,,London,IN,Seller,Generated
41533bed-9116-47ba-8fb7-e2daf0e71208,Owner 4312,+91XXXXXXXXXX,,Mumbai,IN,Seller,Generated
a9c7b539-dbf2-4adb-a8a4-1eca3ce8fa4c,Owner 7801,+91XXXXXXXXXX,,London,IN,Seller,Generated
273f9a11-6ab7-4513-b729-505d5301d4b7,Owner 9218,+91XXXXXXXXXX,,New York,IN,Seller,Generated
1bc713ff-0e22-4346-b5e4-9124f5714af9,Owner 9159,+91XXXXXXXXXX,,Mumbai,IN,Seller,Generated
7185c82a-f8fc-4dad-aaa0-4ef9b3d0619d,Owner 8975,+91XXXXXXXXXX,,New York,IN,Seller,Generated
29659a5a-90b0-44ec-8307-6162c5c05caa,Owner 4520,+91XXXXXXXXXX,,London,IN,Seller,Generated
e7665c29-d460-46fa-a25e-25167725ac23,Owner 3223,+91XXXXXXXXXX,,New York,IN,Seller,Generated
b9b6fa4c-8285-453b-bde3-2f6c17bc79e7,Owner 8067,+91XXXXXXXXXX,,New York,IN,Seller,Generated
62ca7e49-8c47-48db-9a06-58fed9934093,Owner 5343,+91XXXXXXXXXX,,London,IN,Seller,Generated
b971ff1b-8118-4c06-9df0-af2e78d02f0c,Owner 127,+91XXXXXXXXXX,,London,IN,Seller,Generated
b1b88969-fb3e-4c7c-bd65-630d4970ff64,Owner 3855,+91XXXXXXXXXX,,Mumbai,IN,Seller,Generated
f760a680-d28a-40e1-ac88-0153463ac8b1,Owner 4628,+91XXXXXXXXXX,,London,IN,Seller,Generated
5fda70eb-6f3a-4f5a-8e73-d7cc2963fa13,Owner 8542,+91XXXXXXXXXX,,New York,IN,Seller,Generated
336ba6e5-1e08-4f13-99ac-23cc1045adc3,Owner 8169,+91XXXXXXXXXX,,New York,IN,Seller,Generated
38c5bda1-a91b-4913-b3ee-a8ede26cefb3,Owner 4615,+91XXXXXXXXXX,,Mumbai,IN,Seller,Generated
e998aa63-c017-4a8c-a18f-9b05f7ba72a9,Owner 1469,+91XXXXXXXXXX,,London,IN,Seller,Generated
7a5ae15f-2cd0-4d2e-a685-3ef264168353,Owner 1201,+91XXXXXXXXXX,,New York,IN,Seller,Generated
6ce5f737-9843-4c9f-8406-032e145d798d,Owner 4530,+91XXXXXXXXXX,,Delhi,IN,Seller,Generated
61bb0c9b-a010-454b-b588-d48faebeb8d0,Owner 9165,+91XXXXXXXXXX,,New York,IN,Seller,Generated
c47b6d57-d8a2-4dd9-82ea-a725a1d18a2f,Owner 9161,+91XXXXXXXXXX,,Delhi,IN,Seller,Generated
dd2dfe09-2cc6-417a-8e88-740c9d7bd525,Owner 9633,+91XXXXXXXXXX,,London,IN,Seller,Generated
b13e9a93-4b91-40da-b0ab-d658a8fa834b,Owner 1348,+91XXXXXXXXXX,,Delhi,IN,Seller,Generated
bbb40576-f375-4004-ab86-f2e25b8c12f0,Owner 3665,+91XXXXXXXXXX,,Mumbai,IN,Seller,Generated
78a965ab-1dae-4f61-8cb2-86e95c1534ad,Owner 1422,+91XXXXXXXXXX,,London,IN,Seller,Generated
fdae1a42-f4f5-4d4c-bcd9-6b92d296a655,Owner 3246,+91XXXXXXXXXX,,Delhi,IN,Seller,Generated
4e2d68dc-b3e7-4d6e-a767-dd23a92fcc0c,Owner 2591,+91XXXXXXXXXX,,London,IN,Seller,Generated
c9651687-c578-4e67-a6b7-23889e6975d6,Owner 7135,+91XXXXXXXXXX,,Delhi,IN,Seller,Generated
a907d15b-cf63-42ae-a562-91dd8e2cf729,Owner 7043,+91XXXXXXXXXX,,Mumbai,IN,Seller,Generated
a69e6569-1ddd-47b4-a6bc-502688b0bc51,Owner 6614,+91XXXXXXXXXX,,Delhi,IN,Seller,Generated
aee5fa3e-c95e-4bd6-a8c2-10b48e713bd6,Owner 3512,+91XXXXXXXXXX,,London,IN,Seller,Generated
6c272797-ebcd-4824-a95d-0917427e5be8,Owner 6051,+91XXXXXXXXXX,,New York,IN,Seller,Generated
65d6f7dc-a363-469d-9d19-638246bcb3eb,Owner 615,+91XXXXXXXXXX,,Mumbai,IN,Seller,Generated
8bc1b5ee-45f7-4faa-83be-184a739843e6,Owner 7203,+91XXXXXXXXXX,,New York,IN,Seller,Generated
165553c7-171b-435f-b55b-7e3f588ab457,Owner 4502,+91XXXXXXXXXX,,London,IN,Seller,Generated
f1f728b2-d3d1-48fe-8d92-f08f28d26271,Owner 2723,+91XXXXXXXXXX,,Mumbai,IN,Seller,Generated
612b5856-571b-4d0f-9ade-c6ca600817ac,Owner 5803,+91XXXXXXXXXX,,Mumbai,IN,Seller,Generated
549c68e6-288a-48f0-a4e7-adc9141d9e18,Owner 1125,+91XXXXXXXXXX,,Mumbai,IN,Seller,Generated
e83f4420-a48a-4ce5-bbff-744321c20cfb,Owner 8047,+91XXXXXXXXXX,,London,IN,Seller,Generated
dbe89f5a-d12f-4c33-8cda-488eb0dcb407,Owner 6498,+91XXXXXXXXXX,,Mumbai,IN,Seller,Generated
ae32c0de-1d3b-471f-813f-dec6e39f78ea,Owner 6289,+91XXXXXXXXXX,,Mumbai,IN,Seller,Generated
33d41471-437f-47cf-acab-00c8190d5817,Owner 8002,+91XXXXXXXXXX,,Mumbai,IN,Seller,Generated
28ead95f-c7c8-4345-a2da-720c715dd059,Owner 1719,+91XXXXXXXXXX,,Delhi,IN,Seller,Generated
46050946-97dc-431f-93c2-af6ebc7267f7,Owner 939,+91XXXXXXXXXX,,London,IN,Seller,Generated
ff38164b-d9f5-488d-a46e-576b55b4a2c7,Owner 6015,+91XXXXXXXXXX,,Delhi,IN,Seller,Generated
6535b3d8-4d79-462c-9b89-cd41771ca7aa,Owner 4251,+91XXXXXXXXXX,,Delhi,IN,Seller,Generated
bf05cde0-6241-4137-be2c-4cde9c0cacd9,Owner 8767,+91XXXXXXXXXX,,Delhi,IN,Seller,Generated
fe702196-a82b-42fc-b175-a65bda5fa852,Owner 5860,+91XXXXXXXXXX,,London,IN,Seller,Generated
3d9740df-2a38-4ef6-adc6-e1f973ab870d,Owner 2155,+91XXXXXXXXXX,,Mumbai,IN,Seller,Generated
04ce7135-ba40-48f8-ac20-556493f75ecf,Owner 8874,+91XXXXXXXXXX,,Mumbai,IN,Seller,Generated
cca8ebd3-618d-4117-9aa8-d1f074c8a882,Owner 2084,+91XXXXXXXXXX,,London,IN,Seller,Generated
32faf4ef-a196-4b18-8188-954c31fa4b31,Owner 6900,+91XXXXXXXXXX,,Delhi,IN,Seller,Generated
9771ca5f-b9e0-4784-b61d-ea6fe46c0cf0,Owner 1687,+91XXXXXXXXXX,,New York,IN,Seller,Generated
5363ffdb-8c6e-4cdd-9bf8-300ad65eba2f,Owner 7873,+91XXXXXXXXXX,,London,IN,Seller,Generated
8bcc7aeb-47c3-4594-b154-934642275f76,Owner 4409,+91XXXXXXXXXX,,London,IN,Seller,Generated
03aeca94-daff-4c7a-876d-a1ee10721d43,Owner 6577,+91XXXXXXXXXX,,Delhi,IN,Seller,Generated
e0354815-4108-42e0-9390-a015559f8b14,Owner 8009,+91XXXXXXXXXX,,Mumbai,IN,Seller,Generated
dbd8e0c7-5932-430f-acf5-dbc1feeeb49b,Owner 3882,+91XXXXXXXXXX,,London,IN,Seller,Generated
e8947a60-6ff4-4d55-bdb2-78f7d1f247c0,Owner 9860,+91XXXXXXXXXX,,Mumbai,IN,Seller,Generated
0201b8f2-4021-4091-8d5e-8e16d09e62e4,Owner 653,+91XXXXXXXXXX,,Mumbai,IN,Seller,Generated
a074fb8c-d65b-485a-980d-f9cdc9a6d1ef,Owner 5495,+91XXXXXXXXXX,,London,IN,Seller,Generated
cf6690c7-fbf5-4d0f-9e54-fca12998e771,Owner 3491,+91XXXXXXXXXX,,New York,IN,Seller,Generated
7f42d246-8bac-41c6-8bf2-9ef315977f85,Owner 9494,+91XXXXXXXXXX,,London,IN,Seller,Generated
b0f52809-e560-4505-9ef0-1af432ed9c31,Owner 1564,+91XXXXXXXXXX,,New York,IN,Seller,Generated
73cd6fb0-d7e7-4f2e-be20-fc9402ca9215,Owner 5852,+91XXXXXXXXXX,,Delhi,IN,Seller,Generated
724251b4-2e6e-4e94-bdb3-2ac04a18f2ed,Owner 4983,+91XXXXXXXXXX,,Mumbai,IN,Seller,Generated
5c9ee41f-5dc7-4388-b9b4-fa3f3ee8d9e0,Owner 9498,+91XXXXXXXXXX,,Delhi,IN,Seller,Generated
ccdb4128-8383-4496-8f8e-aee7be114dc7,Owner 6036,+91XXXXXXXXXX,,Mumbai,IN,Seller,Generated
6b855ab3-e54a-4e2c-9553-1fd09e8aad18,Owner 9796,+91XXXXXXXXXX,,Delhi,IN,Seller,Generated
010da2be-ded8-4f23-9009-774dfbf2d11e,Owner 2162,+91XXXXXXXXXX,,Delhi,IN,Seller,Generated
c53938c2-1286-4775-8578-54c099586175,Owner 7757,+91XXXXXXXXXX,,New York,IN,Seller,Generated
8b3277ad-397b-4a56-988d-607b983d3d35,Owner 3716,+91XXXXXXXXXX,,New York,IN,Seller,Generated
c903afcf-6e0d-4791-b4bd-01fd76e27bbc,Owner 8256,+91XXXXXXXXXX,,London,IN,Seller,Generated
ac6ee36d-9625-4cb3-8f21-cab795d34e43,Owner 8823,+91XXXXXXXXXX,,Mumbai,IN,Seller,Generated
92de08f2-20c4-4d5f-b807-696d30adaaa8,Owner 2813,+91XXXXXXXXXX,,London,IN,Seller,Generated
10faa3ed-ee7e-4fdd-80de-31ce89193f2b,Owner 3428,+91XXXXXXXXXX,,New York,IN,Seller,Generated
45097c3a-78b2-439c-962f-7f119d37393f,Owner 8163,+91XXXXXXXXXX,,New York,IN,Seller,Generated
da5384c8-822b-4eab-9789-9461177721fc,Owner 6596,+91XXXXXXXXXX,,London,IN,Seller,Generated
b5460b1b-e364-421f-adbf-49e539a45283,Owner 2152,+91XXXXXXXXXX,,New York,IN,Seller,Generated
9a6c9c5b-98ad-4cf1-92c3-de7be9cadc12,Owner 2813,+91XXXXXXXXXX,,Delhi,IN,Seller,Generated
c7cb942e-a1fe-44f4-b054-5c03be941969,Owner 3684,+91XXXXXXXXXX,,London,IN,Seller,Generated
82f88ddc-4b17-4fea-91bf-9bf4cb0d9e01,Owner 7148,+91XXXXXXXXXX,,Mumbai,IN,Seller,Generated
ee9ea970-bb3a-4802-8b91-42044674f4bc,Owner 5000,+91XXXXXXXXXX,,London,IN,Seller,Generated
24e7353a-97b2-4409-b86f-b86cf8bbab0f,Owner 7789,+91XXXXXXXXXX,,Delhi,IN,Seller,Generated
b4fdf6fb-7a1c-4b99-a4b4-65c6ecf9b5f5,Owner 6377,+91XXXXXXXXXX,,Delhi,IN,Seller,Generated
fb65df8a-71cc-4dc3-8741-1bd5c817ab5e,Owner 3944,+91XXXXXXXXXX,,London,IN,Seller,Generated
8e7aecad-8e45-48d0-bad9-4e0ed162741c,Owner 1331,+91XXXXXXXXXX,,Delhi,IN,Seller,Generated
c328409e-1d07-44b0-8438-f47b4476a0ea,Owner 8841,+91XXXXXXXXXX,,New York,IN,Seller,Generated
aaaeed55-d413-4ff5-8ab0-4dd8852442df,Owner 5947,+91XXXXXXXXXX,,London,IN,Seller,Generated
ef61a660-fa23-47fe-a5ac-995344ff6cce,Owner 2408,+91XXXXXXXXXX,,Delhi,IN,Seller,Generated
4d682c3b-e1a2-45f9-9d24-a89f29cb29ea,Owner 2328,+91XXXXXXXXXX,,New York,IN,Seller,Generated
7c1e45ca-3f48-451e-9a74-cea4d9c138db,Owner 154,+91XXXXXXXXXX,,New York,IN,Seller,Generated
400c3457-d4db-4e21-9753-d2bf914adb27,Owner 2325,+91XXXXXXXXXX,,Delhi,IN,Seller,Generated
a5b7fecd-da06-4e07-b46a-06fda3bf4dd4,Owner 4155,+91XXXXXXXXXX,,Delhi,IN,Seller,Generated
ffd41550-8a60-4a93-adef-f4eb559ec05c,Owner 3431,+91XXXXXXXXXX,,Delhi,IN,Seller,Generated
5fd4a48e-f2e3-4f59-9145-2181bd9c292e,Owner 1993,+91XXXXXXXXXX,,London,IN,Seller,Generated
16207a49-f88c-493e-9b8d-8cad3b77e3ff,Owner 5922,+91XXXXXXXXXX,,Delhi,IN,Seller,Generated
92bee3f4-4048-4a5b-886f-dc28c6c07499,Owner 3313,+91XXXXXXXXXX,,Mumbai,IN,Seller,Generated
11478495-1cf8-48ed-bcb6-64501ae46985,Owner 9448,+91XXXXXXXXXX,,New York,IN,Seller,Generated
90bed203-697d-47fd-a95a-be4718e6aebc,Owner 7938,+91XXXXXXXXXX,,New York,IN,Seller,Generated
62738bcf-1bf3-4615-b4c9-3af97aa66a74,Owner 5437,+91XXXXXXXXXX,,Mumbai,IN,Seller,Generated
9f27452c-622a-4492-aaee-8d720d582c33,Owner 4343,+91XXXXXXXXXX,,New York,IN,Seller,Generated
f961c480-aa13-49a3-987f-2b7d917cc647,Owner 3473,+91XXXXXXXXXX,,London,IN,Seller,Generated
74875ee7-9f26-4904-9cca-c6326d0a319e,Owner 4265,+91XXXXXXXXXX,,London,IN,Seller,Generated
aacaf17f-d786-4d2b-8a3f-c80e23de144d,Owner 5899,+91XXXXXXXXXX,,New York,IN,Seller,Generated
24d91a70-a813-423e-ac0b-6e5decaa14f5,Owner 7529,+91XXXXXXXXXX,,London,IN,Seller,Generated
36df7e93-bcbf-4609-badc-322b9d325ddb,Owner 4567,+91XXXXXXXXXX,,London,IN,Seller,Generated
bb12a44b-148b-402d-a136-98573e3d2e36,Owner 3322,+91XXXXXXXXXX,,New York,IN,Seller,Generated
73b97059-e97c-4c6f-93d7-c97b8760d1cc,Owner 2649,+91XXXXXXXXXX,,Delhi,IN,Seller,Generated
3de8e238-f2b1-4722-8c17-c75917450791,Owner 7355,+91XXXXXXXXXX,,Delhi,IN,Seller,Generated
46087218-f2af-4382-9797-1d440ef84f70,Owner 3933,+91XXXXXXXXXX,,Delhi,IN,Seller,Generated
629e0499-e8f5-4132-b907-87a61f0629a2,Owner 5054,+91XXXXXXXXXX,,Delhi,IN,Seller,Generated
bc4c6485-8162-44f4-a23c-f2171d3bc271,Owner 7509,+91XXXXXXXXXX,,London,IN,Seller,Generated
3891f43d-c72f-479b-8e6a-3637c7cfa711,Owner 652,+91XXXXXXXXXX,,Mumbai,IN,Seller,Generated
d7a6ea0a-538e-49a5-ba4e-2d91b7b4f9bc,Owner 9179,+91XXXXXXXXXX,,London,IN,Seller,Generated
e14ca14f-12c3-4bdb-a78c-4a0e27eac62c,Owner 6483,+91XXXXXXXXXX,,New York,IN,Seller,Generated
303a2e7d-563e-4cd8-9eee-c0f3ca340de4,Owner 9425,+91XXXXXXXXXX,,New York,IN,Seller,Generated
220d5b69-7e2a-42d2-a0de-0f72d2d65fb4,Owner 5656,+91XXXXXXXXXX,,New York,IN,Seller,Generated
686b67b1-e879-46e0-a6f5-067034264e79,Owner 3509,+91XXXXXXXXXX,,London,IN,Seller,Generated
b11196c7-1a48-47ff-bca4-42763512dba1,Owner 7762,+91XXXXXXXXXX,,London,IN,Seller,Generated
a325c9b3-1162-41cc-9b0f-419bf26f3cf1,Owner 4599,+91XXXXXXXXXX,,Delhi,IN,Seller,Generated
7df06558-279b-4fb3-bb13-324a56821b75,Owner 2607,+91XXXXXXXXXX,,New York,IN,Seller,Generated
45bcef04-5a44-47c3-a1dc-c12bfe6e5c25,Owner 5122,+91XXXXXXXXXX,,New York,IN,Seller,Generated
ba2700e6-200d-4c35-9a19-37b26e626a4d,Owner 3104,+91XXXXXXXXXX,,Delhi,IN,Seller,Generated
f5b302cf-fa11-451a-864e-9fe4c1035432,Owner 1077,+91XXXXXXXXXX,,Mumbai,IN,Seller,Generated
103fc440-ea8a-49bb-a130-5c01412e1519,Owner 1244,+91XXXXXXXXXX,,London,IN,Seller,Generated
a4df83b9-9318-4f28-8bc2-4d01e4f5e7c0,Owner 5355,+91XXXXXXXXXX,,Delhi,IN,Seller,Generated
bb0adb35-7beb-4cef-a6f9-323715e5c37f,Owner 3588,+91XXXXXXXXXX,,Delhi,IN,Seller,Generated
31722e31-61d8-4883-9492-bda3059559db,Owner 9644,+91XXXXXXXXXX,,London,IN,Seller,Generated
77b61da0-e688-428d-be01-251baa748902,Owner 4158,+91XXXXXXXXXX,,Delhi,IN,Seller,Generated
3c557956-38da-4e53-9230-c117049e4423,Owner 1110,+91XXXXXXXXXX,,London,IN,Seller,Generated
b9128393-c169-495c-81a2-2e3403802c9d,Owner 8774,+91XXXXXXXXXX,,Mumbai,IN,Seller,Generated
11c28c5e-8623-4770-a1cc-3246a76d9d9a,Owner 1460,+91XXXXXXXXXX,,Mumbai,IN,Seller,Generated
31105441-8ec2-4d3e-b904-b8daa66277b5,Owner 9278,+91XXXXXXXXXX,,Mumbai,IN,Seller,Generated
8618812e-332a-4d23-8710-9595f98a328c,Owner 9315,+91XXXXXXXXXX,,New York,IN,Seller,Generated
1da29e75-5b46-45b7-ac13-94bad9f6926a,Owner 2816,+91XXXXXXXXXX,,Mumbai,IN,Seller,Generated
66e2bac0-691f-488c-81bf-6a25b8fc976a,Owner 836,+91XXXXXXXXXX,,Delhi,IN,Seller,Generated
35fbeed6-ae35-4a5b-8225-b9ab3105159e,Owner 3762,+91XXXXXXXXXX,,London,IN,Seller,Generated
3e58b9f9-71b1-4499-b9a4-7e02ec4cb8ea,Owner 5434,+91XXXXXXXXXX,,Mumbai,IN,Seller,Generated
7c7aa063-c076-43ef-85ef-ab700e590fc6,Owner 2439,+91XXXXXXXXXX,,New York,IN,Seller,Generated
23928014-5d25-4905-aeef-85d1688bb9dc,Owner 6476,+91XXXXXXXXXX,,New York,IN,Seller,Generated
5b9062d7-1847-421f-a474-5ad7577eba07,Owner 9673,+91XXXXXXXXXX,,Mumbai,IN,Seller,Generated
42280e1b-9a92-45fc-9709-b9845baa16d4,Owner 9072,+91XXXXXXXXXX,,Delhi,IN,Seller,Generated
1a740484-1c29-46f6-8009-5a45569f0d58,Owner 8645,+91XXXXXXXXXX,,Mumbai,IN,Seller,Generated
a8267851-a6ec-447e-9fb8-489459f7c8e9,Owner 1908,+91XXXXXXXXXX,,New York,IN,Seller,Generated
0b7097ad-4b76-4443-8784-cee011ae8e1e,Owner 3914,+91XXXXXXXXXX,,Mumbai,IN,Seller,Generated
61bdf53e-6cc8-4bff-a67f-f277499fefe3,Owner 5806,+91XXXXXXXXXX,,New York,IN,Seller,Generated
6bda7d4c-f1a7-409b-ae0e-51fd6635c415,Owner 3751,+91XXXXXXXXXX,,Mumbai,IN,Seller,Generated
5bfdec22-dc2a-4dc8-a163-32ba849be204,Owner 7890,+91XXXXXXXXXX,,Mumbai,IN,Seller,Generated
c63b8050-c371-489d-accc-b250bc2f92dc,Owner 3681,+91XXXXXXXXXX,,London,IN,Seller,Generated
8195bc0d-d6f8-4a07-9638-6a3e3c12215d,Owner 1819,+91XXXXXXXXXX,,New York,IN,Seller,Generated
78067ea9-2646-45ac-ab64-1f6ecc50ee3d,Owner 6734,+91XXXXXXXXXX,,London,IN,Seller,Generated
64597948-1c8a-4763-9522-c8b1d76bce54,Owner 2683,+91XXXXXXXXXX,,Mumbai,IN,Seller,Generated
01124380-e814-43c0-9647-4217ea46711b,Owner 8996,+91XXXXXXXXXX,,London,IN,Seller,Generated
73d8dfb4-8c0a-4810-b98a-7fe0c7154ccb,Owner 5523,+91XXXXXXXXXX,,Mumbai,IN,Seller,Generated
9bc977a0-de03-478d-8ba9-4b8023526ebd,Owner 7880,+91XXXXXXXXXX,,London,IN,Seller,Generated
f0ea54b9-7506-4668-8128-bcb686c42cd7,Owner 6510,+91XXXXXXXXXX,,Mumbai,IN,Seller,Generated
65b86cf4-f4ba-491c-b2d4-39fedee5ed63,Owner 6598,+91XXXXXXXXXX,,London,IN,Seller,Generated
0fbad1cd-b0a3-4acb-aab2-eec5956b74cf,Owner 2532,+91XXXXXXXXXX,,Mumbai,IN,Seller,Generated
5a878891-0ae2-4e62-a9e6-a339572e7399,Owner 8935,+91XXXXXXXXXX,,Delhi,IN,Seller,Generated
a6f16d55-27f6-490c-a62a-fccdc159f807,Owner 5538,+91XXXXXXXXXX,,New York,IN,Seller,Generated
415814b3-0eee-4612-8847-1a0df42d8d6e,Owner 5452,+91XXXXXXXXXX,,London,IN,Seller,Generated
05393cde-be87-458b-9e0e-1ce7bc69013f,Owner 7007,+91XXXXXXXXXX,,London,IN,Seller,Generated
c7ee369a-40f3-453d-8273-e12c6fab17de,Owner 2066,+91XXXXXXXXXX,,New York,IN,Seller,Generated
a7a5daf7-8036-41ac-a0a2-af66034acde3,Owner 571,+91XXXXXXXXXX,,Delhi,IN,Seller,Generated
c7afd0f0-fbeb-40a3-a5a2-211fa09ed99b,Owner 2956,+91XXXXXXXXXX,,Mumbai,IN,Seller,Generated
25249e40-0f72-46af-9de1-b475c2ff00ce,Owner 2860,+91XXXXXXXXXX,,Mumbai,IN,Seller,Generated
f8e007ec-c200-4e12-b166-238f8f922ce2,Owner 4297,+91XXXXXXXXXX,,Delhi,IN,Seller,Generated
52aa6d76-52b7-4c10-b92f-c3ddb58d6892,Owner 8992,+91XXXXXXXXXX,,London,IN,Seller,Generated
80132457-c5dd-4bf4-b1f7-044521b02f59,Owner 2338,+91XXXXXXXXXX,,Delhi,IN,Seller,Generated
ef399873-a97e-4852-b414-2ca39a3926fe,Owner 4558,+91XXXXXXXXXX,,London,IN,Seller,Generated
18498383-5fb4-430d-916a-cf86be60ab2f,Owner 239,+91XXXXXXXXXX,,New York,IN,Seller,Generated
f1158ec5-bb01-4514-a148-679c82a12442,Owner 9045,+91XXXXXXXXXX,,London,IN,Seller,Generated
cd590810-84aa-45a0-b2f5-1c1131900ff3,Owner 3079,+91XXXXXXXXXX,,Mumbai,IN,Seller,Generated
d9909edd-371b-4504-840a-9f71ca035eef,Owner 7376,+91XXXXXXXXXX,,London,IN,Seller,Generated
7b7a0eba-c751-4dd8-a663-a682a09d3648,Owner 4153,+91XXXXXXXXXX,,New York,IN,Seller,Generated
14e442e7-3315-4ca4-a355-282c373b10bf,Owner 2824,+91XXXXXXXXXX,,Delhi,IN,Seller,Generated
6da46f77-7f34-4866-ac1e-96888cd49e88,Owner 6573,+91XXXXXXXXXX,,London,IN,Seller,Generated
98f3df95-d89e-4a3e-9671-63251315f48f,Owner 9225,+91XXXXXXXXXX,,New York,IN,Seller,Generated
07eff57a-9442-4067-aa48-2f473380eb2c,Owner 3441,+91XXXXXXXXXX,,London,IN,Seller,Generated
38a779e3-adf2-4658-aa92-295d82175e81,Owner 2547,+91XXXXXXXXXX,,New York,IN,Seller,Generated
4483b462-6080-40cd-bfd7-7bcd516754e4,Owner 1440,+91XXXXXXXXXX,,Mumbai,IN,Seller,Generated
c43b287a-c890-4421-a5db-3dd4d0985160,Owner 9533,+91XXXXXXXXXX,,Delhi,IN,Seller,Generated
7cf331a1-e897-4f2e-9496-5677d49e0eda,Owner 8088,+91XXXXXXXXXX,,Mumbai,IN,Seller,Generated
067a7d44-ad82-4b9b-8eaa-52b17e238dee,Owner 4875,+91XXXXXXXXXX,,New York,IN,Seller,Generated
d8d6537a-d28d-4a73-9de6-7b99cfa257d3,Owner 6465,+91XXXXXXXXXX,,Mumbai,IN,Seller,Generated
c8cf45bb-f04a-4b9f-938d-ca6367c6bfef,Owner 8943,+91XXXXXXXXXX,,Mumbai,IN,Seller,Generated
271a79df-d7ef-4970-8559-50ba68b4525f,Owner 6928,+91XXXXXXXXXX,,London,IN,Seller,Generated
6da921a8-5f42-495f-83fb-f357d9ef87f9,Owner 8539,+91XXXXXXXXXX,,London,IN,Seller,Generated
fb0441f1-1284-40ac-9cb5-4e87fe76160d,Owner 6704,+91XXXXXXXXXX,,Delhi,IN,Seller,Generated
14e5f408-674d-4753-a7eb-b1611f39f439,Owner 8284,+91XXXXXXXXXX,,New York,IN,Seller,Generated
217f857f-c89a-4819-b4c1-2551f5013768,Owner 5096,+91XXXXXXXXXX,,Delhi,IN,Seller,Generated
4ae211bc-5355-4df0-a433-fc10539a79f6,Owner 3696,+91XXXXXXXXXX,,New York,IN,Seller,Generated
61552e30-6668-4833-860e-0f87a62bef1a,Owner 4456,+91XXXXXXXXXX,,London,IN,Seller,Generated
0935e7fc-a771-49fc-a06b-1119eea66fc9,Owner 4523,+91XXXXXXXXXX,,London,IN,Seller,Generated
139fb35a-f905-4d0a-8386-14cdd6354749,Owner 3739,+91XXXXXXXXXX,,Mumbai,IN,Seller,Generated
a3ac001f-0824-4c72-b0e2-8d0b7ba078d6,Owner 8607,+91XXXXXXXXXX,,New York,IN,Seller,Generated
21425355-424f-44b3-9cd7-8b827adfae39,Owner 2256,+91XXXXXXXXXX,,London,IN,Seller,Generated
c49ee74d-67ff-4fd7-b319-653baafc6d92,Owner 9428,+91XXXXXXXXXX,,Delhi,IN,Seller,Generated
863b1265-6798-458e-aa52-608d97bbe40f,Owner 4731,+91XXXXXXXXXX,,Delhi,IN,Seller,Generated
839a2219-4c8c-4406-a197-ff293c6461e3,Owner 2276,+91XXXXXXXXXX,,London,IN,Seller,Generated
55b6f98c-2a74-440c-85ff-3630e75c5458,Owner 6992,+91XXXXXXXXXX,,London,IN,Seller,Generated
93cdf7e0-da11-4d61-8947-4ae745278c8a,Owner 5022,+91XXXXXXXXXX,,New York,IN,Seller,Generated
6782d2cb-2e56-4ee5-b14c-9ab6acecf92f,Owner 6750,+91XXXXXXXXXX,,Mumbai,IN,Seller,Generated
1e1bb2d4-c172-47f7-9c61-a937d1c6de1c,Owner 3041,+91XXXXXXXXXX,,Delhi,IN,Seller,Generated
d9ee097d-6440-4ea7-b307-30231586b384,Owner 3699,+91XXXXXXXXXX,,New York,IN,Seller,Generated
dae7768d-c65b-40d8-b9a1-73af294105b9,Owner 1869,+91XXXXXXXXXX,,New York,IN,Seller,Generated
7b2c80a1-40a4-4996-a2a9-6faad8385348,Owner 9095,+91XXXXXXXXXX,,New York,IN,Seller,Generated
1af8f533-62e3-4a45-9aa8-627deb90b8be,Owner 3694,+91XXXXXXXXXX,,New York,IN,Seller,Generated
8c7ea99a-c477-4da9-a2e4-6329a7ac7f1e,Owner 4809,+91XXXXXXXXXX,,Delhi,IN,Seller,Generated
d53ab027-e6fc-4382-895c-c1cb1eac9d60,Owner 8183,+91XXXXXXXXXX,,Delhi,IN,Seller,Generated
bb7458e0-1c24-446e-85c2-6d867963ffa5,Owner 4719,+91XXXXXXXXXX,,New York,IN,Seller,Generated
58832c3f-43a8-497a-bbcb-b47b49d0e643,Owner 2151,+91XXXXXXXXXX,,New York,IN,Seller,Generated
0657b81c-68a5-4517-a7eb-0407368744de,Owner 1826,+91XXXXXXXXXX,,Delhi,IN,Seller,Generated
9c15dbe2-3e60-4795-a4cf-38dbd23c7f78,Owner 1366,+91XXXXXXXXXX,,New York,IN,Seller,Generated
bfba1882-89f3-400a-af78-2e51e4ae6a15,Owner 5937,+91XXXXXXXXXX,,Delhi,IN,Seller,Generated
e81a953b-9e8d-40de-9ca8-503330e43b91,Owner 7489,+91XXXXXXXXXX,,New York,IN,Seller,Generated
661542da-d94e-459e-9fed-7f48e1d25556,Owner 3071,+91XXXXXXXXXX,,New York,IN,Seller,Generated
287a9712-c430-4864-811c-5301a45d595c,Owner 8645,+91XXXXXXXXXX,,Mumbai,IN,Seller,Generated
2041a2dc-9c2a-4709-a613-b55bfcf5444b,Owner 4684,+91XXXXXXXXXX,,New York,IN,Seller,Generated
6a2786cd-5543-4502-9a81-89e90f6cdb62,Owner 5945,+91XXXXXXXXXX,,London,IN,Seller,Generated
73d8b84b-b8d8-4318-bbb9-e96c1f102011,Owner 7584,+91XXXXXXXXXX,,London,IN,Seller,Generated
0c13cbbc-0675-453b-8ef0-47f6359ad031,Owner 1733,+91XXXXXXXXXX,,London,IN,Seller,Generated
4b6fb671-8dd6-4956-ac86-7c843bfa90ad,Owner 2004,+91XXXXXXXXXX,,Delhi,IN,Seller,Generated
18029746-6017-46ec-b9f4-da75bda3b932,Owner 7644,+91XXXXXXXXXX,,London,IN,Seller,Generated
70fbc0b4-9dc4-49e7-bf90-3c819c535ab6,Owner 3253,+91XXXXXXXXXX,,Mumbai,IN,Seller,Generated
0b7ec6be-c84f-4b67-a377-7415853100eb,Owner 2336,+91XXXXXXXXXX,,New York,IN,Seller,Generated
fe0d6f74-143c-4b99-82d6-6f647edc0a82,Owner 229,+91XXXXXXXXXX,,Delhi,IN,Seller,Generated
e6151b71-ab2a-429c-9b00-30833ecf76f5,Owner 4179,+91XXXXXXXXXX,,London,IN,Seller,Generated
965929e1-7e9a-40c7-a7ed-85aba76f033c,Owner 3329,+91XXXXXXXXXX,,Mumbai,IN,Seller,Generated
defb467e-e4c0-4602-9c3b-235d4b90817a,Owner 4403,+91XXXXXXXXXX,,New York,IN,Seller,Generated
9ca6a026-41e2-4b81-ae8a-8f1e8e181a20,Owner 2565,+91XXXXXXXXXX,,Mumbai,IN,Seller,Generated
1c1d7f82-3239-4e52-bf70-b91bf7475747,Owner 544,+91XXXXXXXXXX,,New York,IN,Seller,Generated
49f9b584-78ec-4db5-9b32-8fee8d43bff2,Owner 6745,+91XXXXXXXXXX,,New York,IN,Seller,Generated
37555b70-6a37-4c4c-ad29-7cea72ae65b7,Owner 3139,+91XXXXXXXXXX,,Mumbai,IN,Seller,Generated
a041be7c-9747-48c3-96d7-f0d02025094d,Owner 2602,+91XXXXXXXXXX,,New York,IN,Seller,Generated
dbfb8a4d-2986-400f-bf57-d4e5caa3cbef,Owner 5004,+91XXXXXXXXXX,,Delhi,IN,Seller,Generated
ec3763a0-1198-42b1-a5ce-c5b4bc576ed2,Owner 7325,+91XXXXXXXXXX,,Delhi,IN,Seller,Generated
6a5cac2f-9cf2-4350-83e1-e6ea14637f73,Owner 8666,+91XXXXXXXXXX,,Mumbai,IN,Seller,Generated
074a6bf4-bd2c-4795-8aca-65a3df044ae5,Owner 9696,+91XXXXXXXXXX,,New York,IN,Seller,Generated
732462cd-0914-49ef-9c2f-235e4c7c03dc,Owner 846,+91XXXXXXXXXX,,New York,IN,Seller,Generated
c0511d57-06ae-42d8-ab67-432f7e60bf96,Owner 846,+91XXXXXXXXXX,,London,IN,Seller,Generated
599f7e6e-fb6f-4e2b-9a1f-fb7b31809737,Owner 2194,+91XXXXXXXXXX,,Delhi,IN,Seller,Generated
7f3b3225-7b48-4cc0-a570-3b79cf1204e4,Owner 1262,+91XXXXXXXXXX,,Mumbai,IN,Seller,Generated
437de87f-719e-40c6-9bbf-c1577198e398,Owner 9929,+91XXXXXXXXXX,,Mumbai,IN,Seller,Generated
da84a5c1-7884-42e7-bca0-74448864e5ba,Owner 621,+91XXXXXXXXXX,,London,IN,Seller,Generated
60d91727-2222-47f3-b657-ecb406eab89b,Owner 5568,+91XXXXXXXXXX,,London,IN,Seller,Generated
71e900e1-3d25-42fc-b77a-72b408dc0fc3,Owner 8179,+91XXXXXXXXXX,,Mumbai,IN,Seller,Generated
0d0510ce-048c-4868-b251-4eb3d0ef54d2,Owner 6809,+91XXXXXXXXXX,,London,IN,Seller,Generated
8dffd2fe-38a8-4e7f-9076-0098483093fa,Owner 247,+91XXXXXXXXXX,,New York,IN,Seller,Generated
a7d87ee8-c242-4af3-9778-83bb702c53c3,Owner 8136,+91XXXXXXXXXX,,Mumbai,IN,Seller,Generated
c1678509-44bd-4ca1-98f0-825fa110b17f,Owner 6229,+91XXXXXXXXXX,,Delhi,IN,Seller,Generated
68d24b81-c3de-44fa-9e29-73d5b69a158b,Owner 974,+91XXXXXXXXXX,,London,IN,Seller,Generated
45f6b38d-4d18-4eef-b98f-2c88564672cd,Owner 8538,+91XXXXXXXXXX,,London,IN,Seller,Generated
479acfbe-e5f7-4764-9435-892c524c729b,Owner 3497,+91XXXXXXXXXX,,New York,IN,Seller,Generated
69b159a0-6ada-48ef-9342-2fcb8dc56aa7,Owner 4683,+91XXXXXXXXXX,,Mumbai,IN,Seller,Generated
050e8641-0002-4c0d-9a08-afa8d709fed7,Owner 1431,+91XXXXXXXXXX,,Delhi,IN,Seller,Generated
23ff789b-b6b9-495a-a912-6cc30070f876,Owner 2744,+91XXXXXXXXXX,,Delhi,IN,Seller,Generated
56b133c4-93a9-4db6-b0b6-54d9dccd4ef9,Owner 9514,+91XXXXXXXXXX,,Mumbai,IN,Seller,Generated
51e7b3af-9361-4f80-b57e-bc73ecb52571,Owner 1825,+91XXXXXXXXXX,,London,IN,Seller,Generated
b21cd2a8-1ef4-4e7b-a577-d6a23813c2f6,Owner 5576,+91XXXXXXXXXX,,New York,IN,Seller,Generated
a099e3bf-b225-4c8e-a14f-36cfa9bae768,Owner 8194,+91XXXXXXXXXX,,Mumbai,IN,Seller,Generated
fa0cbb9e-d94d-410a-a217-f4056eae9110,Owner 7355,+91XXXXXXXXXX,,London,IN,Seller,Generated
8a994638-b5cc-49c0-89f1-5f60dbbfdd30,Owner 1155,+91XXXXXXXXXX,,Mumbai,IN,Seller,Generated
4fe91e8f-8bfc-46af-96c4-b66cfd83b5a1,Owner 5595,+91XXXXXXXXXX,,Delhi,IN,Seller,Generated
0888d277-684e-44fd-a733-135c73a7169a,Owner 5872,+91XXXXXXXXXX,,Delhi,IN,Seller,Generated
b580955a-f559-427f-82cb-808b996747be,Owner 4562,+91XXXXXXXXXX,,Mumbai,IN,Seller,Generated
bf0a49fb-12ea-4e52-a8c1-290f1401bdf6,Owner 5722,+91XXXXXXXXXX,,New York,IN,Seller,Generated
9dd793ef-ba7e-4ea5-94ed-de4afb659508,Owner 2588,+91XXXXXXXXXX,,New York,IN,Seller,Generated
e78c65bb-4df2-4330-8507-14d72cce0fad,Owner 9724,+91XXXXXXXXXX,,New York,IN,Seller,Generated
9872f8f4-7000-467f-9cc4-db7f3603201f,Owner 2391,+91XXXXXXXXXX,,Mumbai,IN,Seller,Generated
33513185-aee0-4d39-888c-09c1ece9b8a1,Owner 7356,+91XXXXXXXXXX,,Delhi,IN,Seller,Generated
487dd54c-1f2e-4c97-93c2-fcb3eac6ca0b,Owner 5787,+91XXXXXXXXXX,,Delhi,IN,Seller,Generated
00cc7991-63e1-4395-9121-9659bbbed52e,Owner 2400,+91XXXXXXXXXX,,New York,IN,Seller,Generated
9e8a7594-de25-4b51-a9b4-aae0560e80ed,Owner 9965,+91XXXXXXXXXX,,London,IN,Seller,Generated
0c8c0e0d-c2d8-41df-b162-f3c6e7c7b20c,Owner 206,+91XXXXXXXXXX,,New York,IN,Seller,Generated
62eb2fbe-0f84-4e07-b33d-6c4bbab5a067,Owner 6342,+91XXXXXXXXXX,,Delhi,IN,Seller,Generated
837073ef-db11-4f70-b72e-51e202d591c2,Owner 851,+91XXXXXXXXXX,,Delhi,IN,Seller,Generated
ee83b3a4-cfee-4f43-87de-97fb8c9e149d,Owner 4128,+91XXXXXXXXXX,,Delhi,IN,Seller,Generated
7073a9d5-7360-4ab1-98b9-c80dd5a588f1,Owner 7832,+91XXXXXXXXXX,,London,IN,Seller,Generated
7719d355-d60f-4c45-8123-0e266bc35d9f,Owner 907,+91XXXXXXXXXX,,London,IN,Seller,Generated
98b835a2-d305-460d-b200-e54ff0a4bcd2,Owner 1665,+91XXXXXXXXXX,,New York,IN,Seller,Generated
9720d4ad-3147-4150-81ab-04b299bfeed7,Owner 9927,+91XXXXXXXXXX,,London,IN,Seller,Generated
dae6eaf9-674d-4a04-9b9a-53d88cb1be4c,Owner 5853,+91XXXXXXXXXX,,New York,IN,Seller,Generated
b2b05c91-a1b8-4525-a179-440ea954b0e8,Owner 4526,+91XXXXXXXXXX,,Mumbai,IN,Seller,Generated
66ef3413-5608-41af-a8b5-c0fd80d312e2,Owner 6348,+91XXXXXXXXXX,,London,IN,Seller,Generated
14fa36b0-4a36-43bb-9887-2dccb4960c1c,Owner 5477,+91XXXXXXXXXX,,New York,IN,Seller,Generated
95cdfecd-b381-45fd-87b7-445c7e5fb911,Owner 7424,+91XXXXXXXXXX,,Mumbai,IN,Seller,Generated
f9d6c977-d76a-4a00-8c6f-d0e0f78b6a34,Owner 6980,+91XXXXXXXXXX,,Mumbai,IN,Seller,Generated
d5c9aaa1-4a42-48c6-923e-fbb3c00932a8,Owner 1248,+91XXXXXXXXXX,,New York,IN,Seller,Generated
a141e6a1-eb4a-45be-b4a0-40441a62e617,Owner 2260,+91XXXXXXXXXX,,New York,IN,Seller,Generated
f35bde8b-06b8-4f36-b98f-88249803ac67,Owner 3435,+91XXXXXXXXXX,,London,IN,Seller,Generated
ad717c89-404f-4e56-bf81-dff834d2bd4c,Owner 1904,+91XXXXXXXXXX,,Delhi,IN,Seller,Generated
be1807ed-3427-430b-b4a6-e2b4ac14b4ad,Owner 7546,+91XXXXXXXXXX,,Mumbai,IN,Seller,Generated
bd9bacf6-3396-4ec5-a8ce-f55229da02ea,Owner 629,+91XXXXXXXXXX,,Mumbai,IN,Seller,Generated
4ffdf1fb-594d-4734-a06f-458e18bc840b,Owner 9012,+91XXXXXXXXXX,,New York,IN,Seller,Generated
1c6dc173-c935-4024-8f98-c0ed6aee6bc7,Owner 1782,+91XXXXXXXXXX,,Delhi,IN,Seller,Generated
6996ba97-42f8-4e12-b84e-dc0037812856,Owner 2867,+91XXXXXXXXXX,,New York,IN,Seller,Generated
c5399171-8288-4b74-a79c-6726ed970310,Owner 2372,+91XXXXXXXXXX,,Mumbai,IN,Seller,Generated
cf0fa7eb-e9f4-4a26-b37e-a37498dc8b15,Owner 4477,+91XXXXXXXXXX,,New York,IN,Seller,Generated
94a09fb6-313d-4d49-a9a8-8b63ebcbde0a,Owner 6956,+91XXXXXXXXXX,,Delhi,IN,Seller,Generated
f8bb9c19-7513-4741-b421-d02c739f6451,Owner 9382,+91XXXXXXXXXX,,Delhi,IN,Seller,Generated
871a764c-1d2a-43eb-bcd2-77b7e50dcb6e,Owner 8332,+91XXXXXXXXXX,,New York,IN,Seller,Generated
ebb85abf-e331-4a86-8f53-df11635ae3aa,Owner 4372,+91XXXXXXXXXX,,Delhi,IN,Seller,Generated
6950d4f4-1e61-4c20-bec1-25715ba139c3,Owner 8784,+91XXXXXXXXXX,,New York,IN,Seller,Generated
f8e4b80e-a1ed-480a-a381-f95e8404dd83,Owner 484,+91XXXXXXXXXX,,Mumbai,IN,Seller,Generated
7a0ea9a8-88f9-40d4-859a-5bd01f896419,Owner 485,+91XXXXXXXXXX,,London,IN,Seller,Generated
f8350619-1ecc-4bee-b761-19ef751a9f92,Owner 6559,+91XXXXXXXXXX,,Mumbai,IN,Seller,Generated
8b4f2b8e-842a-48dc-a5b2-a3a78ef43fea,Owner 5430,+91XXXXXXXXXX,,Delhi,IN,Seller,Generated
15d8418b-e566-4589-8735-1097ecaf9ea4,Owner 2284,+91XXXXXXXXXX,,New York,IN,Seller,Generated
750130a7-8aff-4b2c-a3f9-39703301f6b2,Owner 6964,+91XXXXXXXXXX,,Mumbai,IN,Seller,Generated
b872a679-e63d-4132-96b3-b6e694697bc5,Owner 764,+91XXXXXXXXXX,,London,IN,Seller,Generated
1f8b45f2-b6d5-4740-8bd8-d59100bb1a70,Owner 6259,+91XXXXXXXXXX,,Mumbai,IN,Seller,Generated
709fda19-1958-45bc-8d15-0cf452108bd3,Owner 904,+91XXXXXXXXXX,,London,IN,Seller,Generated
94c45ea0-e92e-4ff1-9c96-e371c97ee7dc,Owner 6332,+91XXXXXXXXXX,,New York,IN,Seller,Generated
45a1d93d-2981-4761-a9e0-bd5d81570889,Owner 7342,+91XXXXXXXXXX,,London,IN,Seller,Generated
e0665da8-695c-406d-974f-534d765f347f,Owner 1587,+91XXXXXXXXXX,,London,IN,Seller,Generated
f9f994bb-d8c1-422a-a4fa-bc07bd50bca6,Owner 6474,+91XXXXXXXXXX,,Delhi,IN,Seller,Generated
9e217ebb-2c9a-4170-bb66-ea5d8bc16c2f,Owner 3809,+91XXXXXXXXXX,,London,IN,Seller,Generated
76fbf4f5-9020-4eb6-b10d-5765f178a517,Owner 6794,+91XXXXXXXXXX,,Delhi,IN,Seller,Generated
892c5e86-0e38-447d-a4f3-3b6b0a9ec0e4,Owner 3611,+91XXXXXXXXXX,,Mumbai,IN,Seller,Generated
26cf9d51-e2e6-4edd-8c3d-ffd7d9a7721b,Owner 7715,+91XXXXXXXXXX,,Mumbai,IN,Seller,Generated
1535a155-7d80-41a7-90c5-adaf421ed47d,Owner 2536,+91XXXXXXXXXX,,London,IN,Seller,Generated
916b8b8e-a9ce-449a-b642-4523cec92c88,Owner 8127,+91XXXXXXXXXX,,Delhi,IN,Seller,Generated
09b770a9-fd8e-408c-be70-9f375b6a0f53,Owner 5602,+91XXXXXXXXXX,,Delhi,IN,Seller,Generated
2458b1ae-f615-493c-9487-a928eac3441b,Owner 9278,+91XXXXXXXXXX,,New York,IN,Seller,Generated
1a8dcd3c-ca0b-4bc3-add4-1b6b2bd12308,Owner 8003,+91XXXXXXXXXX,,New York,IN,Seller,Generated
f12ea06d-a78f-4108-b7fb-b9fe5c67919c,Owner 5682,+91XXXXXXXXXX,,Mumbai,IN,Seller,Generated
a056b6d7-3e29-486a-afeb-94af8d745fdc,Owner 388,+91XXXXXXXXXX,,New York,IN,Seller,Generated
404c9a34-8b9b-42d2-b622-c28cda2d31a0,Owner 397,+91XXXXXXXXXX,,New York,IN,Seller,Generated
9097b0b0-d7e9-4aa5-9ba5-f36ba3d482a0,Owner 8146,+91XXXXXXXXXX,,New York,IN,Seller,Generated
467c7ff0-069f-410c-8462-26a4971d3fe4,Owner 177,+91XXXXXXXXXX,,Mumbai,IN,Seller,Generated
252a067a-ab01-4597-a5d0-d428c396160c,Owner 5831,+91XXXXXXXXXX,,New York,IN,Seller,Generated
c9a4445b-46a8-4281-889f-b7ebc467ef39,Owner 3282,+91XXXXXXXXXX,,Delhi,IN,Seller,Generated
a0e5b1d2-03bc-4e67-8676-2cc4d31860cb,Owner 5244,+91XXXXXXXXXX,,London,IN,Seller,Generated
ce2fdfb7-c7dc-41a2-8eaf-c9815c80b0f2,Owner 3753,+91XXXXXXXXXX,,New York,IN,Seller,Generated
9424cfbc-3eaa-4c50-a328-dee26995e129,Owner 2506,+91XXXXXXXXXX,,New York,IN,Seller,Generated
bede88fa-ca74-471e-924d-db3eb4a9cf64,Owner 1178,+91XXXXXXXXXX,,Delhi,IN,Seller,Generated
1cc2fbcf-733e-4bc9-a41d-93c4a1287935,Owner 312,+91XXXXXXXXXX,,Mumbai,IN,Seller,Generated
cbed69fb-dfbc-4482-a4db-494a72c8d667,Owner 8360,+91XXXXXXXXXX,,Delhi,IN,Seller,Generated
7d3d83c6-3e08-4075-a2c6-c76c4be142da,Owner 9206,+91XXXXXXXXXX,,Delhi,IN,Seller,Generated
20f424c6-c1ba-423f-93f1-4bd7d43fc112,Owner 2700,+91XXXXXXXXXX,,Mumbai,IN,Seller,Generated
28eba132-7e81-4e30-9d61-fe9ab415bd38,Owner 9271,+91XXXXXXXXXX,,New York,IN,Seller,Generated
efaaddc5-e141-46c0-a385-42e165bef3c4,Owner 6444,+91XXXXXXXXXX,,New York,IN,Seller,Generated
9ba9d205-7d99-4d3f-bc78-7aaea2aa61cf,Owner 5409,+91XXXXXXXXXX,,London,IN,Seller,Generated
5dc6bc30-6561-4872-b54f-b8632ca61af3,Owner 5165,+91XXXXXXXXXX,,Delhi,IN,Seller,Generated
049d466c-ed9b-43d7-b31e-7b669ab7e260,Owner 8247,+91XXXXXXXXXX,,London,IN,Seller,Generated
abd73ace-35ad-4103-832e-802b2cc3a1ab,Owner 6227,+91XXXXXXXXXX,,Delhi,IN,Seller,Generated
e97cceaf-e726-4b91-9d3e-e6c0e2d595e3,Owner 3179,+91XXXXXXXXXX,,New York,IN,Seller,Generated
5107bf76-0fb2-4bd3-b37f-a0faf4df6dfc,Owner 9475,+91XXXXXXXXXX,,Mumbai,IN,Seller,Generated
0c26f160-3215-4faa-9801-05c5e5c66001,Owner 8585,+91XXXXXXXXXX,,London,IN,Seller,Generated
6e1c40e3-bc58-47f4-8c19-a8ca33f59c64,Owner 3630,+91XXXXXXXXXX,,New York,IN,Seller,Generated
226b669f-6bd7-4181-8693-2980af9698e9,Owner 6110,+91XXXXXXXXXX,,Mumbai,IN,Seller,Generated
c964a892-bd62-4fc8-8d40-521eb21048af,Owner 116,+91XXXXXXXXXX,,Delhi,IN,Seller,Generated
0a680eae-9180-450c-997d-6580dc154d32,Owner 7589,+91XXXXXXXXXX,,Delhi,IN,Seller,Generated
c1274dac-8e28-417c-b2fa-448036252508,Owner 7758,+91XXXXXXXXXX,,London,IN,Seller,Generated
18b789d4-057d-45e0-9ad5-14f8ff692f5d,Owner 5119,+91XXXXXXXXXX,,Mumbai,IN,Seller,Generated
1b685d15-9051-42f8-86a7-ba44bd21744a,Owner 3122,+91XXXXXXXXXX,,New York,IN,Seller,Generated
6b9e2a5f-1905-4814-a36e-978922799217,Owner 9769,+91XXXXXXXXXX,,London,IN,Seller,Generated
a52f751c-f0c2-4304-ab5b-47bb8fba29d0,Owner 4186,+91XXXXXXXXXX,,New York,IN,Seller,Generated
37af0fb2-45f6-4f2f-bb63-7382ece4aa5f,Owner 9759,+91XXXXXXXXXX,,New York,IN,Seller,Generated
6785ac68-4d31-4172-a8f7-4b7aa2df14dd,Owner 5679,+91XXXXXXXXXX,,London,IN,Seller,Generated
364e8900-5b9d-495f-941a-85c340e3cf86,Owner 7144,+91XXXXXXXXXX,,London,IN,Seller,Generated
e52a70d0-b537-4474-999c-2bed52e237c0,Owner 4998,+91XXXXXXXXXX,,London,IN,Seller,Generated
a50b45df-df37-41d8-be7e-afd33a4a37d6,Owner 5912,+91XXXXXXXXXX,,New York,IN,Seller,Generated
dd2afe82-c21d-420b-aa14-0c97d94bdceb,Owner 3850,+91XXXXXXXXXX,,Mumbai,IN,Seller,Generated
424b5037-7cd0-4897-ad0e-60637dd4db7c,Owner 1954,+91XXXXXXXXXX,,Delhi,IN,Seller,Generated
3e264494-5491-4b0c-b756-d2956a62f34e,Owner 8310,+91XXXXXXXXXX,,Mumbai,IN,Seller,Generated
2469635b-7937-484c-965d-ad605f20a7de,Owner 2515,+91XXXXXXXXXX,,London,IN,Seller,Generated
a3ccd65b-9206-4285-9ce0-c8f63b281e18,Owner 1849,+91XXXXXXXXXX,,Mumbai,IN,Seller,Generated
2836222c-06d8-4b94-8e89-14b2b2375e48,Owner 2473,+91XXXXXXXXXX,,Delhi,IN,Seller,Generated
d4ade4d6-0a00-414b-b3bd-9556f2523e42,Owner 420,+91XXXXXXXXXX,,Delhi,IN,Seller,Generated
94dc9a9a-63a2-48d7-9a1d-d97b930b0974,Owner 8372,+91XXXXXXXXXX,,New York,IN,Seller,Generated
13f97a5c-1f44-4271-86b7-e847ef320715,Owner 5469,+91XXXXXXXXXX,,Mumbai,IN,Seller,Generated
978011d1-faca-4e13-87f3-d3a83f81d14e,Owner 2970,+91XXXXXXXXXX,,London,IN,Seller,Generated
c765778c-73e1-4985-bcfa-24908d3ab40b,Owner 9663,+91XXXXXXXXXX,,Delhi,IN,Seller,Generated
e5c589c0-059e-49ce-b770-c218192da072,Owner 4733,+91XXXXXXXXXX,,London,IN,Seller,Generated
f02af322-b081-4447-a224-765145291c4f,Owner 2816,+91XXXXXXXXXX,,New York,IN,Seller,Generated
472b3ec8-1459-4fc7-acb8-3e909f22492a,Owner 6262,+91XXXXXXXXXX,,London,IN,Seller,Generated
4a7d027b-e04a-4ebb-8a80-5a0b0e728b05,Owner 1802,+91XXXXXXXXXX,,London,IN,Seller,Generated
e4f0422b-91e5-49e6-8ce7-e31d1d55fea6,Owner 2540,+91XXXXXXXXXX,,London,IN,Seller,Generated
432f9e17-7197-4c20-8841-b78126d3575b,Owner 56,+91XXXXXXXXXX,,New York,IN,Seller,Generated
cee9b02d-13d0-4f06-a897-66637c8dbbb2,Owner 1533,+91XXXXXXXXXX,,Mumbai,IN,Seller,Generated
a7e6e2f5-f1e0-4666-b09d-37bfbdfd5e32,Owner 3318,+91XXXXXXXXXX,,London,IN,Seller,Generated
e33882e5-536b-4208-b158-af115253e2ce,Owner 9095,+91XXXXXXXXXX,,London,IN,Seller,Generated
00efc97b-fa99-4c27-9217-0827970cee80,Owner 1712,+91XXXXXXXXXX,,New York,IN,Seller,Generated
399cad68-2f85-48d9-9941-da274b81dc4d,Owner 748,+91XXXXXXXXXX,,Mumbai,IN,Seller,Generated
f671bf21-b167-4b3e-8ccf-30f5b3293e15,Owner 5350,+91XXXXXXXXXX,,Mumbai,IN,Seller,Generated
942d44e8-bc11-427b-80ed-778b73b779ab,Owner 4627,+91XXXXXXXXXX,,New York,IN,Seller,Generated
abadd60a-4bf9-4d9a-b095-80f2011c26d0,Owner 5557,+91XXXXXXXXXX,,London,IN,Seller,Generated
e8bb033a-e8de-40eb-994a-e38a0905e4a2,Owner 5905,+91XXXXXXXXXX,,London,IN,Seller,Generated
790c62d4-b918-4de6-b4b2-f4bd0dfed1fd,Owner 520,+91XXXXXXXXXX,,Delhi,IN,Seller,Generated
e1940500-9998-495a-a876-58c2783d6008,Owner 2830,+91XXXXXXXXXX,,London,IN,Seller,Generated
d2347496-2eb9-47d0-93e4-25ce671ddac1,Owner 840,+91XXXXXXXXXX,,Delhi,IN,Seller,Generated
29f1b0c0-c017-4507-919f-8101e4e5a22c,Owner 497,+91XXXXXXXXXX,,New York,IN,Seller,Generated
d4079df8-5dae-4236-8070-e8ff019619c7,Owner 5335,+91XXXXXXXXXX,,New York,IN,Seller,Generated
ee4f3a86-1d4c-41be-a9ba-6bd3f64698f4,Owner 6871,+91XXXXXXXXXX,,Mumbai,IN,Seller,Generated
c8d5bec4-5801-492e-bfc7-643cf9443c8c,Owner 1358,+91XXXXXXXXXX,,New York,IN,Seller,Generated
cebafed6-dbb5-4393-b5d5-b62b79b46ac6,Owner 2291,+91XXXXXXXXXX,,Delhi,IN,Seller,Generated
8e0d555d-a77d-44f5-88cb-f4e3a4d249f8,Owner 8162,+91XXXXXXXXXX,,Mumbai,IN,Seller,Generated
bc340b98-57a5-4511-af9d-20f72fa48496,Owner 568,+91XXXXXXXXXX,,London,IN,Seller,Generated
25baf015-5ee6-4b6e-9c6c-15f4c0dc5b19,Owner 843,+91XXXXXXXXXX,,New York,IN,Seller,Generated
e4f862ce-6a3b-483b-b120-de453004288a,Owner 7084,+91XXXXXXXXXX,,Delhi,IN,Seller,Generated
2c5e5c6c-7fe6-44d5-8df9-9447b722eed1,Owner 713,+91XXXXXXXXXX,,Mumbai,IN,Seller,Generated
4517c0d9-6d90-4d37-b2ce-a30a573e38cb,Owner 6392,+91XXXXXXXXXX,,Delhi,IN,Seller,Generated
49c36e11-4180-446b-90cc-e093f2d98a5a,Owner 765,+91XXXXXXXXXX,,Mumbai,IN,Seller,Generated
4747f3f1-49ea-421f-973a-f6df2e83feba,Owner 9977,+91XXXXXXXXXX,,New York,IN,Seller,Generated
83f5aad5-1470-4d2c-b03a-cd1e7e26edf2,Owner 6447,+91XXXXXXXXXX,,London,IN,Seller,Generated
8d2036a7-0761-41a9-89be-94fe88cc161c,Owner 6271,+91XXXXXXXXXX,,New York,IN,Seller,Generated
5f1d9747-308a-4417-873d-7b8ba8a03200,Owner 2756,+91XXXXXXXXXX,,New York,IN,Seller,Generated
709243b7-7999-499b-8b97-2a9a84e65b48,Owner 1618,+91XXXXXXXXXX,,London,IN,Seller,Generated
4e1ca691-c223-448d-8dbd-f4c560515d66,Owner 386,+91XXXXXXXXXX,,Delhi,IN,Seller,Generated
91897f0a-53ca-4147-a546-839fece80fdd,Owner 4114,+91XXXXXXXXXX,,London,IN,Seller,Generated
bb0d41fc-5b78-49bb-a17a-ea98587cce42,Owner 5782,+91XXXXXXXXXX,,New York,IN,Seller,Generated
833cb017-fa87-4681-884c-fd05e5ed8204,Owner 6781,+91XXXXXXXXXX,,Delhi,IN,Seller,Generated
76a33e42-1cb7-4796-ba59-c39a8263cd9b,Owner 3032,+91XXXXXXXXXX,,Mumbai,IN,Seller,Generated
e2141b45-99b8-4186-b2fa-f744785a16f7,Owner 1686,+91XXXXXXXXXX,,Delhi,IN,Seller,Generated
ba3651fa-916e-4ec7-8957-ff8d48d08c55,Owner 2904,+91XXXXXXXXXX,,Delhi,IN,Seller,Generated
06062265-9b42-4b95-88db-c5c9b9d484ac,Owner 9816,+91XXXXXXXXXX,,London,IN,Seller,Generated
b91a1c93-9b69-49c2-9cc6-6e208449285c,Owner 8125,+91XXXXXXXXXX,,London,IN,Seller,Generated
1c671554-ce1d-49d3-84fd-cc94416eaf66,Owner 7710,+91XXXXXXXXXX,,New York,IN,Seller,Generated
cdde8f66-350d-4a2e-85b0-c1bc3787561d,Owner 6147,+91XXXXXXXXXX,,Mumbai,IN,Seller,Generated
b741db60-ec45-430a-bac8-949082582900,Owner 8756,+91XXXXXXXXXX,,Mumbai,IN,Seller,Generated
01831c96-288a-4170-b225-7de250803a80,Owner 6529,+91XXXXXXXXXX,,Mumbai,IN,Seller,Generated
94e0ac2d-3789-408f-863d-a1c1085ade4b,Owner 7993,+91XXXXXXXXXX,,London,IN,Seller,Generated
e38025f6-4314-4e19-9308-443ab95d0cde,Owner 5918,+91XXXXXXXXXX,,Delhi,IN,Seller,Generated
23d55ac5-c740-494a-a9dc-e6d8d0f28c9c,Owner 1953,+91XXXXXXXXXX,,Mumbai,IN,Seller,Generated
357fe228-92aa-4f63-b06e-090784250777,Owner 272,+91XXXXXXXXXX,,Mumbai,IN,Seller,Generated
806f445e-2bdd-4752-864b-1665b43e0a27,Owner 1609,+91XXXXXXXXXX,,London,IN,Seller,Generated
c2bea275-7f56-44a7-9986-3a7d3f4ebbc9,Owner 4248,+91XXXXXXXXXX,,London,IN,Seller,Generated
9d494e82-c477-4569-aac5-05cf6541055b,Owner 1757,+91XXXXXXXXXX,,London,IN,Seller,Generated
5a481bf6-9fa2-46ec-9942-9f2ab9f418f6,Owner 9093,+91XXXXXXXXXX,,London,IN,Seller,Generated
22af75b6-cc17-4e44-beeb-70b4454d47a1,Owner 8879,+91XXXXXXXXXX,,New York,IN,Seller,Generated
a96a68e8-5f8e-46c0-900d-d01b2f9be497,Owner 223,+91XXXXXXXXXX,,Delhi,IN,Seller,Generated
500140b3-75e0-454b-8353-ace0c71d3291,Owner 6812,+91XXXXXXXXXX,,New York,IN,Seller,Generated
1024e748-6ba6-4354-abc3-8eceaed457dc,Owner 6303,+91XXXXXXXXXX,,Mumbai,IN,Seller,Generated
d44f0946-cc2f-4e8a-ae70-72f3a7d4790f,Owner 899,+91XXXXXXXXXX,,New York,IN,Seller,Generated
e3e5fbcd-1b0e-473b-9702-bc187cc4825f,Owner 7953,+91XXXXXXXXXX,,Mumbai,IN,Seller,Generated
e792d920-f049-4e81-9609-f4d005205c74,Owner 6955,+91XXXXXXXXXX,,Mumbai,IN,Seller,Generated
d2fcfac0-ffe1-4e08-ae67-5e924587866a,Owner 7881,+91XXXXXXXXXX,,New York,IN,Seller,Generated
fe3bed99-2598-4368-a064-cc36a609e522,Owner 1337,+91XXXXXXXXXX,,London,IN,Seller,Generated
d916c537-2e44-4610-90c0-3abf0411aa83,Owner 2653,+91XXXXXXXXXX,,Delhi,IN,Seller,Generated
6ed851db-bfcb-4664-9152-ef5b6b71d8a2,Owner 3815,+91XXXXXXXXXX,,Delhi,IN,Seller,Generated
10311c18-9f7f-4feb-a4f6-1c1ecf4de523,Owner 2014,+91XXXXXXXXXX,,New York,IN,Seller,Generated
c8117714-a126-4558-9064-17b4d22abb66,Owner 7248,+91XXXXXXXXXX,,Mumbai,IN,Seller,Generated
fffb87ea-769c-477a-a3e1-133a98075ac8,Owner 2748,+91XXXXXXXXXX,,Mumbai,IN,Seller,Generated
4d5698e0-55e2-43f1-bce5-270fe2d961f4,Owner 6626,+91XXXXXXXXXX,,London,IN,Seller,Generated
129861d6-4ecb-46a4-acfd-89549e06803a,Owner 8304,+91XXXXXXXXXX,,New York,IN,Seller,Generated
4dc7834a-8c51-4db7-9b80-cf15dae69712,Owner 246,+91XXXXXXXXXX,,New York,IN,Seller,Generated
d14ca3ac-9e3a-4f4c-b04c-201828c39985,Owner 7855,+91XXXXXXXXXX,,London,IN,Seller,Generated
69f76ea8-4073-49cc-a815-4e85b80a38d2,Owner 458,+91XXXXXXXXXX,,Delhi,IN,Seller,Generated
8978171a-f745-4bb3-9be5-dd1c481fc88e,Owner 733,+91XXXXXXXXXX,,Delhi,IN,Seller,Generated
b50d7fce-5ba5-40ad-a5b4-da980bb1748c,Owner 4944,+91XXXXXXXXXX,,Mumbai,IN,Seller,Generated
95042801-8d5d-4c1e-8319-7f56bd6575e6,Owner 8124,+91XXXXXXXXXX,,New York,IN,Seller,Generated
558ae096-5bec-4dbc-8693-862adc5850f0,Owner 760,+91XXXXXXXXXX,,New York,IN,Seller,Generated
82fbc239-1260-4303-8e7f-759e2dc27491,Owner 4925,+91XXXXXXXXXX,,Mumbai,IN,Seller,Generated
5bff60d1-4447-49af-b860-c0f6a9351977,Owner 9636,+91XXXXXXXXXX,,Mumbai,IN,Seller,Generated
9d65649e-cf54-4710-95b0-ce310d13f1cf,Owner 3078,+91XXXXXXXXXX,,Delhi,IN,Seller,Generated
08fca0d0-90a8-4fb6-94d0-56ed2a8e99da,Owner 7343,+91XXXXXXXXXX,,Mumbai,IN,Seller,Generated
28b6de63-0860-4fb2-83df-29bdc0a576e5,Owner 2560,+91XXXXXXXXXX,,Delhi,IN,Seller,Generated
898755c3-e83f-45cb-9e09-d17162b544c8,Owner 6846,+91XXXXXXXXXX,,Mumbai,IN,Seller,Generated
1d57651d-15b8-4a3c-8559-f4f7a05086b2,Owner 1602,+91XXXXXXXXXX,,New York,IN,Seller,Generated
28279e52-287d-4d02-89df-0d345b1bbe2f,Owner 8711,+91XXXXXXXXXX,,Delhi,IN,Seller,Generated
4b9bc61b-f1ee-4b64-a071-302d43541415,Owner 9303,+91XXXXXXXXXX,,London,IN,Seller,Generated
6d6e172f-3fdb-47ae-bab3-47460eb11507,Owner 806,+91XXXXXXXXXX,,Delhi,IN,Seller,Generated
3c46c30e-fa7a-4e06-a448-58ff48be104c,Owner 6631,+91XXXXXXXXXX,,London,IN,Seller,Generated
9bc5bdb3-3c06-4e88-ab38-7e475ec467a0,Owner 7201,+91XXXXXXXXXX,,New York,IN,Seller,Generated
8b87013b-f80b-4a86-96b7-68d53654c3c8,Owner 8628,+91XXXXXXXXXX,,New York,IN,Seller,Generated
0582b3f3-03da-481a-b72d-17273323566c,Owner 6675,+91XXXXXXXXXX,,London,IN,Seller,Generated
41dae0d0-d6c4-4473-8570-b7ae69e09730,Owner 7522,+91XXXXXXXXXX,,Delhi,IN,Seller,Generated
e5612797-6bc6-4d2c-bec2-3ce31b5df505,Owner 8641,+91XXXXXXXXXX,,London,IN,Seller,Generated
dd31c465-40f3-4e19-b318-20209138a6cb,Owner 706,+91XXXXXXXXXX,,Delhi,IN,Seller,Generated
2777a95f-4618-49b2-b592-ea2f33a360a0,Owner 7235,+91XXXXXXXXXX,,London,IN,Seller,Generated
33e3ed04-f834-4466-8094-051aa96e23d9,Owner 9417,+91XXXXXXXXXX,,New York,IN,Seller,Generated
30fd8311-0457-4606-9a5c-cec06bdfd2eb,Owner 4321,+91XXXXXXXXXX,,London,IN,Seller,Generated
f7a1ac50-f665-4826-8888-bf9338a102ca,Owner 586,+91XXXXXXXXXX,,New York,IN,Seller,Generated
