lead_id,name,phone,email,city,country,type,notes
cfee9495-9232-44b0-9165-078f8dced91e,Owner 6753,+91XXXXXXXXXX,,Mumbai,IN,Seller,Generated
01d82ed7-6d74-4673-b0f0-cc27a8bd8e33,Owner 4620,+91XXXXXXXXXX,,Mumbai,IN,Seller,Generated
27428613-b4ad-41a7-b5d0-740c366738a9,Owner 3445,+91XXXXXXXXXX,,Mumbai,IN,Seller,Generated
0b3b2b69-3fa9-4ac0-a93b-de6bfa9d9ee7,Owner 748,+91XXXXXXXXXX,,London,IN,Seller,Generated
b1307f28-c21c-4994-a28d-ad37ee91fb4e,Owner 8659,+91XXXXXXXXXX,,New York,IN,Seller,Generated
caf4d102-f692-43bb-9807-8cf64f948990,Owner 4240,+91XXXXXXXXXX,,London,IN,Seller,Generated
ba643307-9a4a-456a-9068-9dfe870cb614,Owner 3292,+91XXXXXXXXXX,,Delhi,IN,Seller,Generated
dba900eb-2437-4031-aee8-07fa6f7e8257,Owner 175,+91XXXXXXXXXX,,London,IN,Seller,Generated
e980a2e3-ef9f-49d0-90ac-4dcadb562bad,Owner 7060,+91XXXXXXXXXX,,Delhi,IN,Seller,Generated
09259a9e-0645-4b5c-a92d-00728bb70a6c,Owner 8231,+91XXXXXXXXXX,,Mumbai,IN,Seller,Generated
b5639eab-ca39-4e91-b181-0bd127a71000,Owner 448,+91XXXXXXXXXX,,Mumbai,IN,Seller,Generated
8b49f828-645a-4f08-ab1c-21ed3277c591,Owner 160,+91XXXXXXXXXX,,New York,IN,Seller,Generated
7379dce7-20db-41f8-b080-988d5bee5d61,Owner 2359,+91XXXXXXXXXX,,Mumbai,IN,Seller,Generated
8dd16547-b7ef-4bdd-a64a-2f3b7039c7ca,Owner 7357,+91XXXXXXXXXX,,London,IN,Seller,Generated
e9b9d010-37a9-44ba-aa66-abb90aef1694,Owner 1474,+91XXXXXXXXXX,,London,IN,Seller,Generated
3a6333bf-2ed1-4aa4-b551-99f9fba60ec1,Owner 974,+91XXXXXXXXXX,,New York,IN,Seller,Generated
f05e8fd0-f03a-40d0-96a5-3e20f7c78dab,Owner 9901,+91XXXXXXXXXX,,Mumbai,IN,Seller,Generated
f31b4100-45f8-48fd-8496-89a5d94a1565,Owner 6602,+91XXXXXXXXXX,,Mumbai,IN,Seller,Generated
45734e59-a0fc-4720-b9e6-02b274eed003,Owner 1986,+91XXXXXXXXXX,,Delhi,IN,Seller,Generated
a451b6ae-5267-420d-b554-1b50200032df,Owner 6686,+91XXXXXXXXXX,,Delhi,IN,Seller,Generated
c6ecf627-fd5b-4a23-9af8-a2efb8a5eabb,Owner 264,+91XXXXXXXXXX,,London,IN,Seller,Generated
46297804-3479-4cb6-84fd-b2e9d8518095,Owner 2259,+91XXXXXXXXXX,,Delhi,IN,Seller,Generated
cd4e8e2c-6229-4aaa-a34e-6c70fa1c74f5,Owner 3140,+91XXXXXXXXXX,,Delhi,IN,Seller,Generated
d5342be6-0374-4380-9e4a-1d5552afcfc2,Owner 2424,+91XXXXXXXXXX,,New York,IN,Seller,Generated
2dd8ca28-d35b-4dc6-82b0-f58f4c3a1f48,Owner 3723,+91XXXXXXXXXX,,Mumbai,IN,Seller,Generated
72d29893-c67c-4dbf-af3a-4e9ac11808a1,Owner 2393,+91XXXXXXXXXX,,New York,IN,Seller,Generated
ba8a50ec-a768-4442-88ce-6a8935296691,Owner 5450,+91XXXXXXXXXX,,Mumbai,IN,Seller,Generated
ee8da721-b65e-4af0-a435-13306eace408,Owner 8216,+91XXXXXXXXXX,,Mumbai,IN,Seller,Generated
a72faa10-0be0-42b6-8e06-d2eb8e9f531f,Owner 5689,+91XXXXXXXXXX,,Delhi,IN,Seller,Generated
7252a5d9-a387-4ecc-8c59-607d8a20aaa5,Owner 1004,+91XXXXXXXXXX,,Delhi,IN,Seller,Generated
ede227c4-7119-4479-a3fa-526bc583c2b7,Owner 6561,+91XXXXXXXXXX,,Mumbai,IN,Seller,Generated
5b2dfb50-6ae8-417a-a90b-9b30be87b4f3,Owner 3215,+91XXXXXXXXXX,,London,IN,Seller,Generated
98a945c7-6012-435f-88e1-6ec0bc8a9f1f,Owner 5842,+91XXXXXXXXXX,,Mumbai,IN,Seller,Generated
0def292a-3a98-4103-bf8d-67ddf54c30ed,Owner 5504,+91XXXXXXXXXX,,Delhi,IN,Seller,Generated
9a85ddb6-a547-4512-a7fd-29ed1f68e906,Owner 9352,+91XXXXXXXXXX,,New York,IN,Seller,Generated
f89ca9bd-a565-4bea-a832-bd1ac06262e0,Owner 2895,+91XXXXXXXXXX,,Mumbai,IN,Seller,Generated
14c05162-0a32-411a-830d-da5f6a35fa81,Owner 7397,+91XXXXXXXXXX,,Delhi,IN,Seller,Generated
97ef7282-567d-45a4-ae17-ef6d53d8add0,Owner 8563,+91XXXXXXXXXX,,Delhi,IN,Seller,Generated
239f67b7-7cc4-49b9-a034-6bc321ef3615,Owner 100,+91XXXXXXXXXX,,London,IN,Seller,Generated
4780af3e-4657-4d32-a047-1e53f435ab56,Owner 3825,+91XXXXXXXXXX,,Delhi,IN,Seller,Generated
d78cae53-f67d-43b7-8c06-2852363f00a6,Owner 2392,+91XXXXXXXXXX,,London,IN,Seller,Generated
7ad6ed48-7f02-413d-9ac4-ef69a9cd6375,Owner 2959,+91XXXXXXXXXX,,London,IN,Seller,Generated
a8a3670a-b5ce-47b9-ae14-a014f02f0b31,Owner 8130,+91XXXXXXXXXX,,New York,IN,Seller,Generated
45bd0601-d771-4393-b76b-444e4e27c155,Owner 723,+91XXXXXXXXXX,,Delhi,IN,Seller,Generated
682dc152-185d-42d5-a197-b95ef5495509,Owner 1175,+91XXXXXXXXXX,,London,IN,Seller,Generated
cfd4977c-17a5-4b6f-bef9-2cd5c31434ba,Owner 9207,+91XXXXXXXXXX,,Delhi,IN,Seller,Generated
a3d5e333-69f5-4298-926e-64ca76f0937b,Owner 8195,+91XXXXXXXXXX,,Delhi,IN,Seller,Generated
fd9ca4ee-c849-4c70-8a4b-24759d21b7d5,Owner 5472,+91XXXXXXXXXX,,London,IN,Seller,Generated
2e2575e2-e6cf-4c8b-b514-839431f6f22e,Owner 734,+91XXXXXXXXXX,,London,IN,Seller,Generated
35f87396-e11d-4a2c-af86-9d8de130650f,Owner 4648,+91XXXXXXXXXX,,Mumbai,IN,Seller,Generated
00cc5f67-969c-4b93-a711-e08ad1227840,Owner 7164,+91XXXXXXXXXX,,Mumbai,IN,Seller,Generated
73cf7495-ac0f-46ac-8a82-adbcd3cfba40,Owner 7839,+91XXXXXXXXXX,,London,IN,Seller,Generated
3005f175-f1bc-4575-8a83-25c560096f35,Owner 2587,+91XXXXXXXXXX,,Delhi,IN,Seller,Generated
7920e82f-9346-4057-8909-4c52f6d16ce3,Owner 9457,+91XXXXXXXXXX,,New York,IN,Seller,Generated
19e6a1df-27d0-48af-9d85-506f4b6cb9e9,Owner 6551,+91XXXXXXXXXX,,Delhi,IN,Seller,Generated
b5584956-4e11-48ce-a0f0-910d560d2abc,Owner 3550,+91XXXXXXXXXX,,London,IN,Seller,Generated
98189bd4-e26c-4552-9606-1ec99f92b435,Owner 2310,+91XXXXXXXXXX,,Mumbai,IN,Seller,Generated
4f9d545c-f405-4469-9203-da5f1d43c3cc,Owner 4087,+91XXXXXXXXXX,,London,IN,Seller,Generated
25a87790-f550-43b9-a456-feba8144cc9d,Owner 4355,+91XXXXXXXXXX,,London,IN,Seller,Generated
1d9a60a8-9f72-42e9-9111-1f613447502a,Owner 9525,+91XXXXXXXXXX,,Mumbai,IN,Seller,Generated
cb211296-ba79-492d-85f5-29ba88d14ada,Owner 7886,+91XXXXXXXXXX,,London,IN,Seller,Generated
2fd404de-a4ad-4346-a692-b0619ae2f700,Owner 1665,+91XXXXXXXXXX,,New York,IN,Seller,Generated
b2c5bdb1-fae0-4149-9833-323fe0b82bfa,Owner 9805,+91XXXXXXXXXX,,New York,IN,Seller,Generated
e8274a14-2e31-47cd-a98a-6829547007f9,Owner 9282,+91XXXXXXXXXX,,London,IN,Seller,Generated
c14a5f47-790a-402e-8f85-7fa089a65c55,Owner 2584,+91XXXXXXXXXX,,Mumbai,IN,Seller,Generated
ca3d8acd-71da-4296-a421-9c219f3465c9,Owner 4295,+91XXXXXXXXXX,,New York,IN,Seller,Generated
d1ecb426-9226-44a3-b944-9d52cff088b2,Owner 7801,+91XXXXXXXXXX,,London,IN,Seller,Generated
7420d4c9-fb6b-40fb-bf4c-bca6cfb7f7f1,Owner 8563,+91XXXXXXXXXX,,New York,IN,Seller,Generated
e7ef231f-45d5-4a64-bb8b-a87bf7b804b8,Owner 6939,+91XXXXXXXXXX,,Delhi,IN,Seller,Generated
5d137f24-151b-4288-b037-b33f22c8c198,Owner 8723,+91XXXXXXXXXX,,Mumbai,IN,Seller,Generated
1869dcc8-7220-4c43-a1c7-d59d03d05930,Owner 1317,+91XXXXXXXXXX,,London,IN,Seller,Generated
46f3dbc5-3eae-43c5-bf60-5b42af17f1a5,Owner 7806,+91XXXXXXXXXX,,New York,IN,Seller,Generated
482e91bf-30a2-4f88-b1c7-8c22cc60a5f7,Owner 6125,+91XXXXXXXXXX,,Delhi,IN,Seller,Generated
e3e7b756-85de-4037-ac81-b0d68949ea64,Owner 3221,+91XXXXXXXXXX,,Delhi,IN,Seller,Generated
03b69f6e-ec64-4c7b-b29d-3a6008f67915,Owner 1522,+91XXXXXXXXXX,,Mumbai,IN,Seller,Generated
39547b07-f5c7-451d-aa51-0031555a59b6,Owner 435,+91XXXXXXXXXX,,Delhi,IN,Seller,Generated
b425846a-a036-4f54-aa6c-345622b0aa63,Owner 226,+91XXXXXXXXXX,,London,IN,Seller,Generated
e9055e26-a490-4c73-973f-c35bab8b4733,Owner 2529,+91XXXXXXXXXX,,Mumbai,IN,Seller,Generated
9fb22cd5-320b-418c-9092-639d21b6e8f5,Owner 1260,+91XXXXXXXXXX,,Mumbai,IN,Seller,Generated
797b86c7-72e7-452a-b94c-eb2ac339b01a,Owner 2696,+91XXXXXXXXXX,,Delhi,IN,Seller,Generated
99114b1d-63b7-404e-99e4-f233b4b2b18d,Owner 4520,+91XXXXXXXXXX,,Mumbai,IN,Seller,Generated
b886ae41-8343-4fb4-9ad1-89bf8e9f3498,Owner 1862,+91XXXXXXXXXX,,London,IN,Seller,Generated
4ed56553-a73e-4b84-b162-cd5aa41e144a,Owner 1892,+91XXXXXXXXXX,,London,IN,Seller,Generated
c43efff8-7368-4cda-a6a2-aa9ec5113c24,Owner 7252,+91XXXXXXXXXX,,London,IN,Seller,Generated
1531af24-0a34-4454-8d73-b3be5244f58e,Owner 8785,+91XXXXXXXXXX,,New York,IN,Seller,Generated
5efb9ebf-9714-4b76-9198-7a93b28df4c0,Owner 9152,+91XXXXXXXXXX,,London,IN,Seller,Generated
e7436789-8b34-4155-a007-05eb8c50b013,Owner 2211,+91XXXXXXXXXX,,Mumbai,IN,Seller,Generated
2432be06-6f3a-42f3-b3bd-d9a87686fe13,Owner 5824,+91XXXXXXXXXX,,London,IN,Seller,Generated
6a747169-e3b1-48d2-9ff5-6ff6183fe086,Owner 1215,+91XXXXXXXXXX,,Mumbai,IN,Seller,Generated
5eff4cdd-9187-4250-84ba-01aed3ede43e,Owner 8345,+91XXXXXXXXXX,,Mumbai,IN,Seller,Generated
fc097874-67d0-4d8a-9d33-9b0597e02733,Owner 7207,+91XXXXXXXXXX,,London,IN,Seller,Generated
527dc8b2-1074-453b-aff7-0c69191f9993,Owner 8349,+91XXXXXXXXXX,,Delhi,IN,Seller,Generated
4e5abb92-fea3-42a9-9c69-f936d9b3a024,Owner 5347,+91XXXXXXXXXX,,New York,IN,Seller,Generated
dcb6b35b-eb35-4c08-82fe-32bba592bd46,Owner 4057,+91XXXXXXXXXX,,Delhi,IN,Seller,Generated
1e4ef6e5-81ec-49c3-9cb7-973121bcbd2d,Owner 5418,+91XXXXXXXXXX,,Delhi,IN,Seller,Generated
7fa3d612-1b2b-4d83-8f71-ae140141ab2b,Owner 698,+91XXXXXXXXXX,,Delhi,IN,Seller,Generated
de459958-b5e5-4917-83d2-106e1754cca7,Owner 6598,+91XXXXXXXXXX,,Delhi,IN,Seller,Generated
d453bde6-feeb-4beb-91fe-0d69d5785afa,Owner 7891,+91XXXXXXXXXX,,Delhi,IN,Seller,Generated
698e0e78-6e70-407a-9151-a611fc14782c,Owner 9634,+91XXXXXXXXXX,,Delhi,IN,Seller,Generated
ab1620b1-116d-4c68-bc5d-27b95eb674d2,Owner 7627,+91XXXXXXXXXX,,Mumbai,IN,Seller,Generated
53e0c60f-55b5-47f1-8ef6-b795199be425,Owner 5344,+91XXXXXXXXXX,,New York,IN,Seller,Generated
fd98360a-b011-4d90-8c8d-28882fe30cd2,Owner 2622,+91XXXXXXXXXX,,Mumbai,IN,Seller,Generated
6e8ae9d5-cdd8-475d-97b8-118472e9c148,Owner 3550,+91XXXXXXXXXX,,Mumbai,IN,Seller,Generated
7fac8984-9077-45bb-b0a2-3efd324adeff,Owner 2403,+91XXXXXXXXXX,,London,IN,Seller,Generated
ed6f3f48-2198-40bf-a8aa-f1174f0cca0e,Owner 4912,+91XXXXXXXXXX,,Delhi,IN,Seller,Generated
9bd4fb4b-c775-46f1-a757-3bc2a3668025,Owner 1571,+91XXXXXXXXXX,,New York,IN,Seller,Generated
1a1b8f17-2809-414a-bbab-513547c0bbbd,Owner 6635,+91XXXXXXXXXX,,Delhi,IN,Seller,Generated
39105488-f74f-4751-a41a-e96b9a842a98,Owner 7943,+91XXXXXXXXXX,,London,IN,Seller,Generated
3800df20-08da-46a9-835f-0c9da6d80dae,Owner 4615,+91XXXXXXXXXX,,London,IN,Seller,Generated
d8a0a46d-f63d-418c-9296-99f2fc356179,Owner 235,+91XXXXXXXXXX,,Delhi,IN,Seller,Generated
237e2c1b-20dc-47fa-adbc-3881ab310809,Owner 5399,+91XXXXXXXXXX,,Mumbai,IN,Seller,Generated
468b4c6d-5a25-4425-b5b9-81e0fbd5b66b,Owner 7685,+91XXXXXXXXXX,,Delhi,IN,Seller,Generated
b0026d54-ce5d-4359-b974-a6ce7c2784e1,Owner 536,+91XXXXXXXXXX,,New York,IN,Seller,Generated
4740553e-1698-45d4-aef0-8a4676b0dc98,Owner 9256,+91XXXXXXXXXX,,London,IN,Seller,Generated
328e65db-8b6a-4e6e-9c11-667922f63476,Owner 353,+91XXXXXXXXXX,,London,IN,Seller,Generated
f9f8b38c-b45f-43d3-be49-b1ba3d18a0b8,Owner 2179,+91XXXXXXXXXX,,Delhi,IN,Seller,Generated
ef13f5b5-d118-405c-a4be-c2a6778ab66b,Owner 7996,+91XXXXXXXXXX,,Delhi,IN,Seller,Generated
6d9b4e2d-70c1-408b-b837-434fa3075132,Owner 7470,+91XXXXXXXXXX,,London,IN,Seller,Generated
1a063788-af34-4ebf-ad00-261ccfdc9df6,Owner 71,+91XXXXXXXXXX,,New York,IN,Seller,Generated
bc4164ef-3051-4481-9fcd-cfa2363b3e9d,Owner 368,+91XXXXXXXXXX,,Mumbai,IN,Seller,Generated
f8e94291-42df-46d6-b7cf-15acabc75556,Owner 6893,+91XXXXXXXXXX,,Mumbai,IN,Seller,Generated
b7495ce0-e1dc-45b4-9efa-d61782f2a85e,Owner 4645,+91XXXXXXXXXX,,London,IN,Seller,Generated
a6c973b9-56b1-4229-9b22-f07665e4218b,Owner 7257,+91XXXXXXXXXX,,London,IN,Seller,Generated
4f30e5f8-f31a-40e5-b2cf-1f4a86f7a5dc,Owner 6439,+91XXXXXXXXXX,,Delhi,IN,Seller,Generated
1808a5f3-8718-4b6b-a980-eb5292fd857a,Owner 6609,+91XXXXXXXXXX,,New York,IN,Seller,Generated
e82d13f0-12eb-48ad-a415-950488b5b90a,Owner 9444,+91XXXXXXXXXX,,London,IN,Seller,Generated
04dbef77-b983-4d58-a383-823e66bcea94,Owner 5858,+91XXXXXXXXXX,,London,IN,Seller,Generated
0b628cc3-c3d2-4772-98e7-2b1df4ed1e8e,Owner 7890,+91XXXXXXXXXX,,London,IN,Seller,Generated
cf9ec76c-4c1b-4adc-9f61-205ebdd3441c,Owner 2222,+91XXXXXXXXXX,,Delhi,IN,Seller,Generated
4e782aa2-14b7-4d0e-b1af-a955e195294f,Owner 3035,+91XXXXXXXXXX,,Mumbai,IN,Seller,Generated
039d1e0a-73fc-41b2-9e25-3e5bc99b0b8f,Owner 3336,+91XXXXXXXXXX,,London,IN,Seller,Generated
bb56d23f-b139-4cef-88b0-c78a5c8d609f,Owner 685,+91XXXXXXXXXX,,Delhi,IN,Seller,Generated
3a8678a2-3130-4243-9945-34e3cf005969,Owner 1937,+91XXXXXXXXXX,,Delhi,IN,Seller,Generated
6e4532c1-ed62-4169-92f8-d4b69d6e8fd2,Owner 5797,+91XXXXXXXXXX,,Delhi,IN,Seller,Generated
2b8d59ca-5109-4233-930e-aa0e03760d1e,Owner 6645,+91XXXXXXXXXX,,Delhi,IN,Seller,Generated
ddde8229-958b-4150-836a-8da0473d2749,Owner 3362,+91XXXXXXXXXX,,New York,IN,Seller,Generated
7b16a8c8-2976-425f-9e0f-725a06c7f719,Owner 8450,+91XXXXXXXXXX,,New York,IN,Seller,Generated
8f27f70f-6dc2-4cc3-a88c-3a95d10ac1c8,Owner 165,+91XXXXXXXXXX,,Mumbai,IN,Seller,Generated
e7e6d5c2-ef55-406c-8613-f0889a0f68a1,Owner 195,+91XXXXXXXXXX,,Delhi,IN,Seller,Generated
94784a91-afa1-4e47-8688-f3c1e4e4d11b,Owner 5276,+91XXXXXXXXXX,,Mumbai,IN,Seller,Generated
3139e3e3-ba08-4794-a089-fec2c17398d6,Owner 9017,+91XXXXXXXXXX,,London,IN,Seller,Generated
c1c72e24-f538-4382-8309-d7ccbd4c467e,Owner 310,+91XXXXXXXXXX,,Mumbai,IN,Seller,Generated
2d0d1a52-af2e-478a-96d0-e080bef74510,Owner 8885,+91XXXXXXXXXX,,Delhi,IN,Seller,Generated
730d2dde-6b79-4b74-b8de-aca2bc7c57c5,Owner 6453,+91XXXXXXXXXX,,Delhi,IN,Seller,Generated
54f3efc2-f5ed-459a-a198-0fe3ff6bf83c,Owner 1776,+91XXXXXXXXXX,,New York,IN,Seller,Generated
d7deea5b-480c-4fc5-adf2-76d7ee45a81e,Owner 6442,+91XXXXXXXXXX,,Mumbai,IN,Seller,Generated
210a654b-b0fc-44c6-b157-c50055037154,Owner 8530,+91XXXXXXXXXX,,Delhi,IN,Seller,Generated
a3797909-ed69-47cd-8e99-c99e7454c0c2,Owner 8108,+91XXXXXXXXXX,,New York,IN,Seller,Generated
25fac56f-d7c9-4d62-9d70-02e947b654c5,Owner 3125,+91XXXXXXXXXX,,Delhi,IN,Seller,Generated
211b14de-42e2-4e58-9357-2409dd106909,Owner 5383,+91XXXXXXXXXX,,Delhi,IN,Seller,Generated
a2b56ea5-8d81-4be0-98bc-4c0734f5f855,Owner 6204,+91XXXXXXXXXX,,New York,IN,Seller,Generated
c36c6447-05d2-430d-9e2e-06d46f95b5e2,Owner 8004,+91XXXXXXXXXX,,London,IN,Seller,Generated
84565ca2-0634-449d-9588-7da8a3f32f17,Owner 10,+91XXXXXXXXXX,,London,IN,Seller,Generated
e28f60cd-3f6f-4cc6-a7fe-4716f024e984,Owner 4898,+91XXXXXXXXXX,,London,IN,Seller,Generated
8256c51c-2b95-4ac3-964f-b560e52d4682,Owner 8619,+91XXXXXXXXXX,,London,IN,Seller,Generated
3d3616ad-7fc2-4ca3-965e-cadc299fb9a5,Owner 5193,+91XXXXXXXXXX,,Mumbai,IN,Seller,Generated
3040cf2e-376f-4bfb-951a-72fcc8bfef68,Owner 7915,+91XXXXXXXXXX,,Delhi,IN,Seller,Generated
81dc20d7-932c-4ee7-8d42-55d91df901d5,Owner 808,+91XXXXXXXXXX,,Mumbai,IN,Seller,Generated
d95a563f-fa9d-45df-be6b-c8d43d4ea8e3,Owner 7796,+91XXXXXXXXXX,,Delhi,IN,Seller,Generated
109f838d-e3b3-472a-9b20-6a88764b78f8,Owner 8039,+91XXXXXXXXXX,,Delhi,IN,Seller,Generated
b65efd50-8e78-4b64-9ee8-e0e6fbe9aae6,Owner 2178,+91XXXXXXXXXX,,London,IN,Seller,Generated
1a67686a-6c5f-4ba6-9854-1dede70a4efb,Owner 7542,+91XXXXXXXXXX,,London,IN,Seller,Generated
3768cd76-e49b-4415-9352-fdb46d76c2fb,Owner 4737,+91XXXXXXXXXX,,London,IN,Seller,Generated
d3c50ff8-2a0a-495a-8c5c-8197aea96c17,Owner 7997,+91XXXXXXXXXX,,London,IN,Seller,Generated
e484322a-067b-4d31-9496-e204a289617f,Owner 6955,+91XXXXXXXXXX,,Delhi,IN,Seller,Generated
11763942-c07e-4f08-a0d2-c1e27e2828fb,Owner 5102,+91XXXXXXXXXX,,Mumbai,IN,Seller,Generated
c777b714-394f-4d08-82bd-e92888d5bf32,Owner 3774,+91XXXXXXXXXX,,London,IN,Seller,Generated
2f575ff7-60dc-4173-b59d-213755936658,Owner 2183,+91XXXXXXXXXX,,New York,IN,Seller,Generated
64034bf0-62dd-4a58-9592-c9e391f7ad4f,Owner 1489,+91XXXXXXXXXX,,Mumbai,IN,Seller,Generated
2064187d-a068-4d17-bb54-adbb62fd04da,Owner 5829,+91XXXXXXXXXX,,Delhi,IN,Seller,Generated
1e49efc6-73ed-4fd0-8578-bc63537f1fde,Owner 948,+91XXXXXXXXXX,,London,IN,Seller,Generated
efe17264-0c2c-4212-9d96-eccabfad9d45,Owner 2798,+91XXXXXXXXXX,,Mumbai,IN,Seller,Generated
9268bbca-c544-449a-ab00-0880debca765,Owner 5165,+91XXXXXXXXXX,,London,IN,Seller,Generated
f1cba319-587b-463c-9cde-2e9ecc15df51,Owner 1917,+91XXXXXXXXXX,,Delhi,IN,Seller,Generated
4c7a000c-361f-4890-bca0-2c9325f37c44,Owner 9988,+91XXXXXXXXXX,,London,IN,Seller,Generated
4acb99ad-d266-4880-8c5a-55b611fdd835,Owner 2153,+91XXXXXXXXXX,,New York,IN,Seller,Generated
596fa850-08bb-4f7e-bb66-0acd15106c5a,Owner 5607,+91XXXXXXXXXX,,Mumbai,IN,Seller,Generated
82a4b0c9-4541-4ad7-89d0-28416bd54dc4,Owner 8989,+91XXXXXXXXXX,,New York,IN,Seller,Generated
5783844d-a31c-4397-9bfa-4d3d390b14db,Owner 545,+91XXXXXXXXXX,,Delhi,IN,Seller,Generated
99ed8c9c-b4a5-4841-bb2a-059e631f3c82,Owner 2229,+91XXXXXXXXXX,,Delhi,IN,Seller,Generated
870f28ab-674d-41da-a3d7-5013fbebb6c2,Owner 2140,+91XXXXXXXXXX,,New York,IN,Seller,Generated
cc1bcf9d-0047-460f-b767-43529cc53879,Owner 7064,+91XXXXXXXXXX,,New York,IN,Seller,Generated
1f789f5d-53f0-4101-bad1-c07eac17e0a8,Owner 3281,+91XXXXXXXXXX,,London,IN,Seller,Generated
1cf2f76c-5fb4-4c95-80f2-111587a577b4,Owner 3231,+91XXXXXXXXXX,,Delhi,IN,Seller,Generated
9104db5d-ed0e-4648-8a2a-ea5351d9d20e,Owner 3900,+91XXXXXXXXXX,,London,IN,Seller,Generated
7aefb05a-6f90-491e-a9e0-22cffacc4723,Owner 6964,+91XXXXXXXXXX,,Delhi,IN,Seller,Generated
e087ce8b-6023-47d0-b12f-d195fbda792c,Owner 8972,+91XXXXXXXXXX,,Delhi,IN,Seller,Generated
4e35d2ab-b1fa-4ba2-b4a5-1df8335ef008,Owner 8121,+91XXXXXXXXXX,,London,IN,Seller,Generated
57942201-762d-486d-9c54-290110bc1b64,Owner 3563,+91XXXXXXXXXX,,London,IN,Seller,Generated
ba3eadd4-3020-4d90-9de0-5f1b252a0d34,Owner 4774,+91XXXXXXXXXX,,New York,IN,Seller,Generated
89265aa5-379b-426f-9422-7a6016ee1711,Owner 4118,+91XXXXXXXXXX,,New York,IN,Seller,Generated
1380340a-e3f2-4782-afef-3f999246e846,Owner 8502,+91XXXXXXXXXX,,Delhi,IN,Seller,Generated
6b83bd57-7ec8-4aac-a74e-428d2f8b3d2c,Owner 9121,+91XXXXXXXXXX,,Delhi,IN,Seller,Generated
5870b1f9-0c4b-4967-815f-e883338125a8,Owner 1801,+91XXXXXXXXXX,,Delhi,IN,Seller,Generated
039573b9-f15c-4912-857a-430e61c293ef,Owner 5378,+91XXXXXXXXXX,,Delhi,IN,Seller,Generated
a01e60d8-2486-453b-8c92-b8c2179ac28c,Owner 5450,+91XXXXXXXXXX,,Delhi,IN,Seller,Generated
c6cff3fe-3c34-4a7e-ba1d-5c237443faec,Owner 653,+91XXXXXXXXXX,,Mumbai,IN,Seller,Generated
1f526a05-e571-4e62-ae60-555a8e3fef08,Owner 5445,+91XXXXXXXXXX,,London,IN,Seller,Generated
b4b1eaef-41cf-4cab-8006-3b6d55a28a97,Owner 2910,+91XXXXXXXXXX,,New York,IN,Seller,Generated
c7adf201-0a67-408e-9a2d-7032a3d5da00,Owner 8521,+91XXXXXXXXXX,,London,IN,Seller,Generated
45d16a60-98a7-4423-9b48-c5b74755c665,Owner 8259,+91XXXXXXXXXX,,Mumbai,IN,Seller,Generated
e1807bc4-6fbe-42c9-8215-07f775b25064,Owner 7845,+91XXXXXXXXXX,,Delhi,IN,Seller,Generated
040aba29-b207-4a09-bb90-1052a2f7780a,Owner 949,+91XXXXXXXXXX,,London,IN,Seller,Generated
eb0e00a2-33a9-45dc-bc18-d31f598aa7f4,Owner 9053,+91XXXXXXXXXX,,Mumbai,IN,Seller,Generated
b2b7dc70-4cbf-4696-9f69-a05eeab61c1f,Owner 3216,+91XXXXXXXXXX,,Mumbai,IN,Seller,Generated
2183bf16-d07d-4f7d-a47f-1e335038fd71,Owner 6089,+91XXXXXXXXXX,,London,IN,Seller,Generated
83558148-f0c2-4ca1-ae8c-7283fc49d393,Owner 8010,+91XXXXXXXXXX,,London,IN,Seller,Generated
3fa1e725-ee69-413e-aa9e-8c7941d205a6,Owner 4739,+91XXXXXXXXXX,,New York,IN,Seller,Generated
8e06b70d-f037-48b6-97ea-d33a4fd88bf7,Owner 2408,+91XXXXXXXXXX,,Mumbai,IN,Seller,Generated
2423fb1f-7b7d-4f23-8bcd-29358ee967e7,Owner 3511,+91XXXXXXXXXX,,New York,IN,Seller,Generated
ede8b094-2179-4276-8beb-ce079184257a,Owner 614,+91XXXXXXXXXX,,Delhi,IN,Seller,Generated
fbc496a1-ced9-485b-a6a4-8a0ed713d328,Owner 9352,+91XXXXXXXXXX,,Delhi,IN,Seller,Generated
cd9523c6-2abd-45d0-aa29-28f657d6053a,Owner 8010,+91XXXXXXXXXX,,Delhi,IN,Seller,Generated
5b469454-c476-47d7-bdb3-30371ac8ae5b,Owner 3551,+91XXXXXXXXXX,,New York,IN,Seller,Generated
a1b46bff-1cae-4bb1-bab2-ef976d750f73,Owner 4469,+91XXXXXXXXXX,,New York,IN,Seller,Generated
38c2f64b-1ab6-4859-8f92-4131f342f471,Owner 8342,+91XXXXXXXXXX,,Delhi,IN,Seller,Generated
f0125620-9efe-4fff-ada8-7a69c8df21be,Owner 1874,+91XXXXXXXXXX,,London,IN,Seller,Generated
c86f1845-dc92-4f2a-959a-03dc8466b6e8,Owner 9863,+91XXXXXXXXXX,,Delhi,IN,Seller,Generated
0b6ac002-ae65-402f-95be-170cdd69863d,Owner 6386,+91XXXXXXXXXX,,London,IN,Seller,Generated
4a51a231-2403-46a0-adf2-95d4724dedb8,Owner 9687,+91XXXXXXXXXX,,Mumbai,IN,Seller,Generated
b1d73370-b2a2-4d85-a485-cb3e766be247,Owner 6877,+91XXXXXXXXXX,,Mumbai,IN,Seller,Generated
7b17612d-eead-4395-a219-572696e87a16,Owner 809,+91XXXXXXXXXX,,Mumbai,IN,Seller,Generated
a55e4566-aaf5-4906-bbca-546efd7ffeda,Owner 3373,+91XXXXXXXXXX,,Mumbai,IN,Seller,Generated
e5673ec0-49e5-4523-9c03-1ce9341aae8a,Owner 9105,+91XXXXXXXXXX,,Delhi,IN,Seller,Generated
04cca10b-e559-4600-85db-360e5ca29241,Owner 402,+91XXXXXXXXXX,,New York,IN,Seller,Generated
d8578955-68b0-461e-82d0-47982f9b070f,Owner 24,+91XXXXXXXXXX,,London,IN,Seller,Generated
8bf5faaf-0523-456a-bed3-9ad89fdc5b76,Owner 3278,+91XXXXXXXXXX,,New York,IN,Seller,Generated
7c77beaf-0b92-4a0f-b83e-cbd26b7e9f1a,Owner 2941,+91XXXXXXXXXX,,Delhi,IN,Seller,Generated
514e4a47-67cf-4e2c-8f2c-647db5921437,Owner 3310,+91XXXXXXXXXX,,New York,IN,Seller,Generated
c2038b26-e19f-4929-b089-89c40d048af1,Owner 7797,+91XXXXXXXXXX,,Delhi,IN,Seller,Generated
20761f21-9e3d-4b16-bae5-833a1a36f619,Owner 630,+91XXXXXXXXXX,,Mumbai,IN,Seller,Generated
5f472661-9f61-4499-8638-5b325785538c,Owner 2711,+91XXXXXXXXXX,,Delhi,IN,Seller,Generated
4b3923e3-a844-4636-a846-ddc741577655,Owner 3646,+91XXXXXXXXXX,,London,IN,Seller,Generated
9d2e884e-a12d-4694-af97-741ecff72120,Owner 9478,+91XXXXXXXXXX,,Delhi,IN,Seller,Generated
cee425fd-af3c-4a60-ade6-42eca7b192b8,Owner 1528,+91XXXXXXXXXX,,London,IN,Seller,Generated
0e51bc4a-71d8-4d83-a421-437d032b262c,Owner 3200,+91XXXXXXXXXX,,Mumbai,IN,Seller,Generated
97d4c061-7174-4eb5-b9cf-08d2083559d9,Owner 8440,+91XXXXXXXXXX,,Mumbai,IN,Seller,Generated
0af52693-2315-4b27-818b-778ceac36db0,Owner 6698,+91XXXXXXXXXX,,New York,IN,Seller,Generated
1e48f0ff-9951-4b13-970d-bd8c4c3efd1d,Owner 1834,+91XXXXXXXXXX,,Delhi,IN,Seller,Generated
679f3bb9-eda3-41cc-946f-dabc6cad2692,Owner 9249,+91XXXXXXXXXX,,Mumbai,IN,Seller,Generated
6e80ef30-e53d-4c05-bb8d-47430687cb81,Owner 6351,+91XXXXXXXXXX,,Delhi,IN,Seller,Generated
592e8ce9-1182-4bd7-867e-e535f9977b23,Owner 4011,+91XXXXXXXXXX,,Mumbai,IN,Seller,Generated
ed196f19-fee3-416d-b23f-71224380bbfc,Owner 6115,+91XXXXXXXXXX,,New York,IN,Seller,Generated
f047eb31-9520-4df1-9558-a810a8a4e238,Owner 8761,+91XXXXXXXXXX,,Delhi,IN,Seller,Generated
10836755-a954-4715-bef8-45de21ab256e,Owner 6860,+91XXXXXXXXXX,,New York,IN,Seller,Generated
8c1571f5-c3c7-47d8-9b83-d9d09de2cbc6,Owner 8166,+91XXXXXXXXXX,,London,IN,Seller,Generated
1cd90bc6-fb4b-4412-bd6d-659f9b8003c3,Owner 4216,+91XXXXXXXXXX,,New York,IN,Seller,Generated
b88bc600-fd9d-4f86-8282-9af825c038a8,Owner 5193,+91XXXXXXXXXX,,New York,IN,Seller,Generated
f4ad22a4-9c30-41e7-882c-939db08193b0,Owner 8760,+91XXXXXXXXXX,,London,IN,Seller,Generated
cfd8eefa-680c-4ea6-9008-82f68b002b96,Owner 8384,+91XXXXXXXXXX,,Mumbai,IN,Seller,Generated
846479f0-5c72-40e9-8acb-6ab74fd72232,Owner 8573,+91XXXXXXXXXX,,New York,IN,Seller,Generated
e64e8640-52bc-442b-903b-bddc209c8811,Owner 662,+91XXXXXXXXXX,,Mumbai,IN,Seller,Generated
e76a04a0-9c05-411c-bb14-2bd977194dd5,Owner 9654,+91XXXXXXXXXX,,New York,IN,Seller,Generated
a0240f76-311c-44cf-b265-2a71f865c766,Owner 900,+91XXXXXXXXXX,,New York,IN,Seller,Generated
e8e8e9c2-3144-481e-bf6c-ad8005b7367e,Owner 7239,+91XXXXXXXXXX,,London,IN,Seller,Generated
7e98f2dd-be4a-43ff-b5b0-fc5916327079,Owner 4436,+91XXXXXXXXXX,,London,IN,Seller,Generated
ba547d25-0ff2-4534-966e-931cf3496d17,Owner 8361,+91XXXXXXXXXX,,Delhi,IN,Seller,Generated
c95e1c15-6753-40a0-8586-5b03ad878f34,Owner 1728,+91XXXXXXXXXX,,Mumbai,IN,Seller,Generated
91324b41-7267-4465-b461-c435977a3553,Owner 7255,+91XXXXXXXXXX,,Delhi,IN,Seller,Generated
46f5087f-b939-4400-8d66-e56b0d1cfdc6,Owner 332,+91XXXXXXXXXX,,New York,IN,Seller,Generated
25a9ba9a-245e-453e-9fb9-a4699b7c317b,Owner 4019,+91XXXXXXXXXX,,London,IN,Seller,Generated
0fcdc6bf-bc92-488b-97a9-53d0927f717b,Owner 2139,+91XXXXXXXXXX,,Delhi,IN,Seller,Generated
91efbf7c-3342-4183-bc2b-aa6dbaca86cd,Owner 6322,+91XXXXXXXXXX,,Mumbai,IN,Seller,Generated
c2288468-f148-4afe-860c-24d5dc5387d9,Owner 6698,+91XXXXXXXXXX,,New York,IN,Seller,Generated
9be566da-9255-4ae4-a837-6c360b927ded,Owner 610,+91XXXXXXXXXX,,London,IN,Seller,Generated
81e7e983-da0a-458e-bbf8-e90c879c67e5,Owner 3080,+91XXXXXXXXXX,,Mumbai,IN,Seller,Generated
2322ae91-f31f-4d7c-b2e0-5cb7a074fef3,Owner 1508,+91XXXXXXXXXX,,New York,IN,Seller,Generated
b9860aaf-72e8-416d-9c14-e5b4c9801aba,Owner 7349,+91XXXXXXXXXX,,London,IN,Seller,Generated
c20baa30-a973-4f7b-aac5-9cb6f1c7ee1b,Owner 2445,+91XXXXXXXXXX,,Delhi,IN,Seller,Generated
726c4d2b-9c63-4fbc-89f8-73339edb1d49,Owner 6543,+91XXXXXXXXXX,,New York,IN,Seller,Generated
4b8655b1-61c8-48cd-bc0c-c9e55a0cdbe3,Owner 3768,+91XXXXXXXXXX,,London,IN,Seller,Generated
56fb2885-8f5d-485f-864e-f72b4770627f,Owner 4044,+91XXXXXXXXXX,,London,IN,Seller,Generated
1ceba9a0-8107-4b1f-9c71-d1b5202eeb4c,Owner 5217,+91XXXXXXXXXX,,Delhi,IN,Seller,Generated
352a2186-0bc7-42da-9d8e-49afae42d2b9,Owner 6237,+91XXXXXXXXXX,,New York,IN,Seller,Generated
0a36470d-06ad-4e20-b8b6-e479ec47c058,Owner 4697,+91XXXXXXXXXX,,London,IN,Seller,Generated
1f6f87a0-1b0a-4c97-851d-76667d74b972,Owner 3311,+91XXXXXXXXXX,,Mumbai,IN,Seller,Generated
e6a2207e-90e8-444c-9364-8e41ee6d3f40,Owner 1640,+91XXXXXXXXXX,,London,IN,Seller,Generated
805e21d7-f310-497c-9a90-79ebb19904db,Owner 7683,+91XXXXXXXXXX,,Delhi,IN,Seller,Generated
de348acd-607b-44d2-8cc8-e6e0c2da3a4f,Owner 2471,+91XXXXXXXXXX,,Mumbai,IN,Seller,Generated
7e4af47b-6542-445e-a4e6-30533d31dc7a,Owner 6565,+91XXXXXXXXXX,,Delhi,IN,Seller,Generated
3939728a-f297-492a-b8ef-c294d0baf44c,Owner 9933,+91XXXXXXXXXX,,New York,IN,Seller,Generated
21fe7396-3842-4634-a3cb-5923ad4913cb,Owner 2796,+91XXXXXXXXXX,,New York,IN,Seller,Generated
1f9e11bb-b473-446e-ae61-8dc46adf5a7c,Owner 8688,+91XXXXXXXXXX,,Delhi,IN,Seller,Generated
16ee3378-3e0a-40d5-97fb-0b0c64b43875,Owner 593,+91XXXXXXXXXX,,New York,IN,Seller,Generated
7ea9998a-9da9-4434-a2d7-44aba0b1cf83,Owner 3948,+91XXXXXXXXXX,,Mumbai,IN,Seller,Generated
3f597140-7d11-4573-b402-e3c15c20deef,Owner 7789,+91XXXXXXXXXX,,New York,IN,Seller,Generated
0d0039a5-a6d4-4aa8-bfe7-57fff568d268,Owner 2346,+91XXXXXXXXXX,,New York,IN,Seller,Generated
08ddc663-f267-4604-9f8c-c3633f22b7a8,Owner 4929,+91XXXXXXXXXX,,New York,IN,Seller,Generated
ba7c96fe-5e6c-4351-a094-15b6b7b90053,Owner 3978,+91XXXXXXXXXX,,Mumbai,IN,Seller,Generated
de8ab4a5-f7f3-4a7f-9364-de3a5ca77a92,Owner 1548,+91XXXXXXXXXX,,New York,IN,Seller,Generated
f46c5d80-6c07-477b-858e-742331bee8a2,Owner 4378,+91XXXXXXXXXX,,Mumbai,IN,Seller,Generated
620bfda1-e548-4aca-8cf9-8a57837fbf63,Owner 6357,+91XXXXXXXXXX,,London,IN,Seller,Generated
3b62acdf-4974-4daf-854c-8056a8ca5af2,Owner 6598,+91XXXXXXXXXX,,New York,IN,Seller,Generated
2adf1eef-8c67-4e88-b40c-56676f4b3398,Owner 8481,+91XXXXXXXXXX,,Delhi,IN,Seller,Generated
b267d0c9-014f-4c0b-97c8-400a72d3f1cd,Owner 8755,+91XXXXXXXXXX,,Mumbai,IN,Seller,Generated
951ded6f-d4b5-4650-9167-628da807ca18,Owner 6143,+91XXXXXXXXXX,,Mumbai,IN,Seller,Generated
59bb2d03-60d8-4f81-9ef5-0eab0d81b07f,Owner 9010,+91XXXXXXXXXX,,Mumbai,IN,Seller,Generated
8d2e35fc-347b-4b91-9e76-24141a9a27bc,Owner 9487,+91XXXXXXXXXX,,Delhi,IN,Seller,Generated
0229a10b-6058-4cba-9f4e-a7f19c724a08,Owner 9752,+91XXXXXXXXXX,,New York,IN,Seller,Generated
23db312f-c2f0-4735-9e6a-0864600131c2,Owner 2050,+91XXXXXXXXXX,,New York,IN,Seller,Generated
336e2e9f-5852-43f0-822f-cac79d17d8dd,Owner 1327,+91XXXXXXXXXX,,New York,IN,Seller,Generated
f4bcb034-2edd-4e08-8d68-2acf105dcc7a,Owner 7009,+91XXXXXXXXXX,,Mumbai,IN,Seller,Generated
ca02349d-ad5f-4d4b-98a1-4b5a6e2fff0a,Owner 8314,+91XXXXXXXXXX,,Delhi,IN,Seller,Generated
7a37401c-8024-401f-8e11-9d152b60e75f,Owner 804,+91XXXXXXXXXX,,Mumbai,IN,Seller,Generated
6693db0b-75ff-4c0e-92c1-cd048b3b60eb,Owner 5326,+91XXXXXXXXXX,,Delhi,IN,Seller,Generated
c8e15ddd-5567-4576-be4b-ac354568c836,Owner 7621,+91XXXXXXXXXX,,London,IN,Seller,Generated
7db03162-000f-4b28-a9c0-a70f1a4105eb,Owner 7944,+91XXXXXXXXXX,,Mumbai,IN,Seller,Generated
30accf9d-5dc1-41dc-b42b-503bae0a4b1e,Owner 7312,+91XXXXXXXXXX,,London,IN,Seller,Generated
a0ae1637-eb38-4daf-b7dc-10acfe498d28,Owner 1343,+91XXXXXXXXXX,,Delhi,IN,Seller,Generated
56fd739d-2f0f-43f2-bf87-25c3335e8d95,Owner 2627,+91XXXXXXXXXX,,Mumbai,IN,Seller,Generated
2fe897c7-58d4-425c-a054-9af90898be22,Owner 1815,+91XXXXXXXXXX,,New York,IN,Seller,Generated
e4bd6b33-86df-453f-a7b7-275cb40eefcc,Owner 4338,+91XXXXXXXXXX,,New York,IN,Seller,Generated
99d19634-9cec-48c8-9e1b-e322dee5080b,Owner 9961,+91XXXXXXXXXX,,London,IN,Seller,Generated
591c90aa-0199-46ed-bb26-65bd72ca3188,Owner 4186,+91XXXXXXXXXX,,New York,IN,Seller,Generated
f0895dbd-a324-4905-b501-77b519bda190,Owner 9982,+91XXXXXXXXXX,,London,IN,Seller,Generated
b52d84b6-e7f3-4200-8e20-35af64501308,Owner 4106,+91XXXXXXXXXX,,New York,IN,Seller,Generated
c9a1365a-2c89-4c36-b011-c01cc6392099,Owner 1396,+91XXXXXXXXXX,,Mumbai,IN,Seller,Generated
792b41c6-ca2d-4008-be19-75cd9b7d0a2a,Owner 5211,+91XXXXXXXXXX,,Delhi,IN,Seller,Generated
4b89f827-6adf-459a-9d9a-53da46ff6f4a,Owner 4236,+91XXXXXXXXXX,,New York,IN,Seller,Generated
8574229f-c276-4a73-9f66-db8fe360ed35,Owner 8847,+91XXXXXXXXXX,,Delhi,IN,Seller,Generated
35825b11-0fc0-4e0a-a8cd-cb7de1aae960,Owner 764,+91XXXXXXXXXX,,New York,IN,Seller,Generated
13c5b9eb-346b-43da-8eeb-910d6edbf91f,Owner 7847,+91XXXXXXXXXX,,Delhi,IN,Seller,Generated
a16ab4fb-d2b4-4e31-87b6-b035fa2cf882,Owner 9461,+91XXXXXXXXXX,,Mumbai,IN,Seller,Generated
a5111445-d856-4aaa-ad47-0dd432556559,Owner 321,+91XXXXXXXXXX,,Mumbai,IN,Seller,Generated
ffb98cef-c46c-46c6-9d35-694062dd5024,Owner 4348,+91XXXXXXXXXX,,Delhi,IN,Seller,Generated
8db7604a-5e2b-4401-a72f-b3c0b62285a0,Owner 2243,+91XXXXXXXXXX,,London,IN,Seller,Generated
dec71edf-7995-4b2a-8695-cbab93e18863,Owner 3002,+91XXXXXXXXXX,,New York,IN,Seller,Generated
fcaefa58-97ae-4730-a7d7-3ee143d31238,Owner 5395,+91XXXXXXXXXX,,London,IN,Seller,Generated
9ee86164-42b9-446a-9825-32492a2b8948,Owner 3624,+91XXXXXXXXXX,,Delhi,IN,Seller,Generated
4aa86c9b-7a75-4dfc-95bf-71d8c2e2f40c,Owner 8955,+91XXXXXXXXXX,,Mumbai,IN,Seller,Generated
d6417561-6eed-489d-b63b-2794fecfbcfd,Owner 4702,+91XXXXXXXXXX,,Mumbai,IN,Seller,Generated
a8b57a68-249b-4b44-b928-7fb9759da30d,Owner 4292,+91XXXXXXXXXX,,Delhi,IN,Seller,Generated
8052ee8b-73c2-4fd7-a019-066daae5d58b,Owner 6168,+91XXXXXXXXXX,,New York,IN,Seller,Generated
f47af35a-a2b6-4b34-81ef-b59f2c48ad6a,Owner 3503,+91XXXXXXXXXX,,New York,IN,Seller,Generated
cbe719b8-d53e-477c-9b36-a874db3ac134,Owner 1264,+91XXXXXXXXXX,,Mumbai,IN,Seller,Generated
1e5a8951-33a5-4916-802a-a9ddc5feafe8,Owner 7416,+91XXXXXXXXXX,,New York,IN,Seller,Generated
b2eff647-e212-41e3-bf49-d83d723c5574,Owner 7500,+91XXXXXXXXXX,,London,IN,Seller,Generated
d795d522-1e13-46fb-ad32-1d5e7c218b51,Owner 2947,+91XXXXXXXXXX,,New York,IN,Seller,Generated
6d131734-e26f-499e-95be-7789823e53f5,Owner 6366,+91XXXXXXXXXX,,Mumbai,IN,Seller,Generated
4429cafe-f2aa-4f22-ad62-6cc0b2bc41db,Owner 2528,+91XXXXXXXXXX,,New York,IN,Seller,Generated
4f5cfcba-0e47-4093-b424-a647a9c7e442,Owner 6661,+91XXXXXXXXXX,,Mumbai,IN,Seller,Generated
29b1c240-0938-4fd4-a468-e20b348ab6bd,Owner 8668,+91XXXXXXXXXX,,Mumbai,IN,Seller,Generated
1f7cb4bd-284c-42bd-9fc8-02bca864075e,Owner 8317,+91XXXXXXXXXX,,Delhi,IN,Seller,Generated
0679fba5-f0fe-460a-be37-78c40fa782de,Owner 9113,+91XXXXXXXXXX,,New York,IN,Seller,Generated
cf0bd5d0-382c-4754-8d67-c48e440fac75,Owner 3549,+91XXXXXXXXXX,,Mumbai,IN,Seller,Generated
f98bc805-6ae1-4777-a4b0-72fa713827e5,Owner 341,+91XXXXXXXXXX,,New York,IN,Seller,Generated
eb1a5cc1-f442-449c-a585-73c743e8b314,Owner 3118,+91XXXXXXXXXX,,London,IN,Seller,Generated
fcca3c3b-d4e8-49fb-962a-895b6441a99d,Owner 2008,+91XXXXXXXXXX,,London,IN,Seller,Generated
bf012495-b9dd-4f90-b6b8-fc6ace5e4539,Owner 4128,+91XXXXXXXXXX,,Mumbai,IN,Seller,Generated
ae432cae-c58c-42aa-9444-4d1d0233b498,Owner 806,+91XXXXXXXXXX,,New York,IN,Seller,Generated
786f5835-c371-45c9-a69a-bc2e71a2fa0b,Owner 4714,+91XXXXXXXXXX,,New York,IN,Seller,Generated
63ee7de9-6565-43a0-8e80-034103e363f6,Owner 8585,+91XXXXXXXXXX,,Delhi,IN,Seller,Generated
2174e50b-dba7-42b3-a2c5-dc53106f45bd,Owner 7499,+91XXXXXXXXXX,,New York,IN,Seller,Generated
81386c7b-e751-4641-abbf-7d2d37b23da1,Owner 5418,+91XXXXXXXXXX,,London,IN,Seller,Generated
423be0e0-8efb-4900-97a8-98f406710b4b,Owner 1926,+91XXXXXXXXXX,,Delhi,IN,Seller,Generated
cf1c4814-82b6-4fe4-8e22-86f0a4349206,Owner 6360,+91XXXXXXXXXX,,Mumbai,IN,Seller,Generated
ec08c84e-cdd2-40f9-9f79-f8f578992b2b,Owner 9701,+91XXXXXXXXXX,,Delhi,IN,Seller,Generated
a69b9a72-c363-4596-a221-9b227c5278fc,Owner 4057,+91XXXXXXXXXX,,Mumbai,IN,Seller,Generated
44a42a28-0b80-4f70-a954-0651254cb5ab,Owner 2074,+91XXXXXXXXXX,,London,IN,Seller,Generated
30a1bd2f-33d7-4354-bbb5-d4e069833ba0,Owner 1954,+91XXXXXXXXXX,,London,IN,Seller,Generated
a0db804c-fe19-47ff-9169-bf130f1c497c,Owner 7678,+91XXXXXXXXXX,,New York,IN,Seller,Generated
30b2b59c-4409-48ef-9de9-479b1e98ffd0,Owner 8070,+91XXXXXXXXXX,,Delhi,IN,Seller,Generated
166ea607-e5fd-4e8c-8f5d-f88f8ef51f41,Owner 1382,+91XXXXXXXXXX,,Mumbai,IN,Seller,Generated
848255da-41df-4682-8316-7e67b7aa34bc,Owner 2069,+91XXXXXXXXXX,,Delhi,IN,Seller,Generated
8fc3baa7-16e6-487c-bedd-a9a5811dd9b2,Owner 5367,+91XXXXXXXXXX,,London,IN,Seller,Generated
a5993837-77b2-4fd7-b1e1-0c352a8a2b24,Owner 9447,+91XXXXXXXXXX,,Mumbai,IN,Seller,Generated
6b0968ef-b349-4d9c-a8cd-02143f388f3b,Owner 6315,+91XXXXXXXXXX,,London,IN,Seller,Generated
91d4cd7e-23ef-446d-8ed4-321782c3925a,Owner 4870,+91XXXXXXXXXX,,New York,IN,Seller,Generated
289137c5-39ea-4bbb-9d02-8857d461fbe9,Owner 5713,+91XXXXXXXXXX,,New York,IN,Seller,Generated
dfd17ca5-9774-44f8-a1a3-a9b13ba61fda,Owner 6873,+91XXXXXXXXXX,,Mumbai,IN,Seller,Generated
060b721a-0502-4535-8a47-f36b153020a7,Owner 4896,+91XXXXXXXXXX,,London,IN,Seller,Generated
c7aa22a1-0b5d-43a2-a09c-f2b3cdb468cd,Owner 9865,+91XXXXXXXXXX,,Mumbai,IN,Seller,Generated
76147b00-608b-43c6-b67b-9881d59662eb,Owner 7733,+91XXXXXXXXXX,,London,IN,Seller,Generated
5c08de96-7ab6-430c-8bcf-c4b8b99975be,Owner 1502,+91XXXXXXXXXX,,Mumbai,IN,Seller,Generated
5b515aa3-b59c-4e2e-a5c9-9c485142e965,Owner 422,+91XXXXXXXXXX,,Mumbai,IN,Seller,Generated
e58e6325-fb87-4857-89d8-2d821819b5fc,Owner 1042,+91XXXXXXXXXX,,London,IN,Seller,Generated
b1b9745d-e4aa-4d54-9b44-f1291be646d9,Owner 5075,+91XXXXXXXXXX,,Delhi,IN,Seller,Generated
db9b303c-dcb2-4db1-942f-4faf727d8ad4,Owner 8344,+91XXXXXXXXXX,,New York,IN,Seller,Generated
5b813965-00c5-43d8-865d-471462fc1d9b,Owner 6820,+91XXXXXXXXXX,,Delhi,IN,Seller,Generated
7360603d-4bd0-41c7-b669-772560e04a8d,Owner 5485,+91XXXXXXXXXX,,Mumbai,IN,Seller,Generated
2e8cef0f-9997-4d63-9c91-816fd2f5dd2b,Owner 5560,+91XXXXXXXXXX,,New York,IN,Seller,Generated
b65a5eea-4bd4-4c43-a5b3-7ed80c2e793d,Owner 9712,+91XXXXXXXXXX,,Mumbai,IN,Seller,Generated
24834819-1325-468a-9386-18615f7d95c2,Owner 8,+91XXXXXXXXXX,,Mumbai,IN,Seller,Generated
b2cf44bd-91fd-452d-91af-3195bfed8ef1,Owner 4521,+91XXXXXXXXXX,,Delhi,IN,Seller,Generated
f189a5da-281f-4a5e-94d7-0d08175f333e,Owner 7824,+91XXXXXXXXXX,,Mumbai,IN,Seller,Generated
7ee75ca1-d8cd-4fc0-88f6-e9b6c6b11bf5,Owner 3791,+91XXXXXXXXXX,,Delhi,IN,Seller,Generated
6c9591c2-f6dd-41aa-801d-e3d7dd82cbf4,Owner 3931,+91XXXXXXXXXX,,London,IN,Seller,Generated
8ea564a4-6b75-465f-b32f-fe6fb8e1fea7,Owner 766,+91XXXXXXXXXX,,Mumbai,IN,Seller,Generated
5d9b9ff2-d979-4c0e-868e-91c3dba7edaf,Owner 5608,+91XXXXXXXXXX,,London,IN,Seller,Generated
a9f316b5-bd12-4668-bd3d-226354c747cb,Owner 9504,+91XXXXXXXXXX,,Delhi,IN,Seller,Generated
44cddf17-6e2a-4efd-aa93-e995125c8138,Owner 7032,+91XXXXXXXXXX,,Mumbai,IN,Seller,Generated
e06f6f77-8398-4094-80a7-23dc34f8bccc,Owner 2543,+91XXXXXXXXXX,,Delhi,IN,Seller,Generated
82d7c162-9461-4f89-be4c-6aff6dec5cae,Owner 5141,+91XXXXXXXXXX,,Mumbai,IN,Seller,Generated
97c2fc74-fa16-449f-b93b-18162d1aeb97,Owner 9268,+91XXXXXXXXXX,,London,IN,Seller,Generated
ae471c47-fc43-405a-82cd-afa78abd3983,Owner 2977,+91XXXXXXXXXX,,Delhi,IN,Seller,Generated
5259135c-5d05-4887-825e-b5d3d759b27c,Owner 8646,+91XXXXXXXXXX,,Delhi,IN,Seller,Generated
eb87c555-64f3-4ebe-8460-288bcd8bab96,Owner 9087,+91XXXXXXXXXX,,Delhi,IN,Seller,Generated
1ee0ce88-0533-4a09-ad63-42a993349cac,Owner 5838,+91XXXXXXXXXX,,London,IN,Seller,Generated
6fc90638-cbf5-4346-962f-bc12991ecce5,Owner 3839,+91XXXXXXXXXX,,Delhi,IN,Seller,Generated
57ef9f81-1cf9-4bce-866f-1aa21659e2b6,Owner 5114,+91XXXXXXXXXX,,London,IN,Seller,Generated
6767423c-608e-466b-aa97-4ccd83a23912,Owner 7264,+91XXXXXXXXXX,,Delhi,IN,Seller,Generated
6d9f3c62-e52d-4dd6-8981-d887dc285e23,Owner 5762,+91XXXXXXXXXX,,New York,IN,Seller,Generated
004fc47b-0720-45bd-b801-0b3e511dee4c,Owner 2092,+91XXXXXXXXXX,,London,IN,Seller,Generated
66b70068-ef79-48ff-a933-a6d068d7c5bf,Owner 2992,+91XXXXXXXXXX,,London,IN,Seller,Generated
b479ec53-8701-418e-aba5-17acfeb29bce,Owner 8508,+91XXXXXXXXXX,,New York,IN,Seller,Generated
7f927ecc-4d5d-49b3-95b1-e7d598765513,Owner 7565,+91XXXXXXXXXX,,New York,IN,Seller,Generated
58e2a3d1-0d6a-4b85-bd0c-73230552a547,Owner 2575,+91XXXXXXXXXX,,London,IN,Seller,Generated
d494a0ef-8618-40fe-83a4-d66e35174d0e,Owner 5043,+91XXXXXXXXXX,,New York,IN,Seller,Generated
9aedd090-376b-49e6-ba8e-cc692589add6,Owner 7788,+91XXXXXXXXXX,,London,IN,Seller,Generated
75e44c73-ae4f-4ad0-b361-36125bd455c6,Owner 4498,+91XXXXXXXXXX,,New York,IN,Seller,Generated
4dc33ceb-cbf4-4efb-b326-3a3c320ad4c4,Owner 4299,+91XXXXXXXXXX,,New York,IN,Seller,Generated
70520439-deee-47de-8904-8ab1c8348739,Owner 9964,+91XXXXXXXXXX,,London,IN,Seller,Generated
6f40fb78-f272-4eb6-8e91-9a70e20673e9,Owner 3255,+91XXXXXXXXXX,,Mumbai,IN,Seller,Generated
f4384fd8-2a60-4df8-ad29-67b30bd54db9,Owner 5976,+91XXXXXXXXXX,,Delhi,IN,Seller,Generated
fc576409-d0dd-4a0d-b99a-e3eb6a85d0ad,Owner 1244,+91XXXXXXXXXX,,New York,IN,Seller,Generated
559873f3-5289-47ac-a4c0-f8ef2f2e9951,Owner 3196,+91XXXXXXXXXX,,Mumbai,IN,Seller,Generated
5298c56b-2e9f-4a8b-a9d0-c488730e404c,Owner 7808,+91XXXXXXXXXX,,Delhi,IN,Seller,Generated
a3f84e6f-64b2-4ec6-8440-593bd745537d,Owner 3793,+91XXXXXXXXXX,,London,IN,Seller,Generated
8d4f46e6-ee34-49b9-a94c-56ee432f44b6,Owner 1658,+91XXXXXXXXXX,,New York,IN,Seller,Generated
e3166085-6dc1-4bcc-be59-93b400739d1e,Owner 1584,+91XXXXXXXXXX,,Delhi,IN,Seller,Generated
9b8d6184-5457-4275-85a1-a50ea4c68b19,Owner 1971,+91XXXXXXXXXX,,Mumbai,IN,Seller,Generated
9d66b515-d2f8-4afb-ab70-be12c0b4e359,Owner 9654,+91XXXXXXXXXX,,Delhi,IN,Seller,Generated
1113908c-63c9-474e-8ec3-02cd3b90bcfc,Owner 9235,+91XXXXXXXXXX,,Mumbai,IN,Seller,Generated
48facbfa-496c-4fcb-8d05-d80bab66b5e5,Owner 3460,+91XXXXXXXXXX,,Delhi,IN,Seller,Generated
c6641b02-b0ae-40e5-b954-22e58fb28f51,Owner 545,+91XXXXXXXXXX,,Delhi,IN,Seller,Generated
7a7f1ed4-eae0-4205-9ad2-09aa0dfc5eed,Owner 741,+91XXXXXXXXXX,,New York,IN,Seller,Generated
914567f2-7a0f-4e40-92fc-19f517f8f756,Owner 8232,+91XXXXXXXXXX,,Mumbai,IN,Seller,Generated
77b9ba93-62b1-4c10-858c-1042c8fac66e,Owner 6310,+91XXXXXXXXXX,,Mumbai,IN,Seller,Generated
8e1647e3-19c6-4427-9647-362b7cd06eb8,Owner 5168,+91XXXXXXXXXX,,New York,IN,Seller,Generated
a8db6d21-7064-41c4-983b-87201a84f995,Owner 9130,+91XXXXXXXXXX,,Delhi,IN,Seller,Generated
7dd5fd83-17ec-48c3-816d-cbf3c02c887e,Owner 6231,+91XXXXXXXXXX,,Delhi,IN,Seller,Generated
bf8d0fd3-9629-4f3b-b0e6-71d4d542775e,Owner 3271,+91XXXXXXXXXX,,London,IN,Seller,Generated
734220ff-3a42-44a2-b279-6ec0081b6222,Owner 3880,+91XXXXXXXXXX,,Delhi,IN,Seller,Generated
d55477ab-7114-429b-a645-d2378ca8d925,Owner 2721,+91XXXXXXXXXX,,London,IN,Seller,Generated
5f286018-1b63-46e2-962e-245648686e0f,Owner 726,+91XXXXXXXXXX,,New York,IN,Seller,Generated
bf98bdd0-8045-4f13-bf18-0c4782f6f3a1,Owner 5557,+91XXXXXXXXXX,,New York,IN,Seller,Generated
87d6c919-68b0-4547-9f1a-b5d1c741719e,Owner 6411,+91XXXXXXXXXX,,Delhi,IN,Seller,Generated
bf396dee-063c-4978-920a-87e94cf061ae,Owner 8809,+91XXXXXXXXXX,,New York,IN,Seller,Generated
49d9a64e-87e4-4f24-a047-8186653e15a1,Owner 4530,+91XXXXXXXXXX,,Delhi,IN,Seller,Generated
851b1fcb-b19b-42c3-ace6-bae5a0e6dc73,Owner 2417,+91XXXXXXXXXX,,Delhi,IN,Seller,Generated
56d16a7c-8923-45c2-ba06-9a3c5fa1c286,Owner 9051,+91XXXXXXXXXX,,New York,IN,Seller,Generated
98b24907-1496-4525-ae5a-aa3ce722ccd1,Owner 6446,+91XXXXXXXXXX,,London,IN,Seller,Generated
db3e8598-d255-4c29-9fc6-152eef36fdc0,Owner 8577,+91XXXXXXXXXX,,Delhi,IN,Seller,Generated
8b0853bb-5bc8-4b6c-8345-e2017fafb97d,Owner 6402,+91XXXXXXXXXX,,London,IN,Seller,Generated
840d4025-56ca-4ca1-a7b5-d40e3c125c79,Owner 693,+91XXXXXXXXXX,,New York,IN,Seller,Generated
a99a630e-b052-4f19-88ce-bb422081177f,Owner 8198,+91XXXXXXXXXX,,New York,IN,Seller,Generated
d7712034-6ba9-4cc8-9716-7c773e7885cb,Owner 9887,+91XXXXXXXXXX,,Delhi,IN,Seller,Generated
a59f75bd-76d0-4b22-9d7e-0529fac7fea0,Owner 9556,+91XXXXXXXXXX,,Delhi,IN,Seller,Generated
8c1d06fd-f9b9-4033-bf54-591a42ababf1,Owner 7851,+91XXXXXXXXXX,,London,IN,Seller,Generated
7c2cb1c7-d328-42f0-b054-e32c67ca8d0a,Owner 278,+91XXXXXXXXXX,,Mumbai,IN,Seller,Generated
893c462e-ea74-49ca-baf3-6b8e591fccf8,Owner 5225,+91XXXXXXXXXX,,New York,IN,Seller,Generated
0818511b-3b2d-472e-97bb-9cfb0df7bb0a,Owner 1231,+91XXXXXXXXXX,,New York,IN,Seller,Generated
33fdb3ee-44df-4e06-90e6-834da9f4f881,Owner 3351,+91XXXXXXXXXX,,New York,IN,Seller,Generated
7690518b-ee27-4c1b-b599-793df976626b,Owner 9068,+91XXXXXXXXXX,,Delhi,IN,Seller,Generated
97f8d6c0-e140-419c-b388-bacc2f785ebf,Owner 5939,+91XXXXXXXXXX,,Delhi,IN,Seller,Generated
6d3cf9fd-6a0b-4e1c-8549-4c619d7bdfd9,Owner 3751,+91XXXXXXXXXX,,New York,IN,Seller,Generated
e29c1d06-6483-497d-96ef-aa9bdb0d4b96,Owner 7700,+91XXXXXXXXXX,,Mumbai,IN,Seller,Generated
875d440f-2f20-4255-9052-ec41a0c854fd,Owner 2867,+91XXXXXXXXXX,,Delhi,IN,Seller,Generated
2bf673d8-a5a5-46a6-8455-edb0b91f6704,Owner 9165,+91XXXXXXXXXX,,Delhi,IN,Seller,Generated
8c42d30f-071c-4c30-be07-aed797ea5a7d,Owner 4508,+91XXXXXXXXXX,,Mumbai,IN,Seller,Generated
6674c0a1-9c09-441d-a51d-d9b5ed8d7aa3,Owner 3371,+91XXXXXXXXXX,,Delhi,IN,Seller,Generated
db6ec310-636d-4c3a-96aa-2ab1fdba3ba2,Owner 8184,+91XXXXXXXXXX,,Delhi,IN,Seller,Generated
e6620f20-d279-496c-934a-276cc9dd6959,Owner 6785,+91XXXXXXXXXX,,London,IN,Seller,Generated
8a847557-acb0-4b23-a314-6396898b38f6,Owner 4608,+91XXXXXXXXXX,,New York,IN,Seller,Generated
55f2da07-b34c-422c-ace0-75d172007b5e,Owner 6824,+91XXXXXXXXXX,,Delhi,IN,Seller,Generated
03044e51-143e-45ca-98cf-d9b8a334aed2,Owner 8224,+91XXXXXXXXXX,,London,IN,Seller,Generated
7c3063e8-c8c6-4e32-82f1-f8d34f982bef,Owner 5241,+91XXXXXXXXXX,,Mumbai,IN,Seller,Generated
060b51e0-a069-404b-aee7-215af664b6ec,Owner 1947,+91XXXXXXXXXX,,London,IN,Seller,Generated
fbf352ab-6a98-4e4d-a37a-e365267a7568,Owner 9831,+91XXXXXXXXXX,,Mumbai,IN,Seller,Generated
54d0060f-202e-414a-bb4c-e5eb1b785add,Owner 2731,+91XXXXXXXXXX,,New York,IN,Seller,Generated
1475f0e0-d261-4454-9603-3032031b51f5,Owner 5367,+91XXXXXXXXXX,,London,IN,Seller,Generated
2c6e31d5-2e2b-4bca-bb1b-75222a251c3c,Owner 1339,+91XXXXXXXXXX,,New York,IN,Seller,Generated
d484897e-8fab-4d7f-8578-098fcb227c2e,Owner 8762,+91XXXXXXXXXX,,New York,IN,Seller,Generated
50fccb86-50e7-4d7c-a049-8e4624e1f415,Owner 9744,+91XXXXXXXXXX,,London,IN,Seller,Generated
77693764-590c-4cf5-bf5b-82ae49ab6666,Owner 1245,+91XXXXXXXXXX,,New York,IN,Seller,Generated
93914d4f-dfa6-4f03-89be-1b1182432d08,Owner 4829,+91XXXXXXXXXX,,Delhi,IN,Seller,Generated
8fd7dbe2-8c45-4caf-a14b-a21d4e20459e,Owner 9167,+91XXXXXXXXXX,,New York,IN,Seller,Generated
3cac3478-8fa1-4c34-9ae4-de6a3825559c,Owner 2293,+91XXXXXXXXXX,,New York,IN,Seller,Generated
4ba54fe0-08e4-429c-9f27-3ab64e32763d,Owner 7710,+91XXXXXXXXXX,,New York,IN,Seller,Generated
89f8d809-b631-40e4-a7c3-705839af35ca,Owner 8124,+91XXXXXXXXXX,,London,IN,Seller,Generated
be010280-2d98-4518-bfe4-006e0541e908,Owner 4326,+91XXXXXXXXXX,,Delhi,IN,Seller,Generated
ff738078-3ea3-448b-8f26-cedbc8279900,Owner 2694,+91XXXXXXXXXX,,London,IN,Seller,Generated
af13bd5e-162a-4357-a7dc-a3ec0829a1a7,Owner 5797,+91XXXXXXXXXX,,New York,IN,Seller,Generated
2644fc15-a773-41a8-8c61-66803e866f14,Owner 5776,+91XXXXXXXXXX,,Mumbai,IN,Seller,Generated
4689365d-5ca8-4c6c-b0c9-5681aa459736,Owner 3931,+91XXXXXXXXXX,,New York,IN,Seller,Generated
651bc4a4-76ea-44b5-92bf-fbe64a113cd0,Owner 3875,+91XXXXXXXXXX,,London,IN,Seller,Generated
316dc77d-b67e-4f4e-b98c-1b9c63031e47,Owner 4001,+91XXXXXXXXXX,,Delhi,IN,Seller,Generated
cbd1f9d3-c02c-46a3-bc16-8237cdb6315c,Owner 9249,+91XXXXXXXXXX,,Mumbai,IN,Seller,Generated
d7b230e1-8350-4378-bc5e-37ab45b5bbf6,Owner 8816,+91XXXXXXXXXX,,New York,IN,Seller,Generated
fa189590-2a11-4b9e-8049-8ed0786fabb0,Owner 2223,+91XXXXXXXXXX,,New York,IN,Seller,Generated
870de347-b914-4593-b53b-6bd035768f7b,Owner 2024,+91XXXXXXXXXX,,London,IN,Seller,Generated
2e8528dc-f7cc-4c88-b58a-3452f15658ff,Owner 5392,+91XXXXXXXXXX,,Delhi,IN,Seller,Generated
4a8b370a-89be-4e25-8b07-adb002ec748a,Owner 6151,+91XXXXXXXXXX,,Delhi,IN,Seller,Generated
ae70931a-5915-4c6b-b8ec-b7d6528b3950,Owner 425,+91XXXXXXXXXX,,London,IN,Seller,Generated
bb6ce2cc-1a11-4bd9-bad5-a3e4c6552980,Owner 9930,+91XXXXXXXXXX,,Mumbai,IN,Seller,Generated
f08d43c0-dfc1-4e45-921b-456afec0b8b3,Owner 8524,+91XXXXXXXXXX,,New York,IN,Seller,Generated
2b36a0a2-f22c-466a-8e8e-317906ed9cd2,Owner 345,+91XXXXXXXXXX,,Mumbai,IN,Seller,Generated
c026a449-6a0c-4e91-bd24-1da2c560302d,Owner 9450,+91XXXXXXXXXX,,New York,IN,Seller,Generated
387f5375-e5d5-4caa-bb67-ec441902871c,Owner 7724,+91XXXXXXXXXX,,New York,IN,Seller,Generated
28d87a1b-8310-4fe1-ac32-8f8c3ec24d37,Owner 3327,+91XXXXXXXXXX,,London,IN,Seller,Generated
